{"type": "FeatureCollection", "features": [{"type": "Feature", "properties": {"DISTRICT": "1", "POPULATION": 22124}, "geometry": {"type": "Polygon", "coordinates": [[[-121.860698, 37.357988], [-121.859577, 37.358787], [-121.858955, 37.359229], [-121.857702, 37.360126], [-121.857266, 37.360427], [-121.8569, 37.360675], [-121.856749, 37.360776], [-121.856299, 37.36108], [-121.85615, 37.361182], [-121.856023, 37.361267], [-121.855832, 37.361397], [-121.855643, 37.361523], [-121.855516, 37.361608], [-121.855498, 37.361619], [-121.855446, 37.361654], [-121.855429, 37.361666], [-121.855304, 37.36175], [-121.854931, 37.362004], [-121.854807, 37.36209], [-121.854665, 37.362185], [-121.854242, 37.362472], [-121.854101, 37.362569], [-121.853846, 37.362741], [-121.853082, 37.36326], [-121.852828, 37.363433], [-121.852494, 37.363649], [-121.852454, 37.363675], [-121.851956, 37.36401], [-121.851504, 37.364315], [-121.851285, 37.364464], [-121.851176, 37.36454], [-121.850964, 37.364683], [-121.850361, 37.365091], [-121.850329, 37.365112], [-121.85012, 37.365259], [-121.84988, 37.365485], [-121.848205, 37.366636], [-121.847921, 37.366875], [-121.846869, 37.367583], [-121.846687, 37.367691], [-121.846492, 37.367813], [-121.846387, 37.367917], [-121.84632, 37.367838], [-121.846249, 37.367752], [-121.846195, 37.367686], [-121.84616, 37.367644], [-121.845964, 37.36735], [-121.845864, 37.367199], [-121.845756, 37.367036], [-121.845522, 37.366749], [-121.845373, 37.366501], [-121.84493, 37.365749], [-121.844051, 37.364395], [-121.843975, 37.364268], [-121.843213, 37.362995], [-121.842947, 37.362551], [-121.84232, 37.361507], [-121.841552, 37.360187], [-121.841221, 37.359649], [-121.841193, 37.359604], [-121.841148, 37.359531], [-121.841083, 37.359565], [-121.841051, 37.359582], [-121.841009, 37.359604], [-121.840908, 37.359656], [-121.840782, 37.359721], [-121.840702, 37.359753], [-121.840576, 37.359806], [-121.840476, 37.359856], [-121.840422, 37.359877], [-121.840289, 37.359951], [-121.840045, 37.360063], [-121.839845, 37.360149], [-121.839579, 37.360306], [-121.839575, 37.36037], [-121.8393, 37.3605], [-121.839128, 37.360582], [-121.838911, 37.360684], [-121.838263, 37.360992], [-121.838047, 37.361096], [-121.837833, 37.361154], [-121.837539, 37.361259], [-121.837222, 37.361383], [-121.837013, 37.361494], [-121.836697, 37.361642], [-121.83614, 37.361895], [-121.835628, 37.362129], [-121.835394, 37.362236], [-121.835315, 37.362272], [-121.835274, 37.362291], [-121.835192, 37.362334], [-121.835177, 37.362342], [-121.834885, 37.362501], [-121.834788, 37.362553], [-121.834683, 37.362603], [-121.834453, 37.362711], [-121.834366, 37.362752], [-121.83426, 37.362802], [-121.834163, 37.362842], [-121.83415, 37.362847], [-121.834042, 37.362891], [-121.833802, 37.363015], [-121.833684, 37.363078], [-121.833498, 37.36317], [-121.83321, 37.363315], [-121.832894, 37.363481], [-121.832766, 37.363597], [-121.832126, 37.363889], [-121.831773, 37.364071], [-121.830546, 37.364636], [-121.829663, 37.365051], [-121.829538, 37.365033], [-121.827983, 37.365712], [-121.827928, 37.365737], [-121.827949, 37.365758], [-121.828022, 37.365832], [-121.828048, 37.36586], [-121.828154, 37.365971], [-121.828165, 37.365983], [-121.828523, 37.366386], [-121.828582, 37.366449], [-121.828625, 37.366495], [-121.828725, 37.366602], [-121.828839, 37.366732], [-121.829018, 37.366936], [-121.829185, 37.367119], [-121.829302, 37.367248], [-121.829771, 37.367764], [-121.830293, 37.368339], [-121.830498, 37.368587], [-121.83058, 37.368692], [-121.831114, 37.369368], [-121.831547, 37.369916], [-121.831565, 37.36994], [-121.831622, 37.370012], [-121.831641, 37.370036], [-121.831656, 37.370055], [-121.831701, 37.370112], [-121.831717, 37.370131], [-121.831768, 37.370196], [-121.831798, 37.370234], [-121.831918, 37.370398], [-121.831968, 37.370466], [-121.832019, 37.370538], [-121.832172, 37.370754], [-121.832223, 37.370826], [-121.832266, 37.370881], [-121.832395, 37.371048], [-121.832438, 37.371104], [-121.832519, 37.371207], [-121.832528, 37.371219], [-121.832763, 37.371518], [-121.832845, 37.371622], [-121.832958, 37.371763], [-121.833297, 37.372188], [-121.833362, 37.372268], [-121.833411, 37.37233], [-121.833474, 37.37241], [-121.833665, 37.372652], [-121.833729, 37.372733], [-121.833864, 37.372914], [-121.833887, 37.372944], [-121.834112, 37.373229], [-121.834285, 37.373447], [-121.834427, 37.373625], [-121.834641, 37.373897], [-121.834661, 37.373923], [-121.83537, 37.374815], [-121.835459, 37.374927], [-121.835609, 37.37511], [-121.835714, 37.375249], [-121.835983, 37.375603], [-121.836034, 37.375666], [-121.836145, 37.375803], [-121.835946, 37.375937], [-121.835666, 37.37613], [-121.835455, 37.376275], [-121.835416, 37.376302], [-121.835313, 37.376372], [-121.835402, 37.376488], [-121.835375, 37.376507], [-121.835224, 37.37661], [-121.834967, 37.376786], [-121.834878, 37.376847], [-121.834697, 37.376968], [-121.834846, 37.377164], [-121.83488, 37.377208], [-121.834926, 37.377268], [-121.835068, 37.377454], [-121.835165, 37.377582], [-121.835352, 37.377826], [-121.83545, 37.377955], [-121.835737, 37.377812], [-121.836009, 37.377677], [-121.836366, 37.377505], [-121.836748, 37.377323], [-121.836785, 37.377306], [-121.83716, 37.377126], [-121.837179, 37.377159], [-121.837237, 37.377262], [-121.837274, 37.377314], [-121.837499, 37.377628], [-121.837556, 37.3777], [-121.837609, 37.377746], [-121.837693, 37.377821], [-121.837741, 37.377873], [-121.837763, 37.377897], [-121.83788, 37.378052], [-121.838163, 37.378429], [-121.838262, 37.378557], [-121.838289, 37.378598], [-121.838414, 37.378789], [-121.838477, 37.378878], [-121.838583, 37.379019], [-121.838698, 37.379162], [-121.838706, 37.379172], [-121.838632, 37.379214], [-121.838596, 37.379227], [-121.838426, 37.379307], [-121.838149, 37.379441], [-121.837868, 37.379578], [-121.837776, 37.379609], [-121.837631, 37.379678], [-121.837198, 37.379887], [-121.837054, 37.379957], [-121.836909, 37.380026], [-121.836476, 37.380235], [-121.836332, 37.380305], [-121.836187, 37.380374], [-121.835755, 37.380583], [-121.835611, 37.380653], [-121.835465, 37.380722], [-121.835031, 37.380932], [-121.834886, 37.381002], [-121.834741, 37.381076], [-121.834506, 37.381198], [-121.834303, 37.381286], [-121.834155, 37.381351], [-121.833994, 37.38114], [-121.833513, 37.38051], [-121.833353, 37.3803], [-121.833346, 37.380289], [-121.833325, 37.380257], [-121.833318, 37.380247], [-121.83322, 37.380119], [-121.833183, 37.380071], [-121.833127, 37.380004], [-121.834284, 37.379435], [-121.834011, 37.379085], [-121.833769, 37.378773], [-121.833506, 37.3789], [-121.833416, 37.378945], [-121.832579, 37.377868], [-121.832543, 37.377817], [-121.832535, 37.377807], [-121.832293, 37.377966], [-121.831985, 37.377531], [-121.831956, 37.377551], [-121.831886, 37.377598], [-121.831846, 37.377626], [-121.832016, 37.37786], [-121.832181, 37.378086], [-121.832, 37.378206], [-121.831732, 37.378384], [-121.831621, 37.378258], [-121.831548, 37.378165], [-121.831374, 37.377944], [-121.831298, 37.377995], [-121.831069, 37.37815], [-121.830994, 37.378202], [-121.830934, 37.378239], [-121.830904, 37.378259], [-121.830641, 37.378439], [-121.830554, 37.3785], [-121.830459, 37.378564], [-121.830173, 37.378758], [-121.830079, 37.378823], [-121.829943, 37.378915], [-121.829535, 37.37919], [-121.8294, 37.379283], [-121.829296, 37.379352], [-121.829228, 37.379399], [-121.829132, 37.379464], [-121.828987, 37.379562], [-121.828884, 37.379632], [-121.828716, 37.379746], [-121.828212, 37.380087], [-121.828045, 37.380202], [-121.827981, 37.380244], [-121.827792, 37.380372], [-121.827729, 37.380416], [-121.827666, 37.380458], [-121.827603, 37.380501], [-121.827591, 37.380509], [-121.827478, 37.380583], [-121.827416, 37.380625], [-121.827293, 37.380705], [-121.82719, 37.380774], [-121.827022, 37.380863], [-121.826906, 37.380912], [-121.826878, 37.380925], [-121.826769, 37.380965], [-121.826712, 37.380984], [-121.826679, 37.380997], [-121.826539, 37.38103], [-121.826482, 37.381045], [-121.826455, 37.38105], [-121.826374, 37.381066], [-121.826348, 37.381072], [-121.826459, 37.38126], [-121.826572, 37.381425], [-121.827209, 37.382357], [-121.827282, 37.382462], [-121.827521, 37.382807], [-121.827667, 37.383021], [-121.828032, 37.383555], [-121.828107, 37.383664], [-121.828255, 37.383879], [-121.828551, 37.384299], [-121.828588, 37.384352], [-121.828996, 37.384941], [-121.829427, 37.385569], [-121.829719, 37.385993], [-121.829846, 37.386179], [-121.830227, 37.386738], [-121.830355, 37.386925], [-121.830384, 37.386968], [-121.83066, 37.386843], [-121.830843, 37.386761], [-121.831022, 37.386683], [-121.831157, 37.386619], [-121.831271, 37.386571], [-121.831371, 37.386523], [-121.831518, 37.386459], [-121.831534, 37.386458], [-121.831669, 37.386397], [-121.83179, 37.386342], [-121.831938, 37.386277], [-121.832024, 37.386237], [-121.832129, 37.386191], [-121.832224, 37.386149], [-121.832389, 37.386075], [-121.832511, 37.386021], [-121.832555, 37.386001], [-121.83258, 37.385989], [-121.832625, 37.38597], [-121.832714, 37.385929], [-121.832788, 37.385897], [-121.832875, 37.385857], [-121.832894, 37.385854], [-121.83305, 37.385783], [-121.833208, 37.385714], [-121.833297, 37.385674], [-121.833453, 37.385604], [-121.833567, 37.385554], [-121.8337, 37.385494], [-121.833811, 37.385446], [-121.833861, 37.385422], [-121.833915, 37.385399], [-121.833987, 37.385369], [-121.834096, 37.385319], [-121.834222, 37.385262], [-121.834441, 37.385166], [-121.834614, 37.385091], [-121.834717, 37.385044], [-121.834835, 37.384991], [-121.834925, 37.384952], [-121.835287, 37.384792], [-121.835422, 37.38473], [-121.835561, 37.384669], [-121.835695, 37.384611], [-121.835863, 37.384542], [-121.836075, 37.384448], [-121.836281, 37.384357], [-121.836372, 37.384317], [-121.836966, 37.384095], [-121.837637, 37.383793], [-121.839519, 37.382952], [-121.839526, 37.382928], [-121.839616, 37.382886], [-121.841054, 37.382244], [-121.840895, 37.382045], [-121.840786, 37.381908], [-121.840759, 37.381872], [-121.84068, 37.381765], [-121.840654, 37.38173], [-121.840631, 37.3817], [-121.840564, 37.381611], [-121.840542, 37.381582], [-121.840491, 37.381515], [-121.840876, 37.381253], [-121.841245, 37.381003], [-121.841618, 37.380744], [-121.841356, 37.380406], [-121.842414, 37.379697], [-121.842785, 37.379449], [-121.843074, 37.37972], [-121.843108, 37.379748], [-121.843398, 37.37956], [-121.843477, 37.3795], [-121.843557, 37.379432], [-121.843798, 37.379263], [-121.844051, 37.379095], [-121.844328, 37.378907], [-121.844589, 37.378731], [-121.844842, 37.378557], [-121.845155, 37.378354], [-121.845442, 37.378152], [-121.845688, 37.377972], [-121.845628, 37.377913], [-121.846357, 37.3774], [-121.846981, 37.376999], [-121.847454, 37.376681], [-121.848273, 37.376141], [-121.848601, 37.375936], [-121.848729, 37.375857], [-121.848795, 37.375806], [-121.849346, 37.375435], [-121.849966, 37.375037], [-121.850573, 37.374627], [-121.851111, 37.374287], [-121.851226, 37.374219], [-121.851718, 37.373887], [-121.851841, 37.37381], [-121.851805, 37.373773], [-121.852043, 37.373632], [-121.853009, 37.373042], [-121.854103, 37.372316], [-121.855514, 37.371391], [-121.855943, 37.371104], [-121.85602, 37.371183], [-121.856127, 37.371291], [-121.856449, 37.371617], [-121.856557, 37.371726], [-121.856675, 37.371845], [-121.85703, 37.372204], [-121.857149, 37.372324], [-121.857374, 37.372552], [-121.858927, 37.3715], [-121.860394, 37.372864], [-121.860613, 37.372717], [-121.861003, 37.372448], [-121.861364, 37.372201], [-121.861589, 37.372091], [-121.861623, 37.372068], [-121.862558, 37.371418], [-121.862944, 37.371152], [-121.863038, 37.371087], [-121.863251, 37.37094], [-121.863309, 37.370881], [-121.863404, 37.370802], [-121.863561, 37.370699], [-121.864552, 37.370056], [-121.864794, 37.369899], [-121.864882, 37.369841], [-121.865088, 37.369704], [-121.865196, 37.369633], [-121.864804, 37.36923], [-121.86464, 37.369061], [-121.866839, 37.367585], [-121.866858, 37.367527], [-121.868787, 37.366197], [-121.868827, 37.366162], [-121.868818, 37.366153], [-121.868737, 37.366068], [-121.868655, 37.365983], [-121.868341, 37.365711], [-121.868091, 37.365508], [-121.867982, 37.36542], [-121.86769, 37.365121], [-121.867627, 37.365055], [-121.86741, 37.364826], [-121.867291, 37.364684], [-121.867279, 37.36467], [-121.866856, 37.364229], [-121.866846, 37.364219], [-121.866554, 37.363931], [-121.866384, 37.363742], [-121.865576, 37.362921], [-121.865149, 37.362486], [-121.865041, 37.362375], [-121.864717, 37.362044], [-121.86461, 37.361934], [-121.864372, 37.361681], [-121.864293, 37.361597], [-121.864129, 37.361435], [-121.863643, 37.360936], [-121.863593, 37.360885], [-121.863384, 37.360706], [-121.863342, 37.36067], [-121.863267, 37.360579], [-121.863124, 37.360421], [-121.863032, 37.360328], [-121.862061, 37.359341], [-121.861938, 37.359215], [-121.86177, 37.35907], [-121.861718, 37.359035], [-121.861658, 37.358975], [-121.861384, 37.358702], [-121.861135, 37.358439], [-121.860698, 37.357988]]]}}, {"type": "Feature", "properties": {"DISTRICT": "2", "POPULATION": 23219}, "geometry": {"type": "Polygon", "coordinates": [[[-121.851632, 37.33904], [-121.848591, 37.335812], [-121.848506, 37.335862], [-121.84842, 37.335912], [-121.848369, 37.33595], [-121.848302, 37.335999], [-121.848147, 37.336088], [-121.848014, 37.336166], [-121.847841, 37.336268], [-121.847794, 37.3363], [-121.847744, 37.336336], [-121.847721, 37.336353], [-121.84765, 37.336402], [-121.847612, 37.336428], [-121.84754, 37.336483], [-121.847371, 37.336606], [-121.847295, 37.336675], [-121.847162, 37.336796], [-121.847035, 37.336924], [-121.846818, 37.337161], [-121.846651, 37.337354], [-121.846446, 37.337589], [-121.846273, 37.337741], [-121.846062, 37.337927], [-121.845914, 37.338042], [-121.845803, 37.338117], [-121.845727, 37.338162], [-121.845688, 37.338188], [-121.845527, 37.338275], [-121.845043, 37.338601], [-121.843732, 37.339489], [-121.84359, 37.339575], [-121.843461, 37.339655], [-121.843205, 37.339833], [-121.843109, 37.339904], [-121.842933, 37.340032], [-121.842613, 37.340246], [-121.842557, 37.34028], [-121.842439, 37.340356], [-121.840895, 37.341399], [-121.840484, 37.341678], [-121.840337, 37.341766], [-121.840163, 37.341894], [-121.839862, 37.342097], [-121.838745, 37.342852], [-121.838423, 37.343071], [-121.838172, 37.343241], [-121.837945, 37.343398], [-121.837868, 37.343449], [-121.83764, 37.343603], [-121.837564, 37.343655], [-121.837108, 37.343962], [-121.835743, 37.344886], [-121.835288, 37.345195], [-121.835197, 37.345256], [-121.834927, 37.345438], [-121.834837, 37.3455], [-121.834681, 37.345605], [-121.834216, 37.345922], [-121.834061, 37.346029], [-121.833778, 37.34622], [-121.832929, 37.346794], [-121.832647, 37.346986], [-121.832692, 37.347034], [-121.832774, 37.347122], [-121.832996, 37.347358], [-121.833157, 37.34753], [-121.833285, 37.347667], [-121.833313, 37.347703], [-121.833499, 37.347901], [-121.834151, 37.348595], [-121.834369, 37.348827], [-121.834766, 37.349251], [-121.835799, 37.350353], [-121.835962, 37.350521], [-121.836098, 37.350661], [-121.836358, 37.350947], [-121.836443, 37.351037], [-121.836701, 37.351309], [-121.836736, 37.351346], [-121.836786, 37.351401], [-121.836919, 37.351547], [-121.836936, 37.351566], [-121.837324, 37.35198], [-121.83746, 37.352125], [-121.837545, 37.352213], [-121.837561, 37.35223], [-121.837798, 37.352481], [-121.837883, 37.352571], [-121.837983, 37.352676], [-121.837983, 37.352951], [-121.838096, 37.353528], [-121.838175, 37.353873], [-121.838282, 37.354238], [-121.838368, 37.354536], [-121.838559, 37.355177], [-121.838727, 37.355522], [-121.838764, 37.355597], [-121.838799, 37.355656], [-121.839661, 37.357111], [-121.840919, 37.359158], [-121.841148, 37.359531], [-121.841193, 37.359604], [-121.841221, 37.359649], [-121.841552, 37.360187], [-121.84232, 37.361507], [-121.842947, 37.362551], [-121.843213, 37.362995], [-121.843975, 37.364268], [-121.844051, 37.364395], [-121.84493, 37.365749], [-121.845373, 37.366501], [-121.845522, 37.366749], [-121.845756, 37.367036], [-121.845864, 37.367199], [-121.845964, 37.36735], [-121.84616, 37.367644], [-121.846195, 37.367686], [-121.846249, 37.367752], [-121.84632, 37.367838], [-121.846387, 37.367917], [-121.846492, 37.367813], [-121.846687, 37.367691], [-121.846869, 37.367583], [-121.847921, 37.366875], [-121.848205, 37.366636], [-121.84988, 37.365485], [-121.85012, 37.365259], [-121.850329, 37.365112], [-121.850361, 37.365091], [-121.850964, 37.364683], [-121.851176, 37.36454], [-121.851285, 37.364464], [-121.851504, 37.364315], [-121.851956, 37.36401], [-121.852454, 37.363675], [-121.852494, 37.363649], [-121.852828, 37.363433], [-121.853082, 37.36326], [-121.853846, 37.362741], [-121.854101, 37.362569], [-121.854242, 37.362472], [-121.854665, 37.362185], [-121.854807, 37.36209], [-121.854931, 37.362004], [-121.855304, 37.36175], [-121.855429, 37.361666], [-121.855446, 37.361654], [-121.855498, 37.361619], [-121.855516, 37.361608], [-121.855643, 37.361523], [-121.855832, 37.361397], [-121.856023, 37.361267], [-121.85615, 37.361182], [-121.856299, 37.36108], [-121.856749, 37.360776], [-121.8569, 37.360675], [-121.857266, 37.360427], [-121.857702, 37.360126], [-121.858955, 37.359229], [-121.859577, 37.358787], [-121.860698, 37.357988], [-121.860652, 37.35794], [-121.860357, 37.357644], [-121.859462, 37.356737], [-121.859133, 37.356395], [-121.859056, 37.356314], [-121.858729, 37.356482], [-121.858291, 37.356707], [-121.85775, 37.356987], [-121.857712, 37.357007], [-121.857528, 37.357048], [-121.856945, 37.357441], [-121.856652, 37.357633], [-121.856356, 37.357833], [-121.855983, 37.357896], [-121.855793, 37.35791], [-121.855547, 37.357906], [-121.855387, 37.357922], [-121.855257, 37.357916], [-121.855005, 37.35789], [-121.854728, 37.35785], [-121.854525, 37.357806], [-121.854374, 37.357766], [-121.854318, 37.357743], [-121.854237, 37.357703], [-121.854146, 37.357645], [-121.854041, 37.35756], [-121.853927, 37.357464], [-121.85378, 37.357331], [-121.853634, 37.357435], [-121.853175, 37.356977], [-121.852865, 37.356672], [-121.852349, 37.35623], [-121.852269, 37.356076], [-121.851917, 37.355726], [-121.85184, 37.355648], [-121.85162, 37.355407], [-121.85133, 37.355116], [-121.851126, 37.354892], [-121.851332, 37.354796], [-121.851754, 37.354598], [-121.851913, 37.354534], [-121.852981, 37.354026], [-121.853285, 37.353885], [-121.853783, 37.353646], [-121.853839, 37.35362], [-121.854098, 37.35339], [-121.855093, 37.352914], [-121.855295, 37.352816], [-121.855465, 37.352735], [-121.855331, 37.352591], [-121.855024, 37.352273], [-121.854926, 37.352164], [-121.854795, 37.352019], [-121.854658, 37.351869], [-121.854419, 37.351607], [-121.854243, 37.351426], [-121.854102, 37.351281], [-121.85396, 37.351137], [-121.853581, 37.350751], [-121.853535, 37.350707], [-121.85339, 37.350569], [-121.853239, 37.350427], [-121.853091, 37.350288], [-121.8528, 37.349992], [-121.85273, 37.349921], [-121.852651, 37.34985], [-121.852592, 37.349788], [-121.852415, 37.349605], [-121.852357, 37.349544], [-121.852325, 37.34951], [-121.852229, 37.349411], [-121.852198, 37.349378], [-121.852121, 37.349297], [-121.852312, 37.349209], [-121.852845, 37.348787], [-121.854412, 37.347553], [-121.855064, 37.347046], [-121.856125, 37.346212], [-121.85653, 37.345893], [-121.856809, 37.345621], [-121.85711, 37.345416], [-121.857283, 37.345273], [-121.857534, 37.345067], [-121.856559, 37.344066], [-121.856366, 37.343853], [-121.855234, 37.342804], [-121.854915, 37.34246], [-121.854657, 37.342197], [-121.854387, 37.341923], [-121.852882, 37.340402], [-121.852188, 37.339809], [-121.852087, 37.339677], [-121.852017, 37.339604], [-121.851958, 37.339492], [-121.851888, 37.339393], [-121.851785, 37.339263], [-121.851632, 37.33904]]]}}, {"type": "Feature", "properties": {"DISTRICT": "4", "POPULATION": 22273}, "geometry": {"type": "Polygon", "coordinates": [[[-121.818553, 37.355491], [-121.818669, 37.355623], [-121.818774, 37.355741], [-121.818879, 37.355842], [-121.819029, 37.35601], [-121.819147, 37.356142], [-121.81951, 37.35655], [-121.819774, 37.356847], [-121.819953, 37.357021], [-121.820318, 37.357427], [-121.820529, 37.357679], [-121.82061, 37.357769], [-121.820976, 37.358176], [-121.821049, 37.358255], [-121.821268, 37.358495], [-121.821341, 37.358576], [-121.821479, 37.358717], [-121.821755, 37.358999], [-121.82189, 37.359148], [-121.822024, 37.359296], [-121.822117, 37.359399], [-121.822216, 37.359507], [-121.822261, 37.359555], [-121.8224, 37.359706], [-121.822495, 37.359809], [-121.822643, 37.359972], [-121.823026, 37.360395], [-121.823086, 37.360464], [-121.823232, 37.360631], [-121.823245, 37.360647], [-121.823398, 37.360833], [-121.823543, 37.360997], [-121.823678, 37.361145], [-121.824216, 37.361713], [-121.824263, 37.361762], [-121.824305, 37.361801], [-121.824313, 37.361808], [-121.824497, 37.36199], [-121.824727, 37.362248], [-121.825365, 37.362958], [-121.825438, 37.363039], [-121.825456, 37.363059], [-121.825511, 37.363121], [-121.82553, 37.363142], [-121.825608, 37.363235], [-121.825655, 37.36329], [-121.825749, 37.36339], [-121.825857, 37.363504], [-121.825942, 37.363593], [-121.82608, 37.363731], [-121.826096, 37.363748], [-121.826539, 37.364233], [-121.826687, 37.364395], [-121.826814, 37.364535], [-121.826888, 37.364615], [-121.82711, 37.364858], [-121.827185, 37.36494], [-121.827345, 37.365103], [-121.827356, 37.365114], [-121.827412, 37.36517], [-121.827476, 37.365236], [-121.827853, 37.365654], [-121.827928, 37.365737], [-121.827983, 37.365712], [-121.829538, 37.365033], [-121.829663, 37.365051], [-121.830546, 37.364636], [-121.831773, 37.364071], [-121.832126, 37.363889], [-121.832766, 37.363597], [-121.832894, 37.363481], [-121.83321, 37.363315], [-121.833498, 37.36317], [-121.833684, 37.363078], [-121.833802, 37.363015], [-121.834042, 37.362891], [-121.83415, 37.362847], [-121.834163, 37.362842], [-121.83426, 37.362802], [-121.834366, 37.362752], [-121.834453, 37.362711], [-121.834683, 37.362603], [-121.834788, 37.362553], [-121.834885, 37.362501], [-121.835177, 37.362342], [-121.835192, 37.362334], [-121.835274, 37.362291], [-121.835315, 37.362272], [-121.835394, 37.362236], [-121.835628, 37.362129], [-121.83614, 37.361895], [-121.836697, 37.361642], [-121.837013, 37.361494], [-121.837222, 37.361383], [-121.837539, 37.361259], [-121.837833, 37.361154], [-121.838047, 37.361096], [-121.838263, 37.360992], [-121.838911, 37.360684], [-121.839128, 37.360582], [-121.8393, 37.3605], [-121.839575, 37.36037], [-121.839579, 37.360306], [-121.839845, 37.360149], [-121.840045, 37.360063], [-121.840289, 37.359951], [-121.840422, 37.359877], [-121.840476, 37.359856], [-121.840576, 37.359806], [-121.840702, 37.359753], [-121.840782, 37.359721], [-121.840908, 37.359656], [-121.841009, 37.359604], [-121.841051, 37.359582], [-121.841083, 37.359565], [-121.841148, 37.359531], [-121.840919, 37.359158], [-121.839661, 37.357111], [-121.838799, 37.355656], [-121.838764, 37.355597], [-121.838727, 37.355522], [-121.838559, 37.355177], [-121.838368, 37.354536], [-121.838282, 37.354238], [-121.838175, 37.353873], [-121.838096, 37.353528], [-121.837983, 37.352951], [-121.837983, 37.352676], [-121.837883, 37.352571], [-121.837798, 37.352481], [-121.837561, 37.35223], [-121.837545, 37.352213], [-121.83746, 37.352125], [-121.837324, 37.35198], [-121.836936, 37.351566], [-121.836919, 37.351547], [-121.836786, 37.351401], [-121.836736, 37.351346], [-121.836701, 37.351309], [-121.836443, 37.351037], [-121.836358, 37.350947], [-121.836098, 37.350661], [-121.835962, 37.350521], [-121.835799, 37.350353], [-121.834766, 37.349251], [-121.834369, 37.348827], [-121.834151, 37.348595], [-121.833499, 37.347901], [-121.833313, 37.347703], [-121.833285, 37.347667], [-121.833157, 37.34753], [-121.832996, 37.347358], [-121.832774, 37.347122], [-121.832692, 37.347034], [-121.832647, 37.346986], [-121.830962, 37.34813], [-121.830693, 37.348311], [-121.830599, 37.348379], [-121.830007, 37.347771], [-121.829982, 37.347738], [-121.829729, 37.347466], [-121.829555, 37.347284], [-121.829034, 37.346741], [-121.828861, 37.34656], [-121.828676, 37.346368], [-121.828124, 37.345793], [-121.82794, 37.345602], [-121.827836, 37.345494], [-121.827653, 37.345303], [-121.82752, 37.34518], [-121.827487, 37.34515], [-121.827408, 37.345083], [-121.827282, 37.34499], [-121.827202, 37.344931], [-121.826997, 37.344799], [-121.826889, 37.344736], [-121.826755, 37.344658], [-121.826582, 37.344587], [-121.826363, 37.344497], [-121.826114, 37.34441], [-121.826058, 37.344392], [-121.82588, 37.344337], [-121.825708, 37.344286], [-121.825696, 37.344281], [-121.825569, 37.344228], [-121.825445, 37.34416], [-121.825329, 37.344079], [-121.825222, 37.343984], [-121.825213, 37.343974], [-121.825082, 37.343835], [-121.825048, 37.343787], [-121.824894, 37.343634], [-121.824799, 37.343535], [-121.824026, 37.342732], [-121.823942, 37.342643], [-121.823658, 37.342345], [-121.823547, 37.34223], [-121.823216, 37.341886], [-121.823106, 37.341772], [-121.822953, 37.341612], [-121.822495, 37.341135], [-121.822343, 37.340976], [-121.822161, 37.340783], [-121.822145, 37.340766], [-121.822056, 37.340659], [-121.821674, 37.340159], [-121.821621, 37.34009], [-121.821511, 37.339952], [-121.821314, 37.340058], [-121.821079, 37.340186], [-121.82093, 37.340275], [-121.820725, 37.340378], [-121.820526, 37.340479], [-121.820496, 37.340494], [-121.820431, 37.340529], [-121.820148, 37.340685], [-121.820054, 37.340738], [-121.81994, 37.3408], [-121.819688, 37.340938], [-121.819598, 37.340982], [-121.819482, 37.341039], [-121.819405, 37.341072], [-121.818791, 37.34129], [-121.818705, 37.34132], [-121.818014, 37.341539], [-121.817859, 37.341588], [-121.817755, 37.341621], [-121.817717, 37.341634], [-121.817397, 37.34174], [-121.817343, 37.341759], [-121.817243, 37.341788], [-121.817117, 37.341824], [-121.817086, 37.341833], [-121.816887, 37.341897], [-121.816699, 37.341958], [-121.816619, 37.341985], [-121.816465, 37.342038], [-121.816292, 37.342094], [-121.815775, 37.342264], [-121.815603, 37.342321], [-121.81543, 37.342375], [-121.81515, 37.342463], [-121.814914, 37.342538], [-121.814742, 37.342593], [-121.814369, 37.342712], [-121.813249, 37.343069], [-121.812877, 37.343189], [-121.81277, 37.343223], [-121.812448, 37.343325], [-121.812342, 37.34336], [-121.812175, 37.343414], [-121.811892, 37.343505], [-121.811676, 37.343575], [-121.81151, 37.34363], [-121.811345, 37.343682], [-121.811084, 37.343764], [-121.81085, 37.343839], [-121.810686, 37.343892], [-121.81052, 37.343945], [-121.810022, 37.344105], [-121.809857, 37.344159], [-121.809603, 37.34424], [-121.808842, 37.344483], [-121.808748, 37.344514], [-121.808585, 37.344549], [-121.808742, 37.34466], [-121.808863, 37.34474], [-121.808963, 37.344866], [-121.809049, 37.344975], [-121.809483, 37.345487], [-121.809575, 37.345588], [-121.810004, 37.346087], [-121.810407, 37.346561], [-121.810776, 37.346962], [-121.811132, 37.347343], [-121.811231, 37.347452], [-121.811529, 37.347779], [-121.811629, 37.347889], [-121.81216, 37.348477], [-121.812751, 37.349131], [-121.812934, 37.34934], [-121.813498, 37.349958], [-121.813758, 37.350237], [-121.814298, 37.350818], [-121.814345, 37.350869], [-121.814486, 37.351024], [-121.814533, 37.351076], [-121.814574, 37.351122], [-121.814648, 37.351218], [-121.814694, 37.351266], [-121.814737, 37.351312], [-121.814861, 37.351442], [-121.815066, 37.351667], [-121.81554, 37.352181], [-121.815617, 37.352266], [-121.815848, 37.352524], [-121.815925, 37.35261], [-121.815948, 37.352635], [-121.816017, 37.35271], [-121.816041, 37.352735], [-121.816142, 37.352846], [-121.816445, 37.353179], [-121.816547, 37.353291], [-121.816648, 37.353401], [-121.816952, 37.353732], [-121.817054, 37.353843], [-121.817137, 37.353935], [-121.817389, 37.354212], [-121.817473, 37.354305], [-121.817561, 37.354401], [-121.817946, 37.354825], [-121.818074, 37.354955], [-121.81812, 37.355011], [-121.818553, 37.355491]]]}}, {"type": "Feature", "properties": {"DISTRICT": "3", "POPULATION": 22979}, "geometry": {"type": "Polygon", "coordinates": [[[-121.815511, 37.334501], [-121.815457, 37.334532], [-121.814406, 37.333026], [-121.814249, 37.333062], [-121.81411, 37.333091], [-121.813853, 37.333139], [-121.813537, 37.333197], [-121.813014, 37.333266], [-121.811516, 37.333585], [-121.810397, 37.333811], [-121.809912, 37.333901], [-121.809841, 37.333911], [-121.808156, 37.334231], [-121.808099, 37.334183], [-121.807828, 37.334123], [-121.80704, 37.334293], [-121.804679, 37.334805], [-121.803892, 37.334976], [-121.803638, 37.335026], [-121.802878, 37.33518], [-121.802625, 37.335232], [-121.802223, 37.335312], [-121.801019, 37.335555], [-121.800845, 37.335591], [-121.800618, 37.335547], [-121.800747, 37.335728], [-121.801031, 37.336099], [-121.801163, 37.336256], [-121.801227, 37.336328], [-121.801338, 37.336452], [-121.803229, 37.338528], [-121.803897, 37.339262], [-121.804187, 37.339581], [-121.804886, 37.34035], [-121.805017, 37.340509], [-121.805039, 37.340544], [-121.805045, 37.340554], [-121.805058, 37.340573], [-121.805096, 37.340615], [-121.805334, 37.340876], [-121.80545, 37.341003], [-121.805551, 37.341114], [-121.805797, 37.341389], [-121.805913, 37.341519], [-121.80602, 37.341644], [-121.806044, 37.341672], [-121.806352, 37.342012], [-121.806464, 37.342135], [-121.806567, 37.342249], [-121.806879, 37.342592], [-121.806984, 37.342707], [-121.807072, 37.342803], [-121.80709, 37.342823], [-121.807408, 37.343172], [-121.807514, 37.343289], [-121.807605, 37.343388], [-121.807626, 37.34341], [-121.807732, 37.343538], [-121.807872, 37.343693], [-121.807963, 37.343794], [-121.808091, 37.343941], [-121.808302, 37.344183], [-121.808453, 37.344368], [-121.808469, 37.34439], [-121.808585, 37.344549], [-121.808748, 37.344514], [-121.808842, 37.344483], [-121.809603, 37.34424], [-121.809857, 37.344159], [-121.810022, 37.344105], [-121.81052, 37.343945], [-121.810686, 37.343892], [-121.81085, 37.343839], [-121.811084, 37.343764], [-121.811345, 37.343682], [-121.81151, 37.34363], [-121.811676, 37.343575], [-121.811892, 37.343505], [-121.812175, 37.343414], [-121.812342, 37.34336], [-121.812448, 37.343325], [-121.81277, 37.343223], [-121.812877, 37.343189], [-121.813249, 37.343069], [-121.814369, 37.342712], [-121.814742, 37.342593], [-121.814914, 37.342538], [-121.81515, 37.342463], [-121.81543, 37.342375], [-121.815603, 37.342321], [-121.815775, 37.342264], [-121.816292, 37.342094], [-121.816465, 37.342038], [-121.816619, 37.341985], [-121.816699, 37.341958], [-121.816887, 37.341897], [-121.817086, 37.341833], [-121.817117, 37.341824], [-121.817243, 37.341788], [-121.817343, 37.341759], [-121.817397, 37.34174], [-121.817717, 37.341634], [-121.817755, 37.341621], [-121.817859, 37.341588], [-121.818014, 37.341539], [-121.818705, 37.34132], [-121.818791, 37.34129], [-121.819405, 37.341072], [-121.819482, 37.341039], [-121.819598, 37.340982], [-121.819688, 37.340938], [-121.81994, 37.3408], [-121.820054, 37.340738], [-121.820148, 37.340685], [-121.820431, 37.340529], [-121.820496, 37.340494], [-121.820526, 37.340479], [-121.820725, 37.340378], [-121.82093, 37.340275], [-121.821079, 37.340186], [-121.821314, 37.340058], [-121.821511, 37.339952], [-121.821621, 37.34009], [-121.821674, 37.340159], [-121.822056, 37.340659], [-121.822145, 37.340766], [-121.822161, 37.340783], [-121.822343, 37.340976], [-121.822495, 37.341135], [-121.822953, 37.341612], [-121.823106, 37.341772], [-121.823216, 37.341886], [-121.823547, 37.34223], [-121.823658, 37.342345], [-121.823942, 37.342643], [-121.824026, 37.342732], [-121.824799, 37.343535], [-121.824894, 37.343634], [-121.825048, 37.343787], [-121.825082, 37.343835], [-121.825213, 37.343974], [-121.825222, 37.343984], [-121.825329, 37.344079], [-121.825445, 37.34416], [-121.825569, 37.344228], [-121.825696, 37.344281], [-121.825708, 37.344286], [-121.82588, 37.344337], [-121.826058, 37.344392], [-121.826114, 37.34441], [-121.826363, 37.344497], [-121.826582, 37.344587], [-121.826755, 37.344658], [-121.826889, 37.344736], [-121.826997, 37.344799], [-121.827202, 37.344931], [-121.827282, 37.34499], [-121.827408, 37.345083], [-121.827487, 37.34515], [-121.82752, 37.34518], [-121.827653, 37.345303], [-121.827836, 37.345494], [-121.82794, 37.345602], [-121.828124, 37.345793], [-121.828676, 37.346368], [-121.828861, 37.34656], [-121.829034, 37.346741], [-121.829555, 37.347284], [-121.829729, 37.347466], [-121.829982, 37.347738], [-121.830007, 37.347771], [-121.830599, 37.348379], [-121.830693, 37.348311], [-121.830962, 37.34813], [-121.832647, 37.346986], [-121.832929, 37.346794], [-121.833778, 37.34622], [-121.834061, 37.346029], [-121.834216, 37.345922], [-121.834681, 37.345605], [-121.834837, 37.3455], [-121.834927, 37.345438], [-121.835197, 37.345256], [-121.835288, 37.345195], [-121.835743, 37.344886], [-121.837108, 37.343962], [-121.837564, 37.343655], [-121.83764, 37.343603], [-121.837868, 37.343449], [-121.837945, 37.343398], [-121.838172, 37.343241], [-121.838423, 37.343071], [-121.838745, 37.342852], [-121.839862, 37.342097], [-121.840163, 37.341894], [-121.840337, 37.341766], [-121.840484, 37.341678], [-121.840895, 37.341399], [-121.842439, 37.340356], [-121.842557, 37.34028], [-121.842613, 37.340246], [-121.842933, 37.340032], [-121.843109, 37.339904], [-121.843205, 37.339833], [-121.843461, 37.339655], [-121.84359, 37.339575], [-121.843732, 37.339489], [-121.845043, 37.338601], [-121.845527, 37.338275], [-121.845688, 37.338188], [-121.845727, 37.338162], [-121.845803, 37.338117], [-121.845914, 37.338042], [-121.846062, 37.337927], [-121.846273, 37.337741], [-121.846446, 37.337589], [-121.846651, 37.337354], [-121.846818, 37.337161], [-121.847035, 37.336924], [-121.847162, 37.336796], [-121.847295, 37.336675], [-121.847371, 37.336606], [-121.84754, 37.336483], [-121.847612, 37.336428], [-121.84765, 37.336402], [-121.847721, 37.336353], [-121.847744, 37.336336], [-121.847794, 37.3363], [-121.847841, 37.336268], [-121.848014, 37.336166], [-121.848147, 37.336088], [-121.848302, 37.335999], [-121.848369, 37.33595], [-121.84842, 37.335912], [-121.848506, 37.335862], [-121.848591, 37.335812], [-121.8485, 37.335718], [-121.846667, 37.333875], [-121.846539, 37.333683], [-121.845741, 37.332803], [-121.845446, 37.332499], [-121.845105, 37.332122], [-121.844698, 37.331673], [-121.844423, 37.331369], [-121.843811, 37.330693], [-121.842965, 37.32981], [-121.842145, 37.328917], [-121.842028, 37.328796], [-121.841687, 37.328442], [-121.841573, 37.328333], [-121.840423, 37.327138], [-121.840386, 37.327102], [-121.840183, 37.327249], [-121.839681, 37.326707], [-121.839242, 37.326228], [-121.838668, 37.325552], [-121.838145, 37.325065], [-121.83771, 37.324628], [-121.837251, 37.324138], [-121.836761, 37.323582], [-121.836283, 37.323114], [-121.835946, 37.323244], [-121.835485, 37.323406], [-121.83539, 37.32344], [-121.835294, 37.323474], [-121.835202, 37.323507], [-121.83511, 37.32354], [-121.835023, 37.323571], [-121.834935, 37.323602], [-121.834841, 37.323636], [-121.834747, 37.323669], [-121.834701, 37.323686], [-121.834674, 37.323703], [-121.834583, 37.32376], [-121.834498, 37.323814], [-121.834432, 37.323856], [-121.834401, 37.323875], [-121.834321, 37.323926], [-121.834278, 37.323954], [-121.834177, 37.324018], [-121.834074, 37.324084], [-121.833992, 37.324135], [-121.833933, 37.324173], [-121.833812, 37.32425], [-121.833184, 37.324652], [-121.833084, 37.324709], [-121.833, 37.324754], [-121.832363, 37.325167], [-121.830836, 37.326135], [-121.830446, 37.32638], [-121.830089, 37.32661], [-121.830029, 37.32655], [-121.829439, 37.325956], [-121.829243, 37.325759], [-121.829205, 37.325721], [-121.829094, 37.325608], [-121.829057, 37.325571], [-121.828937, 37.325449], [-121.82877, 37.325552], [-121.828583, 37.325672], [-121.828534, 37.325703], [-121.828505, 37.325673], [-121.82849, 37.325682], [-121.828463, 37.325699], [-121.828435, 37.325715], [-121.828414, 37.325725], [-121.828398, 37.325738], [-121.828375, 37.325754], [-121.828292, 37.325807], [-121.828236, 37.325842], [-121.82818, 37.325919], [-121.828107, 37.32597], [-121.827804, 37.326175], [-121.827794, 37.326182], [-121.827776, 37.326194], [-121.827766, 37.326201], [-121.827745, 37.326216], [-121.827721, 37.326232], [-121.827709, 37.326239], [-121.827694, 37.32625], [-121.827677, 37.326262], [-121.827647, 37.326281], [-121.827622, 37.3263], [-121.827614, 37.326307], [-121.827601, 37.326315], [-121.827576, 37.326331], [-121.827544, 37.326351], [-121.827409, 37.326431], [-121.827387, 37.326443], [-121.82735, 37.326464], [-121.827326, 37.326478], [-121.82726, 37.326519], [-121.827206, 37.326551], [-121.827084, 37.326623], [-121.826904, 37.326737], [-121.826849, 37.326771], [-121.826786, 37.326838], [-121.826721, 37.326907], [-121.826655, 37.326951], [-121.826638, 37.326963], [-121.826591, 37.326994], [-121.826549, 37.327022], [-121.826437, 37.327097], [-121.826405, 37.327119], [-121.826365, 37.327145], [-121.826338, 37.327165], [-121.826311, 37.327185], [-121.826259, 37.327219], [-121.826161, 37.327285], [-121.8261, 37.327326], [-121.825962, 37.327422], [-121.825848, 37.327493], [-121.82569, 37.327604], [-121.825514, 37.327723], [-121.825367, 37.32782], [-121.825099, 37.328004], [-121.824878, 37.328155], [-121.824867, 37.328162], [-121.82484, 37.32818], [-121.824791, 37.328213], [-121.824782, 37.328219], [-121.824751, 37.328239], [-121.824726, 37.328256], [-121.824693, 37.328278], [-121.824675, 37.32829], [-121.824639, 37.328313], [-121.824599, 37.32834], [-121.824585, 37.328349], [-121.824572, 37.328359], [-121.824523, 37.328392], [-121.824486, 37.328415], [-121.824466, 37.328431], [-121.824366, 37.328497], [-121.824335, 37.328518], [-121.824172, 37.328626], [-121.824056, 37.328703], [-121.823942, 37.328777], [-121.823914, 37.328803], [-121.823892, 37.328817], [-121.823848, 37.328848], [-121.823839, 37.328854], [-121.823828, 37.328862], [-121.823818, 37.328868], [-121.823808, 37.328875], [-121.823794, 37.328885], [-121.823784, 37.328892], [-121.823703, 37.328947], [-121.823624, 37.328997], [-121.823615, 37.329005], [-121.823588, 37.329026], [-121.823563, 37.329051], [-121.823543, 37.32907], [-121.823529, 37.329084], [-121.823515, 37.329096], [-121.823481, 37.329123], [-121.823429, 37.329169], [-121.823253, 37.329285], [-121.82317, 37.329341], [-121.822959, 37.329484], [-121.822809, 37.329584], [-121.822633, 37.329705], [-121.82238, 37.329877], [-121.821738, 37.33031], [-121.820509, 37.33114], [-121.820175, 37.331366], [-121.819631, 37.331727], [-121.819466, 37.331838], [-121.818677, 37.332373], [-121.817788, 37.332978], [-121.816652, 37.333747], [-121.815511, 37.334501]]]}}, {"type": "Feature", "properties": {"DISTRICT": "5", "POPULATION": 22215}, "geometry": {"type": "Polygon", "coordinates": [[[-121.830585, 37.387265], [-121.830539, 37.387197], [-121.830401, 37.386993], [-121.830384, 37.386968], [-121.830355, 37.386925], [-121.830227, 37.386738], [-121.829846, 37.386179], [-121.829719, 37.385993], [-121.829427, 37.385569], [-121.828996, 37.384941], [-121.828588, 37.384352], [-121.828551, 37.384299], [-121.828255, 37.383879], [-121.828107, 37.383664], [-121.828032, 37.383555], [-121.827667, 37.383021], [-121.827521, 37.382807], [-121.827282, 37.382462], [-121.827209, 37.382357], [-121.826572, 37.381425], [-121.826459, 37.38126], [-121.826348, 37.381072], [-121.826374, 37.381066], [-121.826455, 37.38105], [-121.826482, 37.381045], [-121.826539, 37.38103], [-121.826679, 37.380997], [-121.826712, 37.380984], [-121.826769, 37.380965], [-121.826878, 37.380925], [-121.826906, 37.380912], [-121.827022, 37.380863], [-121.82719, 37.380774], [-121.827293, 37.380705], [-121.827416, 37.380625], [-121.827478, 37.380583], [-121.827591, 37.380509], [-121.827603, 37.380501], [-121.827666, 37.380458], [-121.827729, 37.380416], [-121.827792, 37.380372], [-121.827981, 37.380244], [-121.828045, 37.380202], [-121.828212, 37.380087], [-121.828716, 37.379746], [-121.828884, 37.379632], [-121.828987, 37.379562], [-121.829132, 37.379464], [-121.829228, 37.379399], [-121.829296, 37.379352], [-121.8294, 37.379283], [-121.829535, 37.37919], [-121.829943, 37.378915], [-121.830079, 37.378823], [-121.830173, 37.378758], [-121.830459, 37.378564], [-121.830554, 37.3785], [-121.830641, 37.378439], [-121.830904, 37.378259], [-121.830934, 37.378239], [-121.830994, 37.378202], [-121.831069, 37.37815], [-121.831298, 37.377995], [-121.831374, 37.377944], [-121.831548, 37.378165], [-121.831621, 37.378258], [-121.831732, 37.378384], [-121.832, 37.378206], [-121.832181, 37.378086], [-121.832016, 37.37786], [-121.831846, 37.377626], [-121.831886, 37.377598], [-121.831956, 37.377551], [-121.831985, 37.377531], [-121.832293, 37.377966], [-121.832535, 37.377807], [-121.832543, 37.377817], [-121.832579, 37.377868], [-121.833416, 37.378945], [-121.833506, 37.3789], [-121.833769, 37.378773], [-121.834011, 37.379085], [-121.834284, 37.379435], [-121.833127, 37.380004], [-121.833183, 37.380071], [-121.83322, 37.380119], [-121.833318, 37.380247], [-121.833325, 37.380257], [-121.833346, 37.380289], [-121.833353, 37.3803], [-121.833513, 37.38051], [-121.833994, 37.38114], [-121.834155, 37.381351], [-121.834303, 37.381286], [-121.834506, 37.381198], [-121.834741, 37.381076], [-121.834886, 37.381002], [-121.835031, 37.380932], [-121.835465, 37.380722], [-121.835611, 37.380653], [-121.835755, 37.380583], [-121.836187, 37.380374], [-121.836332, 37.380305], [-121.836476, 37.380235], [-121.836909, 37.380026], [-121.837054, 37.379957], [-121.837198, 37.379887], [-121.837631, 37.379678], [-121.837776, 37.379609], [-121.837868, 37.379578], [-121.838149, 37.379441], [-121.838426, 37.379307], [-121.838596, 37.379227], [-121.838632, 37.379214], [-121.838706, 37.379172], [-121.838698, 37.379162], [-121.838583, 37.379019], [-121.838477, 37.378878], [-121.838414, 37.378789], [-121.838289, 37.378598], [-121.838262, 37.378557], [-121.838163, 37.378429], [-121.83788, 37.378052], [-121.837763, 37.377897], [-121.837741, 37.377873], [-121.837693, 37.377821], [-121.837609, 37.377746], [-121.837556, 37.3777], [-121.837499, 37.377628], [-121.837274, 37.377314], [-121.837237, 37.377262], [-121.837179, 37.377159], [-121.83716, 37.377126], [-121.836785, 37.377306], [-121.836748, 37.377323], [-121.836366, 37.377505], [-121.836009, 37.377677], [-121.835737, 37.377812], [-121.83545, 37.377955], [-121.835352, 37.377826], [-121.835165, 37.377582], [-121.835068, 37.377454], [-121.834926, 37.377268], [-121.83488, 37.377208], [-121.834846, 37.377164], [-121.834697, 37.376968], [-121.834878, 37.376847], [-121.834967, 37.376786], [-121.835224, 37.37661], [-121.835375, 37.376507], [-121.835402, 37.376488], [-121.835313, 37.376372], [-121.835416, 37.376302], [-121.835455, 37.376275], [-121.835666, 37.37613], [-121.835946, 37.375937], [-121.836145, 37.375803], [-121.836034, 37.375666], [-121.835983, 37.375603], [-121.835714, 37.375249], [-121.835609, 37.37511], [-121.835459, 37.374927], [-121.83537, 37.374815], [-121.834661, 37.373923], [-121.834641, 37.373897], [-121.834427, 37.373625], [-121.834285, 37.373447], [-121.834112, 37.373229], [-121.833887, 37.372944], [-121.833864, 37.372914], [-121.833729, 37.372733], [-121.833665, 37.372652], [-121.833474, 37.37241], [-121.833411, 37.37233], [-121.833362, 37.372268], [-121.833297, 37.372188], [-121.832958, 37.371763], [-121.832845, 37.371622], [-121.832763, 37.371518], [-121.832528, 37.371219], [-121.832519, 37.371207], [-121.832438, 37.371104], [-121.832395, 37.371048], [-121.832266, 37.370881], [-121.832223, 37.370826], [-121.832172, 37.370754], [-121.832019, 37.370538], [-121.831968, 37.370466], [-121.831918, 37.370398], [-121.831798, 37.370234], [-121.831768, 37.370196], [-121.831717, 37.370131], [-121.831701, 37.370112], [-121.831656, 37.370055], [-121.831641, 37.370036], [-121.831622, 37.370012], [-121.831565, 37.36994], [-121.831547, 37.369916], [-121.831114, 37.369368], [-121.83058, 37.368692], [-121.830498, 37.368587], [-121.830293, 37.368339], [-121.829771, 37.367764], [-121.829302, 37.367248], [-121.829185, 37.367119], [-121.829018, 37.366936], [-121.828839, 37.366732], [-121.828725, 37.366602], [-121.828625, 37.366495], [-121.828582, 37.366449], [-121.828523, 37.366386], [-121.828165, 37.365983], [-121.828154, 37.365971], [-121.828048, 37.36586], [-121.828022, 37.365832], [-121.827949, 37.365758], [-121.827928, 37.365737], [-121.827853, 37.365654], [-121.827476, 37.365236], [-121.827412, 37.36517], [-121.827356, 37.365114], [-121.827345, 37.365103], [-121.827185, 37.36494], [-121.82711, 37.364858], [-121.826888, 37.364615], [-121.826814, 37.364535], [-121.826687, 37.364395], [-121.826539, 37.364233], [-121.826096, 37.363748], [-121.82608, 37.363731], [-121.825942, 37.363593], [-121.825857, 37.363504], [-121.825749, 37.36339], [-121.825655, 37.36329], [-121.825608, 37.363235], [-121.82553, 37.363142], [-121.825511, 37.363121], [-121.825456, 37.363059], [-121.825438, 37.363039], [-121.825365, 37.362958], [-121.824727, 37.362248], [-121.824497, 37.36199], [-121.824313, 37.361808], [-121.824305, 37.361801], [-121.824263, 37.361762], [-121.824216, 37.361713], [-121.823678, 37.361145], [-121.823543, 37.360997], [-121.823398, 37.360833], [-121.823245, 37.360647], [-121.823232, 37.360631], [-121.823086, 37.360464], [-121.823026, 37.360395], [-121.822643, 37.359972], [-121.822495, 37.359809], [-121.8224, 37.359706], [-121.822261, 37.359555], [-121.822216, 37.359507], [-121.822117, 37.359399], [-121.822024, 37.359296], [-121.82189, 37.359148], [-121.821755, 37.358999], [-121.821479, 37.358717], [-121.821341, 37.358576], [-121.821268, 37.358495], [-121.821049, 37.358255], [-121.820976, 37.358176], [-121.820238, 37.358671], [-121.81896, 37.359534], [-121.818858, 37.359429], [-121.818702, 37.359264], [-121.818473, 37.359422], [-121.818461, 37.359431], [-121.818425, 37.359438], [-121.818408, 37.359437], [-121.818273, 37.359555], [-121.817806, 37.359859], [-121.817815, 37.359865], [-121.817827, 37.359871], [-121.817771, 37.359909], [-121.817697, 37.35996], [-121.81751, 37.360088], [-121.817391, 37.36017], [-121.817259, 37.360246], [-121.817266, 37.360255], [-121.816307, 37.360929], [-121.816075, 37.361086], [-121.816542, 37.361602], [-121.817019, 37.362133], [-121.816313, 37.36261], [-121.815131, 37.363407], [-121.814503, 37.363825], [-121.814476, 37.363842], [-121.814397, 37.363894], [-121.813118, 37.364761], [-121.812767, 37.365004], [-121.81251, 37.365182], [-121.812417, 37.365234], [-121.81171, 37.365719], [-121.811484, 37.365864], [-121.811062, 37.366183], [-121.810969, 37.366119], [-121.810764, 37.3662], [-121.810471, 37.366082], [-121.810143, 37.365954], [-121.809699, 37.366707], [-121.809193, 37.367562], [-121.808933, 37.368005], [-121.808914, 37.367998], [-121.808832, 37.368036], [-121.808796, 37.368056], [-121.80877, 37.368071], [-121.80858, 37.368174], [-121.808414, 37.368271], [-121.808236, 37.368375], [-121.808206, 37.368392], [-121.808179, 37.368408], [-121.808161, 37.368418], [-121.808014, 37.368504], [-121.807907, 37.368566], [-121.807894, 37.368573], [-121.807466, 37.368822], [-121.807378, 37.368874], [-121.805833, 37.369732], [-121.805196, 37.370027], [-121.804833, 37.369856], [-121.804713, 37.369799], [-121.804628, 37.369845], [-121.804186, 37.369763], [-121.801549, 37.368606], [-121.800195, 37.368012], [-121.800057, 37.367947], [-121.799123, 37.367552], [-121.798557, 37.367944], [-121.79844, 37.368024], [-121.797988, 37.368318], [-121.797966, 37.368332], [-121.797727, 37.368494], [-121.797014, 37.368977], [-121.796709, 37.369184], [-121.796401, 37.369392], [-121.79486, 37.370434], [-121.794825, 37.370458], [-121.793728, 37.371209], [-121.791761, 37.368873], [-121.790278, 37.367312], [-121.789042, 37.366011], [-121.788644, 37.36568], [-121.788327, 37.365439], [-121.786903, 37.364325], [-121.78679, 37.36426], [-121.7868, 37.364234], [-121.786852, 37.364096], [-121.786866, 37.363966], [-121.786852, 37.363815], [-121.786871, 37.363654], [-121.786851, 37.363487], [-121.78689, 37.363256], [-121.7869, 37.363163], [-121.786904, 37.363131], [-121.786964, 37.362949], [-121.786997, 37.362731], [-121.787015, 37.36269], [-121.787049, 37.36262], [-121.78708, 37.362571], [-121.787104, 37.362534], [-121.786904, 37.36249], [-121.786728, 37.36241], [-121.786687, 37.3623], [-121.786508, 37.362173], [-121.78637, 37.362035], [-121.786137, 37.362019], [-121.785992, 37.361911], [-121.78565, 37.361907], [-121.785575, 37.361827], [-121.785501, 37.361857], [-121.78553, 37.36144], [-121.785437, 37.361183], [-121.78527, 37.361011], [-121.785039, 37.360602], [-121.785162, 37.360423], [-121.784659, 37.360211], [-121.784573, 37.360252], [-121.784439, 37.360431], [-121.783661, 37.360416], [-121.78362, 37.360326], [-121.78308, 37.360029], [-121.782807, 37.360255], [-121.782607, 37.360222], [-121.782419, 37.360087], [-121.782161, 37.359906], [-121.781823, 37.359656], [-121.781821, 37.35961], [-121.781638, 37.359334], [-121.781664, 37.359239], [-121.781668, 37.359193], [-121.78156, 37.359018], [-121.781437, 37.358936], [-121.781037, 37.358776], [-121.78077, 37.358695], [-121.780598, 37.35857], [-121.780529, 37.35849], [-121.780363, 37.358237], [-121.780349, 37.358191], [-121.779822, 37.35817], [-121.779679, 37.358158], [-121.779501, 37.358139], [-121.779002, 37.358052], [-121.778832, 37.358026], [-121.778711, 37.358003], [-121.777987, 37.357944], [-121.777979, 37.358012], [-121.777983, 37.358035], [-121.777897, 37.357976], [-121.777572, 37.357837], [-121.777259, 37.357789], [-121.777088, 37.357785], [-121.777028, 37.357726], [-121.776835, 37.357696], [-121.776556, 37.357584], [-121.775703, 37.35761], [-121.775461, 37.35767], [-121.77453, 37.358161], [-121.77313, 37.358147], [-121.770442, 37.357953], [-121.767426, 37.357126], [-121.765545, 37.35707], [-121.764533, 37.356583], [-121.764047, 37.356348], [-121.763086, 37.355885], [-121.762507, 37.355605], [-121.761651, 37.355194], [-121.761599, 37.355202], [-121.760117, 37.354427], [-121.758725, 37.354144], [-121.755968, 37.353079], [-121.752931, 37.35191], [-121.747882, 37.349646], [-121.742364, 37.343781], [-121.739441, 37.340675], [-121.739125, 37.340368], [-121.739869, 37.340204], [-121.740897, 37.34004], [-121.742208, 37.339772], [-121.746437, 37.338893], [-121.745015, 37.334326], [-121.744576, 37.332898], [-121.742304, 37.333315], [-121.741904, 37.332105], [-121.74192, 37.332055], [-121.741943, 37.332001], [-121.740007, 37.326382], [-121.736552, 37.327038], [-121.73542, 37.322421], [-121.728346, 37.323413], [-121.726287, 37.323742], [-121.721836, 37.318002], [-121.7168, 37.311385], [-121.715302, 37.309438], [-121.714193, 37.307985], [-121.714128, 37.30791], [-121.712512, 37.305796], [-121.711881, 37.304979], [-121.711142, 37.304021], [-121.709514, 37.304026], [-121.708061, 37.304043], [-121.706154, 37.304047], [-121.703292, 37.304069], [-121.701703, 37.304077], [-121.699683, 37.30409], [-121.699469, 37.304089], [-121.697514, 37.304103], [-121.69595, 37.30412], [-121.693909, 37.30412], [-121.691546, 37.304142], [-121.69039, 37.304142], [-121.689381, 37.304159], [-121.687705, 37.304159], [-121.687273, 37.304164], [-121.685406, 37.304185], [-121.680745, 37.304197], [-121.680023, 37.304202], [-121.677372, 37.304223], [-121.676771, 37.30446], [-121.674605, 37.305284], [-121.673875, 37.305555], [-121.672951, 37.305899], [-121.67192, 37.306298], [-121.670777, 37.306719], [-121.668577, 37.307557], [-121.667344, 37.308017], [-121.665768, 37.308614], [-121.663533, 37.309456], [-121.660255, 37.310702], [-121.658847, 37.31123], [-121.65766, 37.311678], [-121.655336, 37.312545], [-121.65244, 37.313632], [-121.649445, 37.314773], [-121.649181, 37.31487], [-121.648545, 37.315115], [-121.648607, 37.315147], [-121.633189, 37.320816], [-121.617516, 37.326728], [-121.607273, 37.330578], [-121.603365, 37.332072], [-121.603341, 37.332079], [-121.601702, 37.332711], [-121.587814, 37.33803], [-121.586806, 37.338391], [-121.586798, 37.340313], [-121.586773, 37.34407], [-121.586769, 37.345987], [-121.586761, 37.347615], [-121.586748, 37.349235], [-121.58673, 37.350822], [-121.586711, 37.352372], [-121.586709, 37.352576], [-121.586708, 37.352834], [-121.586697, 37.354016], [-121.586679, 37.355597], [-121.586666, 37.356827], [-121.586639, 37.357334], [-121.586646, 37.358414], [-121.586625, 37.359949], [-121.586605, 37.361465], [-121.588369, 37.361448], [-121.591098, 37.361449], [-121.594988, 37.361449], [-121.59613, 37.36146], [-121.597017, 37.361402], [-121.598599, 37.361438], [-121.604134, 37.361432], [-121.612277, 37.361414], [-121.616062, 37.361426], [-121.621166, 37.361455], [-121.62168, 37.36144], [-121.62178, 37.3615], [-121.62185, 37.36152], [-121.62191, 37.36153], [-121.62198, 37.36152], [-121.622128, 37.361461], [-121.62266, 37.36147], [-121.623061, 37.361467], [-121.623697, 37.361473], [-121.62395, 37.36146], [-121.624887, 37.361484], [-121.630487, 37.361583], [-121.631647, 37.361601], [-121.634056, 37.361624], [-121.635456, 37.361659], [-121.638851, 37.361694], [-121.643091, 37.361712], [-121.649093, 37.361642], [-121.649455, 37.361636], [-121.658635, 37.361495], [-121.659341, 37.361487], [-121.659328, 37.357353], [-121.659306, 37.352383], [-121.663738, 37.35228], [-121.663783, 37.341927], [-121.663721, 37.341466], [-121.670979, 37.341492], [-121.671795, 37.342699], [-121.67555, 37.34829], [-121.6757, 37.34833], [-121.67579, 37.34836], [-121.67586, 37.34842], [-121.67635, 37.34926], [-121.67648, 37.34944], [-121.67662, 37.34949], [-121.67657, 37.34989], [-121.678952, 37.353426], [-121.679579, 37.354288], [-121.681322, 37.356673], [-121.684122, 37.360401], [-121.684387, 37.360782], [-121.689688, 37.368285], [-121.691663, 37.371223], [-121.693622, 37.373044], [-121.69649, 37.375689], [-121.699033, 37.377957], [-121.700596, 37.379365], [-121.701874, 37.380538], [-121.703293, 37.381822], [-121.705182, 37.38354], [-121.706986, 37.385137], [-121.708463, 37.386511], [-121.710326, 37.388166], [-121.712019, 37.389758], [-121.715335, 37.392661], [-121.717482, 37.394585], [-121.718495, 37.39553], [-121.722446, 37.396835], [-121.725401, 37.397849], [-121.727703, 37.398639], [-121.729507, 37.399257], [-121.733629, 37.400649], [-121.737185, 37.401834], [-121.741291, 37.40326], [-121.74407, 37.404204], [-121.747251, 37.405287], [-121.749485, 37.406043], [-121.750739, 37.406455], [-121.752731, 37.405493], [-121.755205, 37.404256], [-121.759367, 37.402174], [-121.764653, 37.40551], [-121.766749, 37.406799], [-121.768621, 37.407967], [-121.768643, 37.407939], [-121.768731, 37.407766], [-121.76874, 37.407646], [-121.768725, 37.407577], [-121.768731, 37.407437], [-121.768853, 37.407227], [-121.769066, 37.407214], [-121.76907, 37.407128], [-121.769188, 37.407044], [-121.769268, 37.406904], [-121.769319, 37.406798], [-121.769845, 37.406909], [-121.769987, 37.406804], [-121.770563, 37.406632], [-121.770833, 37.406806], [-121.771132, 37.406632], [-121.771557, 37.406862], [-121.771519, 37.406903], [-121.771333, 37.407109], [-121.771625, 37.407251], [-121.771935, 37.407092], [-121.772303, 37.407307], [-121.772576, 37.407482], [-121.773202, 37.407575], [-121.773344, 37.407882], [-121.773619, 37.407961], [-121.773616, 37.407995], [-121.773756, 37.408106], [-121.774123, 37.408274], [-121.774748, 37.408435], [-121.775252, 37.408497], [-121.775555, 37.408443], [-121.775808, 37.408278], [-121.776229, 37.408205], [-121.776818, 37.407767], [-121.776964, 37.407724], [-121.776912, 37.407561], [-121.777191, 37.407346], [-121.777251, 37.406891], [-121.777994, 37.406573], [-121.778209, 37.406526], [-121.778544, 37.406043], [-121.778805, 37.406096], [-121.778845, 37.406107], [-121.778927, 37.406112], [-121.779261, 37.406182], [-121.779686, 37.406107], [-121.779798, 37.406135], [-121.779845, 37.406036], [-121.780105, 37.405684], [-121.78091, 37.405296], [-121.781161, 37.405392], [-121.781449, 37.405068], [-121.78163, 37.404977], [-121.781725, 37.404983], [-121.781786, 37.404979], [-121.781846, 37.404961], [-121.781893, 37.404933], [-121.781945, 37.40489], [-121.782017, 37.404854], [-121.78207, 37.40484], [-121.78217, 37.40482], [-121.782526, 37.40501], [-121.782645, 37.405083], [-121.782772, 37.405141], [-121.783642, 37.404559], [-121.784009, 37.404666], [-121.784384, 37.404411], [-121.784657, 37.404568], [-121.78487, 37.404456], [-121.785679, 37.404334], [-121.786278, 37.404679], [-121.786739, 37.40469], [-121.786823, 37.404752], [-121.786928, 37.404813], [-121.787031, 37.404851], [-121.78714, 37.404877], [-121.787251, 37.404941], [-121.788043, 37.405124], [-121.788335, 37.405484], [-121.788559, 37.40544], [-121.788636, 37.405491], [-121.788693, 37.405521], [-121.789014, 37.405354], [-121.789119, 37.405224], [-121.789213, 37.405099], [-121.789488, 37.405243], [-121.78996, 37.404969], [-121.789958, 37.404758], [-121.790107, 37.404739], [-121.790161, 37.404976], [-121.790736, 37.404208], [-121.79079, 37.403869], [-121.790839, 37.403628], [-121.791223, 37.403526], [-121.791782, 37.403959], [-121.792091, 37.404178], [-121.792395, 37.404213], [-121.792818, 37.40389], [-121.793233, 37.403442], [-121.793427, 37.404049], [-121.793722, 37.40499], [-121.794176, 37.406413], [-121.795337, 37.405299], [-121.796268, 37.404392], [-121.79717, 37.403497], [-121.798059, 37.402633], [-121.798315, 37.402371], [-121.798948, 37.401942], [-121.799453, 37.401584], [-121.799965, 37.401188], [-121.800444, 37.400836], [-121.801065, 37.400401], [-121.801775, 37.400139], [-121.802709, 37.399813], [-121.80347, 37.399595], [-121.804269, 37.399371], [-121.80536, 37.399059], [-121.807579, 37.398431], [-121.809487, 37.397779], [-121.811098, 37.397241], [-121.813868, 37.396333], [-121.814725, 37.396039], [-121.816209, 37.396212], [-121.817526, 37.395962], [-121.818613, 37.395783], [-121.820033, 37.395463], [-121.820411, 37.395713], [-121.821051, 37.396074], [-121.821492, 37.396301], [-121.821565, 37.396404], [-121.821623, 37.396506], [-121.82217, 37.396826], [-121.823273, 37.397475], [-121.824283, 37.39805], [-121.824803, 37.397928], [-121.826501, 37.397531], [-121.826847, 37.397445], [-121.826406, 37.39655], [-121.826368, 37.396516], [-121.82594, 37.395767], [-121.825606, 37.395167], [-121.825528, 37.395135], [-121.825442, 37.395099], [-121.825216, 37.394553], [-121.824774, 37.394261], [-121.825102, 37.393982], [-121.824835, 37.393783], [-121.824871, 37.393668], [-121.824662, 37.393478], [-121.824415, 37.393356], [-121.824792, 37.393093], [-121.824835, 37.39302], [-121.824881, 37.392945], [-121.825347, 37.392603], [-121.825396, 37.392729], [-121.827748, 37.391616], [-121.832102, 37.389741], [-121.832241, 37.389681], [-121.832079, 37.389437], [-121.832067, 37.389421], [-121.832006, 37.389337], [-121.831956, 37.38927], [-121.831903, 37.389195], [-121.831604, 37.388765], [-121.831505, 37.388622], [-121.831372, 37.38842], [-121.831279, 37.388279], [-121.830966, 37.387823], [-121.83083, 37.387625], [-121.830783, 37.387556], [-121.830644, 37.387352], [-121.830598, 37.387284], [-121.830585, 37.387265]]]}}]}