{"type": "FeatureCollection", "features": [{"type": "Feature", "properties": {"ID": 1, "AREA": 0.005981, "DISTRICT": "", "MEMBERS": 1, "LOCKED": "", "NAME": "", "PPA_POPULA": 0, "IDEAL_VALU": 9949, "DEVIATION": -9949, "F_DEVIATIO": -1, "DISTRICT_L": "Unassigned|--"}, "geometry": {"type": "MultiPolygon", "coordinates": [[[[-121.638665, 37.002574], [-121.638752, 37.002336], [-121.639359, 37.000165], [-121.639342, 37.000173], [-121.638746, 37.002346], [-121.638665, 37.002574]]], [[[-121.636849, 37.003944], [-121.636992, 37.00384], [-121.636975, 37.003843], [-121.636849, 37.003944]]], [[[-121.632274, 37.005128], [-121.632352, 37.005024], [-121.632544, 37.004576], [-121.632576, 37.004352], [-121.632584, 37.004332], [-121.63257, 37.00436], [-121.63252, 37.0046], [-121.632322, 37.005024], [-121.632274, 37.005128]]], [[[-121.631181, 37.00807], [-121.6312, 37.008064], [-121.631232, 37.008], [-121.631232, 37.007968], [-121.63136, 37.007648], [-121.631712, 37.00672], [-121.631744, 37.006656], [-121.632, 37.005984], [-121.63216, 37.0056], [-121.632224, 37.00544], [-121.632224, 37.005312], [-121.63225, 37.00518], [-121.63222, 37.00532], [-121.6322, 37.00544], [-121.63214, 37.00563], [-121.631993, 37.005993], [-121.631713, 37.006685], [-121.6317, 37.00672], [-121.63135, 37.00767], [-121.631221, 37.007974], [-121.631202, 37.008019], [-121.631181, 37.00807]]], [[[-121.6313, 37.01262], [-121.631383, 37.012651], [-121.63146, 37.01268], [-121.63163, 37.012756], [-121.631638, 37.01276], [-121.631648, 37.012736], [-121.631488, 37.012672], [-121.631392, 37.01264], [-121.631328, 37.012608], [-121.631324, 37.012606], [-121.6313, 37.01262]]], [[[-121.624096, 36.992736], [-121.616609, 36.988577], [-121.616585, 36.988598], [-121.62408, 36.992736], [-121.624096, 36.992736]]], [[[-121.642228, 36.998844], [-121.643552, 36.998272], [-121.641184, 36.995712], [-121.639648, 36.993376], [-121.639808, 36.992544], [-121.624189, 36.992735], [-121.639802, 36.992572], [-121.639639, 36.993388], [-121.641172, 36.995737], [-121.643521, 36.998281], [-121.642228, 36.998844]]], [[[-121.555728, 36.976304], [-121.555751, 36.976364], [-121.55581, 36.97652], [-121.555833, 36.976572], [-121.55612, 36.97723], [-121.556327, 36.97766], [-121.5565, 36.97802], [-121.55756, 36.9802], [-121.55797, 36.98095], [-121.55822, 36.98149], [-121.558283, 36.981658], [-121.558371, 36.981888], [-121.558397, 36.981881], [-121.558304, 36.981632], [-121.55824, 36.981472], [-121.557984, 36.980928], [-121.557568, 36.980192], [-121.556512, 36.978016], [-121.556352, 36.977632], [-121.556128, 36.977216], [-121.55584, 36.976544], [-121.55584, 36.976512], [-121.555776, 36.976352], [-121.555754, 36.976309], [-121.555728, 36.976304]]], [[[-121.568353, 36.989631], [-121.564672, 36.989568], [-121.561999, 36.99029], [-121.564666, 36.989599], [-121.568358, 36.989642], [-121.568353, 36.989631]]], [[[-121.586753, 37.02781], [-121.58673, 37.02781], [-121.58679, 37.02797], [-121.58681, 37.02801], [-121.587038, 37.028606], [-121.58717, 37.02895], [-121.58731, 37.029303], [-121.58748, 37.02973], [-121.58755, 37.02992], [-121.587701, 37.030267], [-121.587707, 37.030281], [-121.58781, 37.03052], [-121.58793, 37.03084], [-121.588348, 37.031886], [-121.588471, 37.032192], [-121.58849, 37.03224], [-121.58853, 37.03227], [-121.5886, 37.03229], [-121.588678, 37.032297], [-121.58872, 37.0323], [-121.589092, 37.0323], [-121.590065, 37.0323], [-121.590335, 37.0323], [-121.590504, 37.0323], [-121.590528, 37.0323], [-121.590528, 37.032288], [-121.590336, 37.032288], [-121.59008, 37.032288], [-121.58912, 37.032288], [-121.588736, 37.032288], [-121.588704, 37.032288], [-121.588608, 37.032288], [-121.588544, 37.032256], [-121.588512, 37.032224], [-121.58848, 37.032192], [-121.588352, 37.031872], [-121.587936, 37.030816], [-121.58784, 37.030496], [-121.587712, 37.030272], [-121.587712, 37.03024], [-121.587552, 37.02992], [-121.587488, 37.029728], [-121.587328, 37.02928], [-121.5872, 37.028928], [-121.58704, 37.028576], [-121.586816, 37.028], [-121.586816, 37.027968], [-121.586753, 37.02781]]], [[[-121.589619, 37.048102], [-121.589607, 37.048105], [-121.589608, 37.048108], [-121.589619, 37.048102]]], [[[-121.518689, 36.978624], [-121.518996, 36.978456], [-121.522111, 36.976728], [-121.522812, 36.97634], [-121.523146, 36.976144], [-121.524312, 36.977429], [-121.524978, 36.978308], [-121.524988, 36.978299], [-121.52432, 36.977408], [-121.523168, 36.976128], [-121.522816, 36.97632], [-121.522112, 36.976704], [-121.519008, 36.978432], [-121.518689, 36.978624]]], [[[-121.525223, 36.978083], [-121.525695, 36.977653], [-121.528493, 36.975098], [-121.52986, 36.976289], [-121.531885, 36.978052], [-121.530548, 36.979042], [-121.533316, 36.982193], [-121.533462, 36.982367], [-121.537086, 36.980357], [-121.538319, 36.979651], [-121.537088, 36.980352], [-121.533472, 36.982336], [-121.533344, 36.982176], [-121.53056, 36.97904], [-121.531904, 36.978048], [-121.529888, 36.976288], [-121.528512, 36.975072], [-121.525696, 36.977632], [-121.525223, 36.978083]]], [[[-121.538916, 36.979312], [-121.539301, 36.979314], [-121.539328, 36.979296], [-121.538944, 36.979296], [-121.538916, 36.979312]]], [[[-121.53946, 36.979206], [-121.543443, 36.976502], [-121.54374, 36.976233], [-121.543863, 36.976224], [-121.543744, 36.976224], [-121.543456, 36.97648], [-121.53946, 36.979206]]], [[[-121.543877, 36.976223], [-121.544002, 36.976215], [-121.544096, 36.97616], [-121.544032, 36.976192], [-121.543877, 36.976223]]], [[[-121.547664, 36.973702], [-121.547936, 36.973513], [-121.547932, 36.973507], [-121.547664, 36.973702]]], [[[-121.558461, 36.981862], [-121.55861, 36.98182], [-121.558878, 36.982509], [-121.55891, 36.98259], [-121.55905, 36.98305], [-121.55914, 36.98354], [-121.55923, 36.9841], [-121.559296, 36.984683], [-121.55931, 36.9848], [-121.55936, 36.98514], [-121.55943, 36.98541], [-121.55951, 36.98565], [-121.5596, 36.98588], [-121.5597, 36.98613], [-121.559749, 36.986246], [-121.56, 36.98684], [-121.56015, 36.98725], [-121.56024, 36.98745], [-121.56034, 36.98758], [-121.56057, 36.98791], [-121.56088, 36.98833], [-121.561065, 36.988565], [-121.56114, 36.98866], [-121.56124, 36.98886], [-121.56125, 36.98896], [-121.56123, 36.98906], [-121.5612, 36.98912], [-121.561176, 36.98914], [-121.561216, 36.98912], [-121.561248, 36.989056], [-121.56128, 36.98896], [-121.561248, 36.988832], [-121.561152, 36.98864], [-121.561088, 36.988544], [-121.560896, 36.98832], [-121.560576, 36.987904], [-121.560352, 36.987552], [-121.560256, 36.987424], [-121.56016, 36.987232], [-121.56, 36.986816], [-121.559776, 36.98624], [-121.559712, 36.986112], [-121.559616, 36.985856], [-121.55952, 36.985632], [-121.559456, 36.985408], [-121.55936, 36.98512], [-121.559328, 36.9848], [-121.559296, 36.984672], [-121.559232, 36.984096], [-121.559168, 36.98352], [-121.559072, 36.98304], [-121.558912, 36.98256], [-121.55888, 36.982496], [-121.558624, 36.981792], [-121.558461, 36.981862]]], [[[-121.560968, 36.989204], [-121.56094, 36.98921], [-121.561133, 36.989674], [-121.56134, 36.99017], [-121.5614, 36.99032], [-121.561446, 36.990433], [-121.561469, 36.990427], [-121.561408, 36.990304], [-121.561344, 36.990144], [-121.561152, 36.989664], [-121.560968, 36.989204]]]]}}, {"type": "Feature", "properties": {"ID": 2, "AREA": 2.317949, "DISTRICT": "1", "MEMBERS": 1, "LOCKED": "", "NAME": "", "PPA_POPULA": 9851, "IDEAL_VALU": 9949, "DEVIATION": -98, "F_DEVIATIO": -0.00985, "DISTRICT_L": "1|-0.99%"}, "geometry": {"type": "MultiPolygon", "coordinates": [[[[-121.626288, 37.011708], [-121.62576, 37.011661], [-121.62347, 37.01169], [-121.62341, 37.0117], [-121.62178, 37.01181], [-121.621189, 37.011838], [-121.62073, 37.01186], [-121.620127, 37.011851], [-121.62004, 37.01185], [-121.619974, 37.01185], [-121.619516, 37.011852], [-121.619364, 37.011853], [-121.619237, 37.011853], [-121.618239, 37.011857], [-121.61756, 37.01186], [-121.61683, 37.01186], [-121.61526, 37.01185], [-121.614864, 37.011852], [-121.614413, 37.011855], [-121.61374, 37.01186], [-121.613179, 37.011866], [-121.61282, 37.01187], [-121.611499, 37.011891], [-121.61094, 37.0119], [-121.61023, 37.01191], [-121.608852, 37.011928], [-121.60794, 37.01194], [-121.60761, 37.01197], [-121.60699, 37.01204], [-121.6039, 37.01244], [-121.60337, 37.0125], [-121.603016, 37.012549], [-121.60265, 37.0126], [-121.602631, 37.012602], [-121.60241, 37.01263], [-121.60196, 37.01269], [-121.60166, 37.01274], [-121.601593, 37.012746], [-121.60146, 37.01276], [-121.601148, 37.012811], [-121.600753, 37.012909], [-121.60058, 37.012952], [-121.600266, 37.013039], [-121.599969, 37.013125], [-121.59982, 37.01315], [-121.59973, 37.01318], [-121.59962, 37.01321], [-121.599604, 37.013277], [-121.599588, 37.013337], [-121.59957, 37.013473], [-121.599537, 37.01369], [-121.59949, 37.014111], [-121.599485, 37.01423], [-121.599475, 37.014487], [-121.59945, 37.01487], [-121.599426, 37.015146], [-121.59941, 37.01535], [-121.59935, 37.0159], [-121.59924, 37.017122], [-121.59921, 37.01746], [-121.59917, 37.01778], [-121.599104, 37.018333], [-121.59903, 37.01896], [-121.59893, 37.019883], [-121.598918, 37.019996], [-121.59888, 37.02036], [-121.59885, 37.02055], [-121.59885, 37.02061], [-121.598848, 37.020622], [-121.59884, 37.02069], [-121.598821, 37.020838], [-121.598812, 37.02091], [-121.598789, 37.021082], [-121.598723, 37.021601], [-121.598702, 37.021774], [-121.5987, 37.02179], [-121.598643, 37.022838], [-121.595907, 37.022846], [-121.595805, 37.022846], [-121.59581, 37.02302], [-121.59582, 37.02324], [-121.59587, 37.02348], [-121.59597, 37.02379], [-121.59606, 37.02404], [-121.59612, 37.02422], [-121.59625, 37.02472], [-121.5963, 37.0249], [-121.59636, 37.02535], [-121.59636, 37.02542], [-121.59638, 37.02602], [-121.59639, 37.02612], [-121.596406, 37.026364], [-121.59641, 37.02642], [-121.596433, 37.026576], [-121.59647, 37.02683], [-121.5965, 37.02702], [-121.59652, 37.0275], [-121.59654, 37.02788], [-121.59655, 37.02799], [-121.596548, 37.028019], [-121.596534, 37.028439], [-121.59653, 37.02858], [-121.596529, 37.028599], [-121.596526, 37.028659], [-121.596526, 37.028679], [-121.596524, 37.028713], [-121.59652, 37.028814], [-121.59652, 37.028832], [-121.596544, 37.028832], [-121.598012, 37.028832], [-121.598016, 37.028832], [-121.597984, 37.029344], [-121.597888, 37.030336], [-121.597888, 37.030432], [-121.59777, 37.031286], [-121.597769, 37.031293], [-121.59776, 37.03138], [-121.597747, 37.031487], [-121.597746, 37.031498], [-121.597664, 37.03232], [-121.597696, 37.032512], [-121.597632, 37.033024], [-121.597472, 37.034112], [-121.59744, 37.035072], [-121.59744, 37.035136], [-121.597408, 37.035392], [-121.597408, 37.035488], [-121.597408, 37.035936], [-121.597408, 37.036032], [-121.59744, 37.036544], [-121.597536, 37.037024], [-121.597568, 37.03728], [-121.597632, 37.037696], [-121.59808, 37.037824], [-121.598816, 37.038048], [-121.60144, 37.038816], [-121.60208, 37.039008], [-121.602368, 37.039072], [-121.603552, 37.039424], [-121.603648, 37.039456], [-121.603712, 37.039488], [-121.603744, 37.039488], [-121.604192, 37.039616], [-121.604352, 37.03968], [-121.604864, 37.03984], [-121.604832, 37.039392], [-121.6048, 37.03888], [-121.6048, 37.038368], [-121.604768, 37.038048], [-121.604576, 37.035392], [-121.60464, 37.035392], [-121.606176, 37.03536], [-121.606144, 37.035136], [-121.608096, 37.035104], [-121.61152, 37.035072], [-121.61248, 37.035072], [-121.615104, 37.035072], [-121.616096, 37.035072], [-121.61616, 37.035072], [-121.61632, 37.035072], [-121.616576, 37.035072], [-121.616576, 37.03504], [-121.616448, 37.02928], [-121.616448, 37.028448], [-121.616416, 37.027904], [-121.618208, 37.027872], [-121.623872, 37.027712], [-121.623712, 37.022816], [-121.623712, 37.021728], [-121.623648, 37.020736], [-121.624194, 37.02071], [-121.62432, 37.020704], [-121.624416, 37.020736], [-121.624992, 37.020864], [-121.625152, 37.020864], [-121.625408, 37.020832], [-121.625984, 37.0208], [-121.62608, 37.020768], [-121.626208, 37.020736], [-121.626234, 37.020736], [-121.62624, 37.020736], [-121.626249, 37.02073], [-121.626336, 37.020672], [-121.626382, 37.020672], [-121.626496, 37.020672], [-121.62816, 37.02064], [-121.628288, 37.02032], [-121.628224, 37.019584], [-121.628224, 37.01952], [-121.628224, 37.019104], [-121.628224, 37.018752], [-121.628224, 37.018176], [-121.628224, 37.017856], [-121.628256, 37.017664], [-121.628256, 37.01744], [-121.628288, 37.017376], [-121.628292, 37.017368], [-121.62832, 37.017312], [-121.628406, 37.017255], [-121.628416, 37.017248], [-121.628416, 37.017216], [-121.628448, 37.016576], [-121.628448, 37.01616], [-121.628416, 37.01616], [-121.628384, 37.015968], [-121.628288, 37.01568], [-121.628192, 37.015584], [-121.627872, 37.015232], [-121.627424, 37.014848], [-121.627328, 37.014688], [-121.627008, 37.014272], [-121.626976, 37.014176], [-121.626848, 37.013728], [-121.626752, 37.013024], [-121.62672, 37.01264], [-121.626688, 37.012384], [-121.626656, 37.012256], [-121.626628, 37.012171], [-121.626624, 37.01216], [-121.626944, 37.01216], [-121.628128, 37.012928], [-121.62864, 37.01328], [-121.628768, 37.013376], [-121.629056, 37.013376], [-121.629184, 37.013568], [-121.629472, 37.013568], [-121.629758, 37.013505], [-121.62976, 37.013504], [-121.629778, 37.013493], [-121.62992, 37.013408], [-121.630144, 37.013408], [-121.630304, 37.01344], [-121.630496, 37.013536], [-121.630848, 37.013536], [-121.631168, 37.01344], [-121.631392, 37.013152], [-121.631433, 37.01309], [-121.631454, 37.013056], [-121.631563, 37.01292], [-121.63163, 37.012756], [-121.63146, 37.01268], [-121.631383, 37.012651], [-121.6313, 37.01262], [-121.630972, 37.01247], [-121.63095, 37.01246], [-121.63033, 37.01215], [-121.629996, 37.012007], [-121.629902, 37.011967], [-121.62977, 37.01191], [-121.629662, 37.011876], [-121.629629, 37.011865], [-121.629533, 37.011835], [-121.629501, 37.011825], [-121.6292, 37.01173], [-121.628703, 37.01167], [-121.628034, 37.011645], [-121.627219, 37.011652], [-121.626379, 37.011703], [-121.626288, 37.011708]]], [[[-121.568595, 36.976503], [-121.568544, 36.97664], [-121.568512, 36.976736], [-121.568517, 36.976743], [-121.568541, 36.976668], [-121.568595, 36.976503]]]]}}, {"type": "Feature", "properties": {"ID": 3, "AREA": 0.944799, "DISTRICT": "2", "MEMBERS": 1, "LOCKED": "", "NAME": "", "PPA_POPULA": 9847, "IDEAL_VALU": 9949, "DEVIATION": -102, "F_DEVIATIO": -0.010252, "DISTRICT_L": "2|-1.03%"}, "geometry": {"type": "Polygon", "coordinates": [[[-121.598643, 37.022838], [-121.5987, 37.02179], [-121.598702, 37.021774], [-121.598723, 37.021601], [-121.598789, 37.021082], [-121.598812, 37.02091], [-121.598821, 37.020838], [-121.59884, 37.02069], [-121.598848, 37.020622], [-121.59885, 37.02061], [-121.59885, 37.02055], [-121.59888, 37.02036], [-121.598918, 37.019996], [-121.59893, 37.019883], [-121.59903, 37.01896], [-121.599104, 37.018333], [-121.59917, 37.01778], [-121.59921, 37.01746], [-121.59924, 37.017122], [-121.59935, 37.0159], [-121.59941, 37.01535], [-121.599426, 37.015146], [-121.59945, 37.01487], [-121.599475, 37.014487], [-121.599485, 37.01423], [-121.59949, 37.014111], [-121.599537, 37.01369], [-121.59957, 37.013473], [-121.599588, 37.013337], [-121.599604, 37.013277], [-121.59962, 37.01321], [-121.59965, 37.01304], [-121.599713, 37.012627], [-121.59974, 37.01245], [-121.599791, 37.01219], [-121.59996, 37.01134], [-121.60002, 37.01123], [-121.60019, 37.00957], [-121.600237, 37.00913], [-121.600349, 37.008102], [-121.59868, 37.00799], [-121.59852, 37.00814], [-121.59821, 37.00834], [-121.59784, 37.00845], [-121.597664, 37.008486], [-121.5976, 37.0085], [-121.59738, 37.0085], [-121.597128, 37.008482], [-121.59695, 37.00847], [-121.596414, 37.008443], [-121.59595, 37.00842], [-121.59541, 37.00838], [-121.59509, 37.00833], [-121.594821, 37.008253], [-121.59474, 37.00823], [-121.59448, 37.0082], [-121.59429, 37.0082], [-121.59406, 37.00819], [-121.593394, 37.008197], [-121.59317, 37.0082], [-121.59281, 37.00821], [-121.592454, 37.008203], [-121.590306, 37.008166], [-121.5899, 37.00816], [-121.58959, 37.00816], [-121.589046, 37.008153], [-121.587414, 37.008135], [-121.58687, 37.00813], [-121.58694, 37.0083], [-121.586972, 37.00842], [-121.58704, 37.00867], [-121.58709, 37.009], [-121.587097, 37.009331], [-121.5871, 37.00944], [-121.5871, 37.00964], [-121.587096, 37.009786], [-121.587084, 37.010224], [-121.58708, 37.01037], [-121.58707, 37.01063], [-121.587037, 37.010998], [-121.58702, 37.0112], [-121.58691, 37.01161], [-121.58676, 37.01198], [-121.58667, 37.01224], [-121.58663, 37.01239], [-121.58662, 37.01262], [-121.586634, 37.012821], [-121.58665, 37.01305], [-121.586656, 37.013178], [-121.58667, 37.01345], [-121.586674, 37.013505], [-121.586239, 37.013495], [-121.584256, 37.013479], [-121.58167, 37.01344], [-121.581193, 37.01345], [-121.580302, 37.01343], [-121.580281, 37.01343], [-121.58028, 37.01349], [-121.58044, 37.01349], [-121.58167, 37.01351], [-121.58167, 37.0136], [-121.581685, 37.013709], [-121.58169, 37.01374], [-121.58182, 37.01402], [-121.58195, 37.01425], [-121.58204, 37.01443], [-121.582122, 37.014586], [-121.582367, 37.015054], [-121.58245, 37.01521], [-121.582526, 37.015354], [-121.58264, 37.01557], [-121.582748, 37.015792], [-121.58282, 37.01594], [-121.582893, 37.016083], [-121.583, 37.01629], [-121.5831, 37.01651], [-121.58318, 37.01666], [-121.583248, 37.016801], [-121.58335, 37.01701], [-121.583452, 37.017227], [-121.58352, 37.01737], [-121.58346, 37.01739], [-121.58355, 37.01755], [-121.583713, 37.01781], [-121.58377, 37.0179], [-121.58389, 37.01812], [-121.584216, 37.019189], [-121.58436, 37.01966], [-121.584402, 37.019798], [-121.584528, 37.020212], [-121.58457, 37.02035], [-121.58497, 37.020526], [-121.58617, 37.021054], [-121.58657, 37.02123], [-121.586563, 37.021371], [-121.58656, 37.02145], [-121.58656, 37.02162], [-121.58656, 37.021797], [-121.58656, 37.02181], [-121.58656, 37.02194], [-121.58656, 37.022078], [-121.58656, 37.022492], [-121.58656, 37.02263], [-121.586562, 37.022797], [-121.586568, 37.023301], [-121.58657, 37.02339], [-121.58657, 37.02347], [-121.586573, 37.023628], [-121.58658, 37.02388], [-121.586584, 37.02395], [-121.586594, 37.024102], [-121.5866, 37.02419], [-121.5866, 37.02426], [-121.58661, 37.024422], [-121.58664, 37.024908], [-121.58665, 37.02507], [-121.586659, 37.025213], [-121.58667, 37.02537], [-121.58667, 37.025645], [-121.58667, 37.02579], [-121.586675, 37.026077], [-121.58669, 37.02688], [-121.58669, 37.026941], [-121.58669, 37.02723], [-121.58671, 37.027229], [-121.58672, 37.0272], [-121.587072, 37.0272], [-121.587136, 37.0272], [-121.587296, 37.0272], [-121.587509, 37.0272], [-121.587425, 37.0248], [-121.587783, 37.024792], [-121.5916, 37.024704], [-121.591616, 37.024704], [-121.591616, 37.02496], [-121.591616, 37.025056], [-121.591616, 37.025088], [-121.591616, 37.025312], [-121.591616, 37.02544], [-121.591616, 37.02547], [-121.591616, 37.025472], [-121.591616, 37.025568], [-121.59161, 37.025568], [-121.59161, 37.025591], [-121.590305, 37.025599], [-121.590336, 37.026784], [-121.590976, 37.026784], [-121.591604, 37.026784], [-121.591616, 37.026784], [-121.591616, 37.026912], [-121.591616, 37.026944], [-121.591616, 37.027136], [-121.591616, 37.0272], [-121.591616, 37.02721], [-121.591616, 37.027328], [-121.591616, 37.02752], [-121.592192, 37.027488], [-121.593152, 37.027488], [-121.59326, 37.027488], [-121.59328, 37.027488], [-121.59328, 37.027584], [-121.59328, 37.027648], [-121.59328, 37.027776], [-121.594432, 37.027776], [-121.594464, 37.0288], [-121.595328, 37.028832], [-121.59652, 37.028832], [-121.59652, 37.028814], [-121.596524, 37.028713], [-121.596526, 37.028679], [-121.596526, 37.028659], [-121.596529, 37.028599], [-121.59653, 37.02858], [-121.596534, 37.028439], [-121.596548, 37.028019], [-121.59655, 37.02799], [-121.59654, 37.02788], [-121.59652, 37.0275], [-121.5965, 37.02702], [-121.59647, 37.02683], [-121.596433, 37.026576], [-121.59641, 37.02642], [-121.596406, 37.026364], [-121.59639, 37.02612], [-121.59638, 37.02602], [-121.59636, 37.02542], [-121.59636, 37.02535], [-121.5963, 37.0249], [-121.59625, 37.02472], [-121.59612, 37.02422], [-121.59606, 37.02404], [-121.59597, 37.02379], [-121.59587, 37.02348], [-121.59582, 37.02324], [-121.59581, 37.02302], [-121.595805, 37.022846], [-121.595907, 37.022846], [-121.598643, 37.022838]]]}}, {"type": "Feature", "properties": {"ID": 4, "AREA": 5.888252, "DISTRICT": "3", "MEMBERS": 1, "LOCKED": "", "NAME": "", "PPA_POPULA": 9557, "IDEAL_VALU": 9949, "DEVIATION": -392, "F_DEVIATIO": -0.039401, "DISTRICT_L": "3|-3.94%"}, "geometry": {"type": "MultiPolygon", "coordinates": [[[[-121.642228, 36.998844], [-121.643521, 36.998281], [-121.641172, 36.995737], [-121.639639, 36.993388], [-121.639802, 36.992572], [-121.624189, 36.992735], [-121.624096, 36.992736], [-121.62408, 36.992736], [-121.616585, 36.988598], [-121.616609, 36.988577], [-121.616608, 36.988576], [-121.6056, 36.982528], [-121.597376, 36.978112], [-121.590912, 36.974592], [-121.586784, 36.972352], [-121.58608, 36.973152], [-121.585376, 36.973792], [-121.584896, 36.974656], [-121.584096, 36.975552], [-121.583648, 36.975872], [-121.583424, 36.976128], [-121.582336, 36.976832], [-121.581216, 36.977568], [-121.580928, 36.97792], [-121.580448, 36.978176], [-121.58, 36.978592], [-121.579296, 36.979488], [-121.578912, 36.979264], [-121.578528, 36.97904], [-121.578464, 36.979104], [-121.578208, 36.97888], [-121.577408, 36.978432], [-121.576352, 36.977856], [-121.575328, 36.977888], [-121.5752, 36.977984], [-121.57504, 36.978112], [-121.574976, 36.978176], [-121.574944, 36.978208], [-121.57488, 36.978272], [-121.57472, 36.978432], [-121.574208, 36.97808], [-121.574176, 36.978112], [-121.57408, 36.978048], [-121.574496, 36.977664], [-121.572896, 36.976928], [-121.571712, 36.976768], [-121.570848, 36.976544], [-121.57008, 36.976512], [-121.569248, 36.976672], [-121.56912, 36.976448], [-121.569088, 36.976384], [-121.569024, 36.976288], [-121.568968, 36.976316], [-121.56896, 36.97632], [-121.56895, 36.976319], [-121.568736, 36.976288], [-121.568672, 36.976288], [-121.568665, 36.97631], [-121.56864, 36.976384], [-121.568597, 36.976498], [-121.568595, 36.976503], [-121.568541, 36.976668], [-121.568517, 36.976743], [-121.569408, 36.978048], [-121.570016, 36.979008], [-121.570464, 36.979648], [-121.570656, 36.979936], [-121.570976, 36.980416], [-121.571232, 36.980768], [-121.57152, 36.98112], [-121.572064, 36.981696], [-121.572192, 36.981792], [-121.57248, 36.982048], [-121.572896, 36.9824], [-121.57341, 36.982763], [-121.57344, 36.982784], [-121.573437, 36.98281], [-121.573408, 36.983104], [-121.573408, 36.983136], [-121.573408, 36.98336], [-121.57344, 36.983904], [-121.57344, 36.984192], [-121.57344, 36.984544], [-121.57344, 36.98455], [-121.57344, 36.984672], [-121.57344, 36.985088], [-121.57344, 36.985216], [-121.57344, 36.98523], [-121.57344, 36.985312], [-121.57344, 36.985344], [-121.57344, 36.98536], [-121.57344, 36.9856], [-121.57344, 36.985696], [-121.57344, 36.985856], [-121.57344, 36.986016], [-121.57344, 36.98624], [-121.57344, 36.986272], [-121.57344, 36.986432], [-121.57344, 36.986592], [-121.57344, 36.987072], [-121.57344, 36.987232], [-121.57344, 36.98726], [-121.57344, 36.987392], [-121.57344, 36.987776], [-121.57344, 36.987788], [-121.57344, 36.987904], [-121.573444, 36.98792], [-121.573472, 36.988032], [-121.573472, 36.988352], [-121.573472, 36.98848], [-121.573472, 36.988576], [-121.573472, 36.988832], [-121.573472, 36.988928], [-121.573472, 36.988939], [-121.573472, 36.989344], [-121.573472, 36.989952], [-121.573472, 36.99056], [-121.573472, 36.990784], [-121.573472, 36.990976], [-121.573472, 36.990978], [-121.573472, 36.99104], [-121.573472, 36.991072], [-121.573441, 36.991134], [-121.57344, 36.991136], [-121.573408, 36.9912], [-121.573344, 36.991264], [-121.57328, 36.991328], [-121.572948, 36.991494], [-121.572832, 36.991552], [-121.572815, 36.991558], [-121.57281, 36.99156], [-121.57264, 36.991616], [-121.572416, 36.991712], [-121.572384, 36.991725], [-121.572393, 36.991733], [-121.572418, 36.991756], [-121.57246, 36.991805], [-121.572477, 36.99184], [-121.572623, 36.991957], [-121.572679, 36.992001], [-121.572764, 36.992022], [-121.572849, 36.992058], [-121.5729, 36.992058], [-121.573163, 36.992077], [-121.57326, 36.992056], [-121.573286, 36.992035], [-121.573397, 36.992009], [-121.573444, 36.992011], [-121.573487, 36.992005], [-121.573559, 36.991989], [-121.573573, 36.991986], [-121.573691, 36.991937], [-121.573726, 36.991915], [-121.573766, 36.991899], [-121.573861, 36.991871], [-121.573935, 36.991849], [-121.573972, 36.99183], [-121.574054, 36.991801], [-121.57418, 36.991763], [-121.574583, 36.991614], [-121.574627, 36.991605], [-121.574745, 36.991556], [-121.57478, 36.991534], [-121.574863, 36.991507], [-121.574949, 36.991494], [-121.575125, 36.991484], [-121.575297, 36.991495], [-121.575391, 36.991508], [-121.575559, 36.991555], [-121.575596, 36.991575], [-121.575729, 36.99167], [-121.576631, 36.992357], [-121.576756, 36.992459], [-121.576892, 36.992553], [-121.577034, 36.992641], [-121.577227, 36.992734], [-121.577548, 36.992862], [-121.577631, 36.992891], [-121.577709, 36.992927], [-121.57807, 36.993071], [-121.578107, 36.993092], [-121.578195, 36.993106], [-121.578234, 36.993123], [-121.57827, 36.993145], [-121.578351, 36.993175], [-121.578857, 36.993406], [-121.578894, 36.993426], [-121.579065, 36.993542], [-121.579145, 36.993575], [-121.579218, 36.993617], [-121.579399, 36.993709], [-121.579746, 36.993886], [-121.579868, 36.993933], [-121.579979, 36.993993], [-121.58021, 36.994105], [-121.580291, 36.994136], [-121.580483, 36.994229], [-121.580577, 36.994282], [-121.580593, 36.994291], [-121.580733, 36.994381], [-121.581425, 36.994776], [-121.581576, 36.994851], [-121.581643, 36.994894], [-121.581683, 36.994905], [-121.581728, 36.994911], [-121.581788, 36.994943], [-121.581859, 36.994981], [-121.582058, 36.995115], [-121.582131, 36.995137], [-121.582207, 36.995175], [-121.58224, 36.9952], [-121.582259, 36.995232], [-121.582327, 36.995324], [-121.582366, 36.995388], [-121.582407, 36.99549], [-121.582422, 36.995534], [-121.582479, 36.995695], [-121.582519, 36.995833], [-121.582549, 36.9959], [-121.582559, 36.995935], [-121.582568, 36.996005], [-121.58257, 36.996113], [-121.582585, 36.996237], [-121.582658, 36.996403], [-121.582684, 36.996431], [-121.582733, 36.996521], [-121.582749, 36.996597], [-121.582773, 36.996666], [-121.582799, 36.996687], [-121.582798, 36.996708], [-121.582823, 36.996736], [-121.582831, 36.996784], [-121.582898, 36.996854], [-121.58293, 36.996964], [-121.582981, 36.997006], [-121.583023, 36.997055], [-121.583031, 36.997076], [-121.583081, 36.997138], [-121.583106, 36.99719], [-121.58319, 36.997277], [-121.583206, 36.997312], [-121.583257, 36.997354], [-121.583497, 36.997529], [-121.583654, 36.997634], [-121.583759, 36.997697], [-121.584076, 36.997915], [-121.584127, 36.997943], [-121.584184, 36.998014], [-121.584181, 36.998049], [-121.584197, 36.998154], [-121.584248, 36.998213], [-121.584268, 36.998245], [-121.584325, 36.998301], [-121.584392, 36.998346], [-121.584474, 36.99838], [-121.58456, 36.998403], [-121.584596, 36.998389], [-121.584661, 36.99834], [-121.584683, 36.998307], [-121.584699, 36.998273], [-121.584736, 36.998268], [-121.584831, 36.998282], [-121.584933, 36.998331], [-121.585052, 36.998353], [-121.58512, 36.998395], [-121.585145, 36.998395], [-121.585273, 36.998493], [-121.585151, 36.998651], [-121.58484, 36.99906], [-121.584788, 36.999129], [-121.58467, 36.99929], [-121.58458, 36.99941], [-121.58493, 36.99963], [-121.58533, 36.9998], [-121.585412, 36.999842], [-121.58566, 36.99997], [-121.58577, 37.00001], [-121.585936, 37.000079], [-121.587531, 37.000748], [-121.58787, 37.00089], [-121.58797, 37.00097], [-121.588, 37.00101], [-121.58801, 37.00104], [-121.588, 37.00109], [-121.587978, 37.001126], [-121.58794, 37.00119], [-121.587802, 37.001341], [-121.58774, 37.00141], [-121.587688, 37.001478], [-121.587532, 37.001682], [-121.58748, 37.00175], [-121.587388, 37.00187], [-121.58719, 37.00213], [-121.587126, 37.002239], [-121.58705, 37.00237], [-121.586971, 37.002501], [-121.58686, 37.00269], [-121.586762, 37.002909], [-121.5867, 37.00305], [-121.586646, 37.003188], [-121.5866, 37.00331], [-121.58655, 37.00355], [-121.586543, 37.003621], [-121.58653, 37.00377], [-121.58652, 37.00383], [-121.586516, 37.003925], [-121.586496, 37.004393], [-121.58649, 37.00455], [-121.58649, 37.004726], [-121.58649, 37.005254], [-121.58649, 37.00543], [-121.586481, 37.005575], [-121.58648, 37.00561], [-121.586487, 37.006013], [-121.58649, 37.00616], [-121.586508, 37.006563], [-121.58652, 37.00681], [-121.58659, 37.00723], [-121.586735, 37.007749], [-121.58675, 37.0078], [-121.58687, 37.00813], [-121.587414, 37.008135], [-121.589046, 37.008153], [-121.58959, 37.00816], [-121.5899, 37.00816], [-121.590306, 37.008166], [-121.592454, 37.008203], [-121.59281, 37.00821], [-121.59317, 37.0082], [-121.593394, 37.008197], [-121.59406, 37.00819], [-121.59429, 37.0082], [-121.59448, 37.0082], [-121.59474, 37.00823], [-121.594821, 37.008253], [-121.59509, 37.00833], [-121.59541, 37.00838], [-121.59595, 37.00842], [-121.596414, 37.008443], [-121.59695, 37.00847], [-121.597128, 37.008482], [-121.59738, 37.0085], [-121.5976, 37.0085], [-121.597664, 37.008486], [-121.59784, 37.00845], [-121.59821, 37.00834], [-121.59852, 37.00814], [-121.59868, 37.00799], [-121.600349, 37.008102], [-121.600237, 37.00913], [-121.60019, 37.00957], [-121.60002, 37.01123], [-121.59996, 37.01134], [-121.599791, 37.01219], [-121.59974, 37.01245], [-121.599713, 37.012627], [-121.59965, 37.01304], [-121.59962, 37.01321], [-121.59973, 37.01318], [-121.59982, 37.01315], [-121.599969, 37.013125], [-121.600266, 37.013039], [-121.60058, 37.012952], [-121.600753, 37.012909], [-121.601148, 37.012811], [-121.60146, 37.01276], [-121.601593, 37.012746], [-121.60166, 37.01274], [-121.60196, 37.01269], [-121.60241, 37.01263], [-121.602631, 37.012602], [-121.60265, 37.0126], [-121.603016, 37.012549], [-121.60337, 37.0125], [-121.6039, 37.01244], [-121.60699, 37.01204], [-121.60761, 37.01197], [-121.60794, 37.01194], [-121.608852, 37.011928], [-121.61023, 37.01191], [-121.61094, 37.0119], [-121.611499, 37.011891], [-121.61282, 37.01187], [-121.613179, 37.011866], [-121.61374, 37.01186], [-121.614413, 37.011855], [-121.614864, 37.011852], [-121.61526, 37.01185], [-121.61683, 37.01186], [-121.61756, 37.01186], [-121.618239, 37.011857], [-121.619237, 37.011853], [-121.619364, 37.011853], [-121.619516, 37.011852], [-121.619974, 37.01185], [-121.62004, 37.01185], [-121.620127, 37.011851], [-121.62073, 37.01186], [-121.621189, 37.011838], [-121.62178, 37.01181], [-121.62341, 37.0117], [-121.62347, 37.01169], [-121.62576, 37.011661], [-121.626288, 37.011708], [-121.626379, 37.011703], [-121.627219, 37.011652], [-121.628034, 37.011645], [-121.628703, 37.01167], [-121.6292, 37.01173], [-121.629501, 37.011825], [-121.629533, 37.011835], [-121.629629, 37.011865], [-121.629662, 37.011876], [-121.62977, 37.01191], [-121.629902, 37.011967], [-121.629996, 37.012007], [-121.63033, 37.01215], [-121.63095, 37.01246], [-121.630972, 37.01247], [-121.6313, 37.01262], [-121.631324, 37.012606], [-121.630976, 37.012448], [-121.630336, 37.012128], [-121.630016, 37.012], [-121.62992, 37.011936], [-121.62992, 37.011712], [-121.62992, 37.01056], [-121.629696, 37.009888], [-121.629056, 37.008448], [-121.629309, 37.007943], [-121.629312, 37.007936], [-121.630592, 37.008288], [-121.631008, 37.008128], [-121.631181, 37.00807], [-121.631202, 37.008019], [-121.631221, 37.007974], [-121.63135, 37.00767], [-121.6317, 37.00672], [-121.631713, 37.006685], [-121.631993, 37.005993], [-121.63214, 37.00563], [-121.6322, 37.00544], [-121.63222, 37.00532], [-121.63225, 37.00518], [-121.632251, 37.005179], [-121.632251, 37.005178], [-121.632256, 37.005152], [-121.632274, 37.005128], [-121.632322, 37.005024], [-121.63252, 37.0046], [-121.63257, 37.00436], [-121.632584, 37.004332], [-121.63264, 37.004192], [-121.632736, 37.004096], [-121.635168, 37.004096], [-121.63664, 37.004096], [-121.636844, 37.003948], [-121.636849, 37.003944], [-121.636975, 37.003843], [-121.636992, 37.00384], [-121.637019, 37.003834], [-121.637952, 37.003616], [-121.638496, 37.00304], [-121.638665, 37.002574], [-121.638746, 37.002346], [-121.639342, 37.000173], [-121.639359, 37.000165], [-121.63936, 37.00016], [-121.640736, 36.999488], [-121.642101, 36.998899], [-121.642228, 36.998844]]], [[[-121.631638, 37.01276], [-121.63163, 37.012756], [-121.631563, 37.01292], [-121.631454, 37.013056], [-121.631433, 37.01309], [-121.631456, 37.013056], [-121.631584, 37.012896], [-121.631638, 37.01276]]], [[[-121.555722, 36.976288], [-121.555728, 36.976304], [-121.555754, 36.976309], [-121.555744, 36.976288], [-121.555722, 36.976288]]], [[[-121.568353, 36.989631], [-121.568358, 36.989642], [-121.568369, 36.989667], [-121.568435, 36.989836], [-121.568452, 36.989869], [-121.568487, 36.989971], [-121.568514, 36.99], [-121.568624, 36.99027], [-121.568658, 36.990336], [-121.568698, 36.990399], [-121.568713, 36.990433], [-121.568749, 36.990492], [-121.568911, 36.990711], [-121.569004, 36.990788], [-121.56907, 36.990836], [-121.569099, 36.990864], [-121.56916, 36.990909], [-121.56912, 36.990848], [-121.569088, 36.990816], [-121.569024, 36.990784], [-121.568928, 36.990688], [-121.568768, 36.990464], [-121.568736, 36.990432], [-121.568704, 36.990368], [-121.568672, 36.990336], [-121.56864, 36.99024], [-121.568544, 36.989984], [-121.568512, 36.989952], [-121.56848, 36.989856], [-121.568448, 36.989824], [-121.568384, 36.989664], [-121.568384, 36.989632], [-121.568353, 36.989631]]]]}}, {"type": "Feature", "properties": {"ID": 5, "AREA": 3.850543, "DISTRICT": "4", "MEMBERS": 1, "LOCKED": "", "NAME": "", "PPA_POPULA": 10225, "IDEAL_VALU": 9949, "DEVIATION": 276, "F_DEVIATIO": 0.027741, "DISTRICT_L": "4|2.77%"}, "geometry": {"type": "MultiPolygon", "coordinates": [[[[-121.571712, 36.991936], [-121.5718, 36.99192], [-121.57203, 36.991855], [-121.57223, 36.9918], [-121.572393, 36.991733], [-121.572384, 36.991725], [-121.572256, 36.991776], [-121.572032, 36.99184], [-121.571808, 36.991904], [-121.571712, 36.991936]]], [[[-121.555722, 36.976288], [-121.55568, 36.976288], [-121.555616, 36.976256], [-121.555488, 36.976192], [-121.555456, 36.97616], [-121.55542, 36.97616], [-121.555388, 36.97616], [-121.555328, 36.97616], [-121.554464, 36.976032], [-121.554368, 36.976064], [-121.554176, 36.976064], [-121.553184, 36.976224], [-121.552896, 36.976256], [-121.5528, 36.976288], [-121.552384, 36.976416], [-121.55216, 36.976416], [-121.552032, 36.976384], [-121.551936, 36.976352], [-121.551808, 36.976288], [-121.551552, 36.976064], [-121.55104, 36.97568], [-121.55072, 36.975488], [-121.55024, 36.975136], [-121.549632, 36.974784], [-121.549088, 36.974496], [-121.549056, 36.974464], [-121.54864, 36.97424], [-121.54848, 36.974112], [-121.54832, 36.973984], [-121.54816, 36.973792], [-121.547936, 36.973504], [-121.547932, 36.973507], [-121.547936, 36.973513], [-121.547664, 36.973702], [-121.547232, 36.974016], [-121.545056, 36.97552], [-121.54432, 36.976032], [-121.544224, 36.976096], [-121.544096, 36.97616], [-121.544002, 36.976215], [-121.543877, 36.976223], [-121.543876, 36.976223], [-121.543872, 36.976224], [-121.543863, 36.976224], [-121.54374, 36.976233], [-121.543443, 36.976502], [-121.53946, 36.979206], [-121.539429, 36.979227], [-121.539328, 36.979296], [-121.539301, 36.979314], [-121.538916, 36.979312], [-121.538748, 36.979408], [-121.538369, 36.979623], [-121.538319, 36.979651], [-121.537086, 36.980357], [-121.533462, 36.982367], [-121.533316, 36.982193], [-121.530548, 36.979042], [-121.531885, 36.978052], [-121.52986, 36.976289], [-121.528493, 36.975098], [-121.525695, 36.977653], [-121.525223, 36.978083], [-121.525206, 36.978099], [-121.524992, 36.978304], [-121.524988, 36.978299], [-121.524978, 36.978308], [-121.524312, 36.977429], [-121.523146, 36.976144], [-121.522812, 36.97634], [-121.522111, 36.976728], [-121.518996, 36.978456], [-121.518689, 36.978624], [-121.518784, 36.978688], [-121.518848, 36.978752], [-121.51904, 36.978944], [-121.519104, 36.97904], [-121.519296, 36.979232], [-121.519424, 36.979392], [-121.519552, 36.979488], [-121.519584, 36.97952], [-121.519968, 36.98], [-121.520384, 36.980416], [-121.52048, 36.980544], [-121.52064, 36.980736], [-121.520736, 36.980832], [-121.5208, 36.980928], [-121.520832, 36.98096], [-121.520896, 36.981024], [-121.520928, 36.981024], [-121.521024, 36.981152], [-121.521088, 36.981248], [-121.521184, 36.981344], [-121.521248, 36.981408], [-121.521312, 36.981472], [-121.52144, 36.981632], [-121.5216, 36.981824], [-121.521632, 36.981856], [-121.522176, 36.982464], [-121.522272, 36.982592], [-121.5224, 36.98272], [-121.522592, 36.982944], [-121.522624, 36.983008], [-121.522752, 36.983104], [-121.522752, 36.983136], [-121.522784, 36.983168], [-121.522816, 36.983232], [-121.522976, 36.983424], [-121.523136, 36.983616], [-121.523264, 36.983744], [-121.523424, 36.983904], [-121.52384, 36.984416], [-121.523936, 36.984544], [-121.524064, 36.984672], [-121.524416, 36.985056], [-121.5248, 36.985376], [-121.524992, 36.985504], [-121.52528, 36.985728], [-121.525632, 36.985952], [-121.526272, 36.9864], [-121.526336, 36.986464], [-121.526528, 36.98656], [-121.526624, 36.986624], [-121.526688, 36.986688], [-121.527008, 36.98688], [-121.52736, 36.987104], [-121.525952, 36.987962], [-121.524576, 36.9888], [-121.52458, 36.988804], [-121.52784, 36.992576], [-121.528064, 36.9928], [-121.528448, 36.992992], [-121.52848, 36.993184], [-121.52848, 36.993248], [-121.528928, 36.99344], [-121.529184, 36.993728], [-121.529472, 36.994112], [-121.529728, 36.9944], [-121.529888, 36.994496], [-121.530048, 36.994528], [-121.530363, 36.995064], [-121.530368, 36.995072], [-121.531209, 36.994798], [-121.532376, 36.994418], [-121.533105, 36.994181], [-121.53312, 36.994176], [-121.5312, 36.990784], [-121.531237, 36.990756], [-121.531328, 36.990688], [-121.53152, 36.99056], [-121.531689, 36.990476], [-121.531691, 36.990475], [-121.531693, 36.990473], [-121.531712, 36.990464], [-121.531763, 36.99043], [-121.531808, 36.9904], [-121.531904, 36.990336], [-121.531968, 36.990304], [-121.532376, 36.9901], [-121.532544, 36.990016], [-121.532632, 36.98996], [-121.532896, 36.989792], [-121.532925, 36.989792], [-121.532928, 36.989792], [-121.532949, 36.989781], [-121.53328, 36.9896], [-121.534304, 36.98912], [-121.53488, 36.988864], [-121.536384, 36.988128], [-121.536928, 36.98784], [-121.537408, 36.987584], [-121.537424, 36.987568], [-121.53744, 36.987552], [-121.53744, 36.98752], [-121.538144, 36.987232], [-121.539673, 36.986454], [-121.539968, 36.986304], [-121.539999, 36.986288], [-121.540096, 36.98624], [-121.540102, 36.986234], [-121.540128, 36.986208], [-121.540256, 36.986208], [-121.540384, 36.986272], [-121.54048, 36.9864], [-121.54064, 36.986528], [-121.540704, 36.98656], [-121.54081, 36.98656], [-121.540832, 36.98656], [-121.540882, 36.98654], [-121.540992, 36.986496], [-121.541088, 36.986464], [-121.541664, 36.986336], [-121.541952, 36.986272], [-121.542176, 36.986208], [-121.542368, 36.986176], [-121.54256, 36.986112], [-121.54336, 36.985888], [-121.543456, 36.985856], [-121.544224, 36.985664], [-121.545184, 36.985408], [-121.545824, 36.985184], [-121.546656, 36.984992], [-121.546659, 36.984995], [-121.546784, 36.985152], [-121.547072, 36.985504], [-121.547456, 36.985984], [-121.548032, 36.986784], [-121.548288, 36.987072], [-121.548576, 36.987424], [-121.548704, 36.987584], [-121.549024, 36.987968], [-121.54912, 36.988096], [-121.549216, 36.988256], [-121.549376, 36.988448], [-121.549632, 36.988768], [-121.54992, 36.989152], [-121.55024, 36.989568], [-121.550242, 36.98957], [-121.550368, 36.989728], [-121.55056, 36.990016], [-121.55072, 36.990208], [-121.550784, 36.990272], [-121.55088, 36.990368], [-121.550912, 36.990432], [-121.551008, 36.99056], [-121.55104, 36.990624], [-121.551072, 36.990656], [-121.551064, 36.990661], [-121.551025, 36.990687], [-121.550987, 36.990713], [-121.550976, 36.99072], [-121.550814, 36.9908], [-121.548896, 36.991744], [-121.545728, 36.993312], [-121.545744, 36.993334], [-121.545888, 36.993536], [-121.54592, 36.993568], [-121.54608, 36.993728], [-121.546208, 36.99392], [-121.546272, 36.994016], [-121.546259, 36.994022], [-121.546182, 36.994061], [-121.545184, 36.99456], [-121.545056, 36.9944], [-121.543672, 36.995105], [-121.54336, 36.995264], [-121.54, 36.99696], [-121.539997, 36.996957], [-121.539936, 36.996896], [-121.539904, 36.996864], [-121.539904, 36.996832], [-121.53984, 36.996768], [-121.539808, 36.996704], [-121.539776, 36.996672], [-121.539744, 36.99664], [-121.539616, 36.99648], [-121.539584, 36.996448], [-121.53952, 36.996384], [-121.539392, 36.996256], [-121.539328, 36.996224], [-121.539232, 36.996096], [-121.5392, 36.996032], [-121.539168, 36.996], [-121.539104, 36.995936], [-121.539008, 36.995808], [-121.53888, 36.995712], [-121.53888, 36.99568], [-121.538592, 36.995392], [-121.53856, 36.995392], [-121.538528, 36.995328], [-121.5384, 36.995232], [-121.538336, 36.995136], [-121.538272, 36.995072], [-121.537824, 36.994688], [-121.537632, 36.994528], [-121.5376, 36.994528], [-121.53744, 36.9944], [-121.537408, 36.9944], [-121.537376, 36.994368], [-121.537216, 36.994272], [-121.537184, 36.99424], [-121.536992, 36.994112], [-121.536704, 36.99392], [-121.536704, 36.993888], [-121.536448, 36.993696], [-121.536499, 36.993782], [-121.5376, 36.995648], [-121.538912, 36.998592], [-121.538878, 36.998589], [-121.535136, 36.998304], [-121.535138, 36.99831], [-121.535584, 36.999648], [-121.535456, 36.999872], [-121.53552, 36.999904], [-121.535552, 36.999936], [-121.535648, 37.0], [-121.53568, 37.00016], [-121.535712, 37.000192], [-121.535744, 37.000416], [-121.535712, 37.000448], [-121.535712, 37.000576], [-121.535616, 37.0008], [-121.535456, 37.00096], [-121.535264, 37.001184], [-121.535072, 37.001408], [-121.53485, 37.001652], [-121.534752, 37.00176], [-121.534691, 37.001861], [-121.534656, 37.00192], [-121.534592, 37.002112], [-121.534592, 37.002336], [-121.53456, 37.002592], [-121.534557, 37.002604], [-121.534552, 37.002623], [-121.534528, 37.00272], [-121.534848, 37.002816], [-121.535328, 37.002912], [-121.535904, 37.003008], [-121.536448, 37.003104], [-121.537024, 37.003168], [-121.537568, 37.003168], [-121.53792, 37.003168], [-121.537928, 37.003198], [-121.537952, 37.003296], [-121.53791, 37.003328], [-121.537824, 37.003392], [-121.537827, 37.003397], [-121.537984, 37.003712], [-121.538272, 37.004064], [-121.53904, 37.004576], [-121.539424, 37.004832], [-121.53968, 37.005056], [-121.539936, 37.005312], [-121.540128, 37.005536], [-121.54032, 37.005728], [-121.541056, 37.006176], [-121.541504, 37.006464], [-121.541824, 37.006784], [-121.542528, 37.006976], [-121.543392, 37.007232], [-121.543936, 37.007392], [-121.545984, 37.007968], [-121.546848, 37.008192], [-121.548192, 37.008576], [-121.551936, 37.009664], [-121.552288, 37.009664], [-121.552448, 37.009664], [-121.552576, 37.009696], [-121.55264, 37.009696], [-121.552832, 37.009696], [-121.553024, 37.009664], [-121.553042, 37.009687], [-121.554432, 37.011488], [-121.55488, 37.011264], [-121.555106, 37.011151], [-121.555136, 37.011136], [-121.555232, 37.011072], [-121.555488, 37.010944], [-121.555499, 37.010956], [-121.555791, 37.010812], [-121.55602, 37.0107], [-121.55626, 37.01057], [-121.55652, 37.01045], [-121.556688, 37.010384], [-121.55675, 37.01036], [-121.55714, 37.01024], [-121.55782, 37.01011], [-121.55817, 37.01005], [-121.558864, 37.009966], [-121.559, 37.00995], [-121.55939, 37.00987], [-121.55959, 37.00982], [-121.559696, 37.009789], [-121.55997, 37.00971], [-121.560089, 37.009931], [-121.56026, 37.01025], [-121.56099, 37.01164], [-121.56127, 37.012149], [-121.56166, 37.01286], [-121.56222, 37.01386], [-121.5625, 37.01439], [-121.56292, 37.01512], [-121.563428, 37.01611], [-121.563839, 37.015932], [-121.56426, 37.01579], [-121.564509, 37.015676], [-121.56472, 37.01558], [-121.565259, 37.01534], [-121.56551, 37.01523], [-121.56593, 37.01503], [-121.565981, 37.015007], [-121.567412, 37.014379], [-121.56789, 37.01417], [-121.568385, 37.013937], [-121.56919, 37.01356], [-121.569873, 37.013245], [-121.56993, 37.01322], [-121.570375, 37.013026], [-121.570395, 37.013016], [-121.570459, 37.012989], [-121.57048, 37.01298], [-121.57066, 37.01289], [-121.571183, 37.012675], [-121.57127, 37.01264], [-121.57079, 37.0116], [-121.5701, 37.01002], [-121.56993, 37.00965], [-121.56985, 37.009672], [-121.569279, 37.009835], [-121.56909, 37.00989], [-121.569008, 37.009913], [-121.568761, 37.009985], [-121.56868, 37.01001], [-121.568539, 37.0097], [-121.56812, 37.00877], [-121.56798, 37.00846], [-121.567865, 37.008203], [-121.56769, 37.00781], [-121.567517, 37.007435], [-121.5674, 37.00718], [-121.567269, 37.006898], [-121.56694, 37.00619], [-121.566864, 37.006059], [-121.56671, 37.00579], [-121.56675, 37.00576], [-121.566853, 37.005693], [-121.56689, 37.00567], [-121.56659, 37.00514], [-121.566512, 37.004979], [-121.56631, 37.00456], [-121.5658, 37.0034], [-121.565604, 37.002804], [-121.56555, 37.00264], [-121.565383, 37.00205], [-121.56534, 37.0019], [-121.565278, 37.001739], [-121.56505, 37.00114], [-121.564894, 37.000834], [-121.5648, 37.00065], [-121.56492, 37.00062], [-121.5657, 37.00039], [-121.56582, 37.00035], [-121.56578, 37.00026], [-121.56691, 36.99998], [-121.566958, 36.999967], [-121.567104, 36.999926], [-121.567867, 36.999702], [-121.56817, 36.99962], [-121.56896, 36.99939], [-121.56935, 36.99927], [-121.5694, 36.99925], [-121.569477, 36.999227], [-121.569711, 36.999162], [-121.56979, 36.99914], [-121.569905, 36.999105], [-121.56996, 36.99909], [-121.57019, 36.99902], [-121.570253, 36.999002], [-121.57037, 36.99897], [-121.570407, 36.998958], [-121.570522, 36.998922], [-121.57056, 36.99891], [-121.570724, 36.998864], [-121.571216, 36.998726], [-121.57138, 36.99868], [-121.57154, 36.99863], [-121.571627, 36.998604], [-121.572371, 36.998391], [-121.57262, 36.99832], [-121.57261, 36.99828], [-121.572567, 36.998178], [-121.57243, 36.99785], [-121.572394, 36.99776], [-121.57234, 36.99762], [-121.57228, 36.997485], [-121.5721, 36.997083], [-121.57204, 36.99695], [-121.571963, 36.996798], [-121.571735, 36.996342], [-121.57166, 36.99619], [-121.57164, 36.99605], [-121.57164, 36.99602], [-121.57165, 36.996], [-121.57168, 36.99596], [-121.57174, 36.99595], [-121.571796, 36.995948], [-121.5721, 36.99594], [-121.57251, 36.99595], [-121.57269, 36.99595], [-121.57284, 36.99592], [-121.572873, 36.99591], [-121.57322, 36.99581], [-121.57318, 36.99572], [-121.573146, 36.995651], [-121.57294, 36.99523], [-121.572918, 36.99518], [-121.57285, 36.99502], [-121.57278, 36.99488], [-121.572764, 36.994856], [-121.57262, 36.99463], [-121.57251, 36.99453], [-121.572401, 36.994446], [-121.5723, 36.9944], [-121.57223, 36.99438], [-121.57211, 36.99434], [-121.572077, 36.994332], [-121.57184, 36.99428], [-121.57167, 36.99427], [-121.571606, 36.994258], [-121.57145, 36.99423], [-121.571372, 36.994215], [-121.57123, 36.99419], [-121.571143, 36.994157], [-121.57107, 36.99413], [-121.57089, 36.99405], [-121.570877, 36.99404], [-121.57075, 36.99394], [-121.57059, 36.99375], [-121.57052, 36.9936], [-121.570507, 36.99354], [-121.57049, 36.99346], [-121.57048, 36.99333], [-121.57048, 36.993189], [-121.57048, 36.99287], [-121.570488, 36.992769], [-121.5705, 36.99263], [-121.570501, 36.992507], [-121.570507, 36.992141], [-121.57051, 36.99202], [-121.570893, 36.992004], [-121.57126, 36.99199], [-121.57143, 36.99198], [-121.5716, 36.99195], [-121.57169, 36.99194], [-121.571712, 36.991936], [-121.571616, 36.991936], [-121.571456, 36.991968], [-121.571264, 36.991968], [-121.570912, 36.992], [-121.570528, 36.992], [-121.570336, 36.992], [-121.570208, 36.991936], [-121.570016, 36.991808], [-121.56976, 36.991616], [-121.569536, 36.991424], [-121.569408, 36.991232], [-121.569248, 36.99104], [-121.56916, 36.990909], [-121.569099, 36.990864], [-121.56907, 36.990836], [-121.569004, 36.990788], [-121.568911, 36.990711], [-121.568749, 36.990492], [-121.568713, 36.990433], [-121.568698, 36.990399], [-121.568658, 36.990336], [-121.568624, 36.99027], [-121.568514, 36.99], [-121.568487, 36.989971], [-121.568452, 36.989869], [-121.568435, 36.989836], [-121.568369, 36.989667], [-121.568358, 36.989642], [-121.564666, 36.989599], [-121.561999, 36.99029], [-121.561994, 36.990291], [-121.561472, 36.990432], [-121.561469, 36.990427], [-121.561446, 36.990433], [-121.5614, 36.99032], [-121.56134, 36.99017], [-121.561133, 36.989674], [-121.56094, 36.98921], [-121.560968, 36.989204], [-121.56096, 36.989184], [-121.561152, 36.989152], [-121.561176, 36.98914], [-121.5612, 36.98912], [-121.56123, 36.98906], [-121.56125, 36.98896], [-121.56124, 36.98886], [-121.56114, 36.98866], [-121.561065, 36.988565], [-121.56088, 36.98833], [-121.56057, 36.98791], [-121.56034, 36.98758], [-121.56024, 36.98745], [-121.56015, 36.98725], [-121.56, 36.98684], [-121.559749, 36.986246], [-121.5597, 36.98613], [-121.5596, 36.98588], [-121.55951, 36.98565], [-121.55943, 36.98541], [-121.55936, 36.98514], [-121.55931, 36.9848], [-121.559296, 36.984683], [-121.55923, 36.9841], [-121.55914, 36.98354], [-121.55905, 36.98305], [-121.55891, 36.98259], [-121.558878, 36.982509], [-121.55861, 36.98182], [-121.558461, 36.981862], [-121.558457, 36.981863], [-121.5584, 36.981888], [-121.558397, 36.981881], [-121.558371, 36.981888], [-121.558283, 36.981658], [-121.55822, 36.98149], [-121.55797, 36.98095], [-121.55756, 36.9802], [-121.5565, 36.97802], [-121.556327, 36.97766], [-121.55612, 36.97723], [-121.555833, 36.976572], [-121.55581, 36.97652], [-121.555751, 36.976364], [-121.555728, 36.976304], [-121.555722, 36.976288]]]]}}, {"type": "Feature", "properties": {"ID": 6, "AREA": 1.31646, "DISTRICT": "5", "MEMBERS": 1, "LOCKED": "", "NAME": "", "PPA_POPULA": 10543, "IDEAL_VALU": 9949, "DEVIATION": 594, "F_DEVIATIO": 0.059704, "DISTRICT_L": "5|5.97%"}, "geometry": {"type": "MultiPolygon", "coordinates": [[[[-121.572393, 36.991733], [-121.57223, 36.9918], [-121.57203, 36.991855], [-121.5718, 36.99192], [-121.571712, 36.991936], [-121.57169, 36.99194], [-121.5716, 36.99195], [-121.57143, 36.99198], [-121.57126, 36.99199], [-121.570893, 36.992004], [-121.57051, 36.99202], [-121.570507, 36.992141], [-121.570501, 36.992507], [-121.5705, 36.99263], [-121.570488, 36.992769], [-121.57048, 36.99287], [-121.57048, 36.993189], [-121.57048, 36.99333], [-121.57049, 36.99346], [-121.570507, 36.99354], [-121.57052, 36.9936], [-121.57059, 36.99375], [-121.57075, 36.99394], [-121.570877, 36.99404], [-121.57089, 36.99405], [-121.57107, 36.99413], [-121.571143, 36.994157], [-121.57123, 36.99419], [-121.571372, 36.994215], [-121.57145, 36.99423], [-121.571606, 36.994258], [-121.57167, 36.99427], [-121.57184, 36.99428], [-121.572077, 36.994332], [-121.57211, 36.99434], [-121.57223, 36.99438], [-121.5723, 36.9944], [-121.572401, 36.994446], [-121.57251, 36.99453], [-121.57262, 36.99463], [-121.572764, 36.994856], [-121.57278, 36.99488], [-121.57285, 36.99502], [-121.572918, 36.99518], [-121.57294, 36.99523], [-121.573146, 36.995651], [-121.57318, 36.99572], [-121.57322, 36.99581], [-121.572873, 36.99591], [-121.57284, 36.99592], [-121.57269, 36.99595], [-121.57251, 36.99595], [-121.5721, 36.99594], [-121.571796, 36.995948], [-121.57174, 36.99595], [-121.57168, 36.99596], [-121.57165, 36.996], [-121.57164, 36.99602], [-121.57164, 36.99605], [-121.57166, 36.99619], [-121.571735, 36.996342], [-121.571963, 36.996798], [-121.57204, 36.99695], [-121.5721, 36.997083], [-121.57228, 36.997485], [-121.57234, 36.99762], [-121.572394, 36.99776], [-121.57243, 36.99785], [-121.572567, 36.998178], [-121.57261, 36.99828], [-121.57262, 36.99832], [-121.572371, 36.998391], [-121.571627, 36.998604], [-121.57154, 36.99863], [-121.57138, 36.99868], [-121.571216, 36.998726], [-121.570724, 36.998864], [-121.57056, 36.99891], [-121.570522, 36.998922], [-121.570407, 36.998958], [-121.57037, 36.99897], [-121.570253, 36.999002], [-121.57019, 36.99902], [-121.56996, 36.99909], [-121.569905, 36.999105], [-121.56979, 36.99914], [-121.569711, 36.999162], [-121.569477, 36.999227], [-121.5694, 36.99925], [-121.56935, 36.99927], [-121.56896, 36.99939], [-121.56817, 36.99962], [-121.567867, 36.999702], [-121.567104, 36.999926], [-121.566958, 36.999967], [-121.56691, 36.99998], [-121.56578, 37.00026], [-121.56582, 37.00035], [-121.5657, 37.00039], [-121.56492, 37.00062], [-121.5648, 37.00065], [-121.564894, 37.000834], [-121.56505, 37.00114], [-121.565278, 37.001739], [-121.56534, 37.0019], [-121.565383, 37.00205], [-121.56555, 37.00264], [-121.565604, 37.002804], [-121.5658, 37.0034], [-121.56631, 37.00456], [-121.566512, 37.004979], [-121.56659, 37.00514], [-121.56689, 37.00567], [-121.566853, 37.005693], [-121.56675, 37.00576], [-121.56671, 37.00579], [-121.566864, 37.006059], [-121.56694, 37.00619], [-121.567269, 37.006898], [-121.5674, 37.00718], [-121.567517, 37.007435], [-121.56769, 37.00781], [-121.567865, 37.008203], [-121.56798, 37.00846], [-121.56812, 37.00877], [-121.568539, 37.0097], [-121.56868, 37.01001], [-121.568761, 37.009985], [-121.569008, 37.009913], [-121.56909, 37.00989], [-121.569279, 37.009835], [-121.56985, 37.009672], [-121.56993, 37.00965], [-121.5701, 37.01002], [-121.57079, 37.0116], [-121.57127, 37.01264], [-121.57136, 37.0126], [-121.571414, 37.012704], [-121.571576, 37.013016], [-121.57163, 37.01312], [-121.571784, 37.013422], [-121.5721, 37.01404], [-121.572251, 37.014329], [-121.57241, 37.01463], [-121.572627, 37.014562], [-121.57315, 37.0144], [-121.57328, 37.014362], [-121.5735, 37.0143], [-121.574683, 37.01398], [-121.575295, 37.013792], [-121.575914, 37.013612], [-121.57712, 37.01331], [-121.577345, 37.013281], [-121.57742, 37.013288], [-121.577625, 37.013306], [-121.577976, 37.013361], [-121.578317, 37.013406], [-121.578597, 37.013426], [-121.578861, 37.013415], [-121.579775, 37.013425], [-121.580281, 37.01343], [-121.580302, 37.01343], [-121.581193, 37.01345], [-121.58167, 37.01344], [-121.584256, 37.013479], [-121.586239, 37.013495], [-121.586674, 37.013505], [-121.58667, 37.01345], [-121.586656, 37.013178], [-121.58665, 37.01305], [-121.586634, 37.012821], [-121.58662, 37.01262], [-121.58663, 37.01239], [-121.58667, 37.01224], [-121.58676, 37.01198], [-121.58691, 37.01161], [-121.58702, 37.0112], [-121.587037, 37.010998], [-121.58707, 37.01063], [-121.58708, 37.01037], [-121.587084, 37.010224], [-121.587096, 37.009786], [-121.5871, 37.00964], [-121.5871, 37.00944], [-121.587097, 37.009331], [-121.58709, 37.009], [-121.58704, 37.00867], [-121.586972, 37.00842], [-121.58694, 37.0083], [-121.58687, 37.00813], [-121.58675, 37.0078], [-121.586735, 37.007749], [-121.58659, 37.00723], [-121.58652, 37.00681], [-121.586508, 37.006563], [-121.58649, 37.00616], [-121.586487, 37.006013], [-121.58648, 37.00561], [-121.586481, 37.005575], [-121.58649, 37.00543], [-121.58649, 37.005254], [-121.58649, 37.004726], [-121.58649, 37.00455], [-121.586496, 37.004393], [-121.586516, 37.003925], [-121.58652, 37.00383], [-121.58653, 37.00377], [-121.586543, 37.003621], [-121.58655, 37.00355], [-121.5866, 37.00331], [-121.586646, 37.003188], [-121.5867, 37.00305], [-121.586762, 37.002909], [-121.58686, 37.00269], [-121.586971, 37.002501], [-121.58705, 37.00237], [-121.587126, 37.002239], [-121.58719, 37.00213], [-121.587388, 37.00187], [-121.58748, 37.00175], [-121.587532, 37.001682], [-121.587688, 37.001478], [-121.58774, 37.00141], [-121.587802, 37.001341], [-121.58794, 37.00119], [-121.587978, 37.001126], [-121.588, 37.00109], [-121.58801, 37.00104], [-121.588, 37.00101], [-121.58797, 37.00097], [-121.58787, 37.00089], [-121.587531, 37.000748], [-121.585936, 37.000079], [-121.58577, 37.00001], [-121.58566, 36.99997], [-121.585412, 36.999842], [-121.58533, 36.9998], [-121.58493, 36.99963], [-121.58458, 36.99941], [-121.58467, 36.99929], [-121.584788, 36.999129], [-121.58484, 36.99906], [-121.585151, 36.998651], [-121.585273, 36.998493], [-121.585145, 36.998395], [-121.58512, 36.998395], [-121.585052, 36.998353], [-121.584933, 36.998331], [-121.584831, 36.998282], [-121.584736, 36.998268], [-121.584699, 36.998273], [-121.584683, 36.998307], [-121.584661, 36.99834], [-121.584596, 36.998389], [-121.58456, 36.998403], [-121.584474, 36.99838], [-121.584392, 36.998346], [-121.584325, 36.998301], [-121.584268, 36.998245], [-121.584248, 36.998213], [-121.584197, 36.998154], [-121.584181, 36.998049], [-121.584184, 36.998014], [-121.584127, 36.997943], [-121.584076, 36.997915], [-121.583759, 36.997697], [-121.583654, 36.997634], [-121.583497, 36.997529], [-121.583257, 36.997354], [-121.583206, 36.997312], [-121.58319, 36.997277], [-121.583106, 36.99719], [-121.583081, 36.997138], [-121.583031, 36.997076], [-121.583023, 36.997055], [-121.582981, 36.997006], [-121.58293, 36.996964], [-121.582898, 36.996854], [-121.582831, 36.996784], [-121.582823, 36.996736], [-121.582798, 36.996708], [-121.582799, 36.996687], [-121.582773, 36.996666], [-121.582749, 36.996597], [-121.582733, 36.996521], [-121.582684, 36.996431], [-121.582658, 36.996403], [-121.582585, 36.996237], [-121.58257, 36.996113], [-121.582568, 36.996005], [-121.582559, 36.995935], [-121.582549, 36.9959], [-121.582519, 36.995833], [-121.582479, 36.995695], [-121.582422, 36.995534], [-121.582407, 36.99549], [-121.582366, 36.995388], [-121.582327, 36.995324], [-121.582259, 36.995232], [-121.58224, 36.9952], [-121.582207, 36.995175], [-121.582131, 36.995137], [-121.582058, 36.995115], [-121.581859, 36.994981], [-121.581788, 36.994943], [-121.581728, 36.994911], [-121.581683, 36.994905], [-121.581643, 36.994894], [-121.581576, 36.994851], [-121.581425, 36.994776], [-121.580733, 36.994381], [-121.580593, 36.994291], [-121.580577, 36.994282], [-121.580483, 36.994229], [-121.580291, 36.994136], [-121.58021, 36.994105], [-121.579979, 36.993993], [-121.579868, 36.993933], [-121.579746, 36.993886], [-121.579399, 36.993709], [-121.579218, 36.993617], [-121.579145, 36.993575], [-121.579065, 36.993542], [-121.578894, 36.993426], [-121.578857, 36.993406], [-121.578351, 36.993175], [-121.57827, 36.993145], [-121.578234, 36.993123], [-121.578195, 36.993106], [-121.578107, 36.993092], [-121.57807, 36.993071], [-121.577709, 36.992927], [-121.577631, 36.992891], [-121.577548, 36.992862], [-121.577227, 36.992734], [-121.577034, 36.992641], [-121.576892, 36.992553], [-121.576756, 36.992459], [-121.576631, 36.992357], [-121.575729, 36.99167], [-121.575596, 36.991575], [-121.575559, 36.991555], [-121.575391, 36.991508], [-121.575297, 36.991495], [-121.575125, 36.991484], [-121.574949, 36.991494], [-121.574863, 36.991507], [-121.57478, 36.991534], [-121.574745, 36.991556], [-121.574627, 36.991605], [-121.574583, 36.991614], [-121.57418, 36.991763], [-121.574054, 36.991801], [-121.573972, 36.99183], [-121.573935, 36.991849], [-121.573861, 36.991871], [-121.573766, 36.991899], [-121.573726, 36.991915], [-121.573691, 36.991937], [-121.573573, 36.991986], [-121.573559, 36.991989], [-121.573487, 36.992005], [-121.573444, 36.992011], [-121.573397, 36.992009], [-121.573286, 36.992035], [-121.57326, 36.992056], [-121.573163, 36.992077], [-121.5729, 36.992058], [-121.572849, 36.992058], [-121.572764, 36.992022], [-121.572679, 36.992001], [-121.572623, 36.991957], [-121.572477, 36.99184], [-121.57246, 36.991805], [-121.572418, 36.991756], [-121.572393, 36.991733]]], [[[-121.590504, 37.0323], [-121.590502, 37.032914], [-121.590617, 37.033745], [-121.590722, 37.034499], [-121.590752, 37.034496], [-121.590624, 37.033728], [-121.590528, 37.032896], [-121.590528, 37.0323], [-121.590504, 37.0323]]], [[[-121.586753, 37.02781], [-121.586752, 37.027808], [-121.58672, 37.027616], [-121.58672, 37.027552], [-121.586688, 37.027488], [-121.586688, 37.027456], [-121.586688, 37.027296], [-121.58671, 37.027229], [-121.58669, 37.02723], [-121.586687, 37.0273], [-121.58668, 37.02748], [-121.586683, 37.02751], [-121.58669, 37.02758], [-121.58669, 37.02764], [-121.58673, 37.02781], [-121.586753, 37.02781]]], [[[-121.597769, 37.031293], [-121.59776, 37.03136], [-121.597747, 37.031487], [-121.59776, 37.03138], [-121.597769, 37.031293]]], [[[-121.587456, 37.03472], [-121.587437, 37.034722], [-121.587438, 37.034723], [-121.587456, 37.03472]]]]}}, {"type": "Feature", "properties": {"ID": 7, "AREA": 2.21562, "DISTRICT": "6", "MEMBERS": 1, "LOCKED": "", "NAME": "", "PPA_POPULA": 9669, "IDEAL_VALU": 9949, "DEVIATION": -280, "F_DEVIATIO": -0.028144, "DISTRICT_L": "6|-2.81%"}, "geometry": {"type": "MultiPolygon", "coordinates": [[[[-121.58748, 37.02973], [-121.58731, 37.029303], [-121.58717, 37.02895], [-121.587038, 37.028606], [-121.58681, 37.02801], [-121.58679, 37.02797], [-121.58673, 37.02781], [-121.58669, 37.02764], [-121.58669, 37.02758], [-121.586683, 37.02751], [-121.58668, 37.02748], [-121.586687, 37.0273], [-121.58669, 37.02723], [-121.58669, 37.026941], [-121.58669, 37.02688], [-121.586675, 37.026077], [-121.58667, 37.02579], [-121.58667, 37.025645], [-121.58667, 37.02537], [-121.586659, 37.025213], [-121.58665, 37.02507], [-121.58664, 37.024908], [-121.58661, 37.024422], [-121.5866, 37.02426], [-121.5866, 37.02419], [-121.586594, 37.024102], [-121.586584, 37.02395], [-121.58658, 37.02388], [-121.586573, 37.023628], [-121.58657, 37.02347], [-121.58657, 37.02339], [-121.586568, 37.023301], [-121.586562, 37.022797], [-121.58656, 37.02263], [-121.58656, 37.022492], [-121.58656, 37.022078], [-121.58656, 37.02194], [-121.58656, 37.02181], [-121.58656, 37.021797], [-121.58656, 37.02162], [-121.58656, 37.02145], [-121.586563, 37.021371], [-121.58657, 37.02123], [-121.58617, 37.021054], [-121.58497, 37.020526], [-121.58457, 37.02035], [-121.584528, 37.020212], [-121.584402, 37.019798], [-121.58436, 37.01966], [-121.584216, 37.019189], [-121.58389, 37.01812], [-121.58377, 37.0179], [-121.583713, 37.01781], [-121.58355, 37.01755], [-121.58346, 37.01739], [-121.58352, 37.01737], [-121.583452, 37.017227], [-121.58335, 37.01701], [-121.583248, 37.016801], [-121.58318, 37.01666], [-121.5831, 37.01651], [-121.583, 37.01629], [-121.582893, 37.016083], [-121.58282, 37.01594], [-121.582748, 37.015792], [-121.58264, 37.01557], [-121.582526, 37.015354], [-121.58245, 37.01521], [-121.582367, 37.015054], [-121.582122, 37.014586], [-121.58204, 37.01443], [-121.58195, 37.01425], [-121.58182, 37.01402], [-121.58169, 37.01374], [-121.581685, 37.013709], [-121.58167, 37.0136], [-121.58167, 37.01351], [-121.58044, 37.01349], [-121.58028, 37.01349], [-121.580281, 37.01343], [-121.579775, 37.013425], [-121.578861, 37.013415], [-121.578597, 37.013426], [-121.578317, 37.013406], [-121.577976, 37.013361], [-121.577625, 37.013306], [-121.57742, 37.013288], [-121.577345, 37.013281], [-121.57712, 37.01331], [-121.575914, 37.013612], [-121.575295, 37.013792], [-121.574683, 37.01398], [-121.5735, 37.0143], [-121.57328, 37.014362], [-121.57315, 37.0144], [-121.572627, 37.014562], [-121.57241, 37.01463], [-121.572251, 37.014329], [-121.5721, 37.01404], [-121.571784, 37.013422], [-121.57163, 37.01312], [-121.571576, 37.013016], [-121.571414, 37.012704], [-121.57136, 37.0126], [-121.57127, 37.01264], [-121.571183, 37.012675], [-121.57066, 37.01289], [-121.57048, 37.01298], [-121.570459, 37.012989], [-121.570395, 37.013016], [-121.570375, 37.013026], [-121.56993, 37.01322], [-121.569873, 37.013245], [-121.56919, 37.01356], [-121.568385, 37.013937], [-121.56789, 37.01417], [-121.567412, 37.014379], [-121.565981, 37.015007], [-121.56593, 37.01503], [-121.56551, 37.01523], [-121.565259, 37.01534], [-121.56472, 37.01558], [-121.564509, 37.015676], [-121.56426, 37.01579], [-121.563839, 37.015932], [-121.563428, 37.01611], [-121.56292, 37.01512], [-121.5625, 37.01439], [-121.56222, 37.01386], [-121.56166, 37.01286], [-121.56127, 37.012149], [-121.56099, 37.01164], [-121.56026, 37.01025], [-121.560089, 37.009931], [-121.55997, 37.00971], [-121.559696, 37.009789], [-121.55959, 37.00982], [-121.55939, 37.00987], [-121.559, 37.00995], [-121.558864, 37.009966], [-121.55817, 37.01005], [-121.55782, 37.01011], [-121.55714, 37.01024], [-121.55675, 37.01036], [-121.556688, 37.010384], [-121.55652, 37.01045], [-121.55626, 37.01057], [-121.55602, 37.0107], [-121.555791, 37.010812], [-121.555499, 37.010956], [-121.555776, 37.011264], [-121.55629, 37.011052], [-121.55632, 37.01104], [-121.556672, 37.01152], [-121.556832, 37.011712], [-121.556901, 37.011833], [-121.557472, 37.012832], [-121.557445, 37.012846], [-121.55456, 37.014304], [-121.554569, 37.014313], [-121.5552, 37.014912], [-121.559653, 37.020801], [-121.559791, 37.020983], [-121.560133, 37.021435], [-121.562048, 37.023968], [-121.562028, 37.023976], [-121.55904, 37.025152], [-121.558208, 37.025472], [-121.557184, 37.025856], [-121.55424, 37.026944], [-121.554245, 37.026955], [-121.554336, 37.027136], [-121.554338, 37.02714], [-121.555872, 37.02976], [-121.558035, 37.02897], [-121.559552, 37.028416], [-121.558313, 37.026255], [-121.558304, 37.02624], [-121.561836, 37.024899], [-121.562303, 37.024722], [-121.562673, 37.024582], [-121.562688, 37.024576], [-121.564064, 37.026912], [-121.565984, 37.030144], [-121.56837, 37.029268], [-121.568417, 37.029251], [-121.568488, 37.029225], [-121.568512, 37.029216], [-121.568864, 37.029792], [-121.569248, 37.030464], [-121.569632, 37.031104], [-121.569664, 37.031168], [-121.569641, 37.031177], [-121.568672, 37.031552], [-121.567136, 37.032128], [-121.567144, 37.032141], [-121.568064, 37.033696], [-121.568068, 37.033703], [-121.57088, 37.038464], [-121.570885, 37.038472], [-121.57136, 37.039264], [-121.572221, 37.039001], [-121.572512, 37.038912], [-121.57248, 37.038848], [-121.572352, 37.038624], [-121.57216, 37.038272], [-121.57204, 37.038093], [-121.572032, 37.03808], [-121.572064, 37.03808], [-121.572192, 37.038016], [-121.572256, 37.038016], [-121.572384, 37.037952], [-121.57264, 37.037888], [-121.573472, 37.0376], [-121.573888, 37.037472], [-121.574271, 37.037354], [-121.574304, 37.037344], [-121.57431, 37.037355], [-121.574688, 37.03808], [-121.574848, 37.038432], [-121.57568, 37.040032], [-121.575712, 37.040128], [-121.575808, 37.040288], [-121.576032, 37.040864], [-121.576128, 37.041056], [-121.576256, 37.041344], [-121.576288, 37.041408], [-121.576352, 37.041664], [-121.576576, 37.041952], [-121.57728, 37.04352], [-121.577376, 37.043808], [-121.577408, 37.043776], [-121.577554, 37.043747], [-121.577568, 37.043744], [-121.577936, 37.043652], [-121.577952, 37.043648], [-121.57808, 37.043616], [-121.578094, 37.043602], [-121.578112, 37.043584], [-121.577728, 37.042752], [-121.5776, 37.042432], [-121.577248, 37.041536], [-121.577408, 37.04128], [-121.577504, 37.04112], [-121.5776, 37.04096], [-121.57792, 37.04048], [-121.57776, 37.040128], [-121.577568, 37.03968], [-121.577472, 37.039712], [-121.576928, 37.038592], [-121.576512, 37.037824], [-121.57604, 37.036785], [-121.576032, 37.036768], [-121.575968, 37.036704], [-121.575456, 37.035712], [-121.574784, 37.0344], [-121.574731, 37.034294], [-121.57472, 37.034272], [-121.575714, 37.03393], [-121.575744, 37.03392], [-121.5768, 37.033536], [-121.577279, 37.034462], [-121.57728, 37.034464], [-121.578108, 37.034175], [-121.581478, 37.033001], [-121.581504, 37.032992], [-121.581664, 37.033312], [-121.581664, 37.033344], [-121.582144, 37.03424], [-121.582208, 37.034336], [-121.5824, 37.034688], [-121.583072, 37.036064], [-121.583744, 37.037376], [-121.584544, 37.038912], [-121.585184, 37.04016], [-121.58528, 37.040416], [-121.585888, 37.041535], [-121.585888, 37.041536], [-121.58608, 37.041888], [-121.586656, 37.043008], [-121.586848, 37.043392], [-121.587328, 37.044352], [-121.588832, 37.047264], [-121.588864, 37.047296], [-121.588873, 37.047316], [-121.589312, 37.048224], [-121.589376, 37.048192], [-121.589536, 37.048128], [-121.58955, 37.048128], [-121.589568, 37.048128], [-121.589608, 37.048108], [-121.589607, 37.048105], [-121.589619, 37.048102], [-121.589632, 37.048096], [-121.590496, 37.047904], [-121.593216, 37.047328], [-121.594016, 37.047168], [-121.595264, 37.046912], [-121.596947, 37.046563], [-121.59696, 37.04656], [-121.596864, 37.046336], [-121.596448, 37.045568], [-121.59616, 37.044992], [-121.595328, 37.045152], [-121.5944, 37.045344], [-121.594149, 37.045407], [-121.594144, 37.045408], [-121.591456, 37.045984], [-121.58992, 37.046304], [-121.588832, 37.046528], [-121.588448, 37.045824], [-121.58736, 37.04368], [-121.587232, 37.043392], [-121.5872, 37.043328], [-121.586784, 37.04256], [-121.586688, 37.042368], [-121.586336, 37.041696], [-121.58624, 37.041472], [-121.586215, 37.041421], [-121.586208, 37.041408], [-121.586688, 37.041312], [-121.586975, 37.041252], [-121.587456, 37.041152], [-121.587783, 37.041077], [-121.588899, 37.040819], [-121.589085, 37.040776], [-121.58912, 37.040768], [-121.588192, 37.038944], [-121.588064, 37.038688], [-121.587808, 37.038176], [-121.587554, 37.037573], [-121.587552, 37.037568], [-121.586944, 37.037696], [-121.585537, 37.038006], [-121.585344, 37.038048], [-121.58533, 37.03805], [-121.585325, 37.038051], [-121.585322, 37.038052], [-121.585152, 37.03808], [-121.584576, 37.038208], [-121.584448, 37.037952], [-121.58432, 37.03776], [-121.584032, 37.037152], [-121.583744, 37.03664], [-121.583648, 37.036416], [-121.583424, 37.035968], [-121.583296, 37.035712], [-121.583104, 37.03536], [-121.586528, 37.034848], [-121.587438, 37.034723], [-121.587437, 37.034722], [-121.587456, 37.03472], [-121.58747, 37.034718], [-121.588928, 37.034528], [-121.588928, 37.034656], [-121.589449, 37.034625], [-121.589472, 37.034624], [-121.590722, 37.034499], [-121.590617, 37.033745], [-121.590502, 37.032914], [-121.590504, 37.0323], [-121.590335, 37.0323], [-121.590065, 37.0323], [-121.589092, 37.0323], [-121.58872, 37.0323], [-121.588678, 37.032297], [-121.5886, 37.03229], [-121.58853, 37.03227], [-121.58849, 37.03224], [-121.588471, 37.032192], [-121.588348, 37.031886], [-121.58793, 37.03084], [-121.58781, 37.03052], [-121.587707, 37.030281], [-121.587701, 37.030267], [-121.58755, 37.02992], [-121.58748, 37.02973]]], [[[-121.59161, 37.025568], [-121.590304, 37.025568], [-121.590305, 37.025599], [-121.59161, 37.025591], [-121.59161, 37.025568]]], [[[-121.587509, 37.0272], [-121.58752, 37.0272], [-121.587456, 37.0248], [-121.587783, 37.024792], [-121.587425, 37.0248], [-121.587509, 37.0272]]]]}}]}