{"type": "FeatureCollection", "features": [{"type": "Feature", "properties": {"TRUSTEE_AREA": 1}, "geometry": {"type": "Polygon", "coordinates": [[[-122.11344, 37.40127], [-122.11288, 37.40095], [-122.11212, 37.40054], [-122.11139, 37.40016], [-122.11116, 37.40004], [-122.11037, 37.39961], [-122.10991, 37.39938], [-122.10948, 37.39917], [-122.10853, 37.39875], [-122.10818, 37.3986], [-122.10733, 37.39823], [-122.10718, 37.39817], [-122.10628, 37.39777], [-122.10587, 37.39758], [-122.10584, 37.39757], [-122.10515, 37.39726], [-122.10489, 37.39714], [-122.10469, 37.39705], [-122.10405, 37.39678], [-122.10316, 37.3964], [-122.10301, 37.39633], [-122.10249, 37.3961], [-122.1023, 37.39602], [-122.10188, 37.39583], [-122.10155, 37.39568], [-122.101163, 37.395509], [-122.101013, 37.395442], [-122.09987, 37.39494], [-122.09978, 37.39489], [-122.09946, 37.39476], [-122.09904, 37.39457], [-122.09817, 37.3942], [-122.09809, 37.39416], [-122.09789, 37.39409], [-122.09765, 37.39398], [-122.0973, 37.3938], [-122.0968, 37.39349], [-122.09659, 37.39334], [-122.09645, 37.39322], [-122.09643, 37.39321], [-122.096323, 37.393119], [-122.096249, 37.393243], [-122.09618, 37.39336], [-122.096065, 37.393542], [-122.09593, 37.39376], [-122.09573, 37.394094], [-122.09562, 37.39428], [-122.095511, 37.394457], [-122.0954, 37.39464], [-122.095178, 37.394983], [-122.09511, 37.39509], [-122.09507, 37.39516], [-122.095, 37.395267], [-122.09498, 37.3953], [-122.094797, 37.395591], [-122.09473, 37.3957], [-122.094604, 37.395895], [-122.09457, 37.39595], [-122.09424, 37.396491], [-122.09412, 37.39669], [-122.094043, 37.396811], [-122.093814, 37.397176], [-122.09375, 37.39728], [-122.093738, 37.397298], [-122.093542, 37.397614], [-122.0932, 37.39817], [-122.092951, 37.398558], [-122.092751, 37.398871], [-122.092744, 37.39888], [-122.092727, 37.398908], [-122.092721, 37.398918], [-122.092694, 37.398959], [-122.09265, 37.39903], [-122.092616, 37.399084], [-122.092591, 37.399127], [-122.092584, 37.399137], [-122.092566, 37.399169], [-122.09256, 37.39918], [-122.092411, 37.399443], [-122.0922, 37.39982], [-122.091935, 37.400216], [-122.09186, 37.40033], [-122.09184, 37.40038], [-122.09183, 37.40043], [-122.09184, 37.40049], [-122.091815, 37.40053], [-122.09174, 37.400653], [-122.091716, 37.400694], [-122.091635, 37.400662], [-122.091392, 37.400566], [-122.091312, 37.400534], [-122.091303, 37.400581], [-122.091287, 37.400674], [-122.091281, 37.400724], [-122.091276, 37.400773], [-122.091272, 37.400806], [-122.091261, 37.400908], [-122.09126, 37.400921], [-122.091251, 37.40094], [-122.091043, 37.401355], [-122.091005, 37.401432], [-122.090929, 37.401663], [-122.090695, 37.402224], [-122.090499, 37.402636], [-122.090324, 37.403004], [-122.090301, 37.403056], [-122.090193, 37.403301], [-122.09016, 37.403383], [-122.090124, 37.403476], [-122.09, 37.403773], [-122.089945, 37.403845], [-122.08987, 37.40401], [-122.089815, 37.404147], [-122.08972, 37.404355], [-122.08967, 37.404466], [-122.089579, 37.404683], [-122.089494, 37.404884], [-122.089463, 37.40496], [-122.089381, 37.405108], [-122.089346, 37.405262], [-122.089243, 37.405486], [-122.089236, 37.405504], [-122.089167, 37.405691], [-122.089083, 37.405916], [-122.088996, 37.406152], [-122.088942, 37.40628], [-122.088814, 37.406586], [-122.088782, 37.406664], [-122.088724, 37.40681], [-122.088552, 37.40724], [-122.088328, 37.407802], [-122.088307, 37.407856], [-122.088195, 37.408131], [-122.088103, 37.408357], [-122.088034, 37.408529], [-122.087861, 37.408959], [-122.087799, 37.409111], [-122.087729, 37.409285], [-122.087719, 37.409306], [-122.08766, 37.409438], [-122.087599, 37.409532], [-122.087589, 37.409557], [-122.087529, 37.409711], [-122.08749, 37.4097], [-122.087409, 37.409684], [-122.08723, 37.40965], [-122.087051, 37.409609], [-122.08693, 37.4096], [-122.08663, 37.40958], [-122.086539, 37.409572], [-122.08613, 37.40954], [-122.08545, 37.40945], [-122.085376, 37.409428], [-122.08508, 37.40934], [-122.085, 37.40932], [-122.084706, 37.409238], [-122.08457, 37.4092], [-122.08423, 37.40908], [-122.08398, 37.40898], [-122.083849, 37.408922], [-122.08357, 37.4088], [-122.08335, 37.40869], [-122.083095, 37.408558], [-122.08236, 37.40818], [-122.081671, 37.407835], [-122.0816, 37.4078], [-122.08141, 37.4077], [-122.08119, 37.40761], [-122.080569, 37.407325], [-122.08034, 37.40722], [-122.0798, 37.40694], [-122.07877, 37.40644], [-122.07874, 37.40642], [-122.07858, 37.40635], [-122.07831, 37.40621], [-122.07812, 37.40612], [-122.07812, 37.40636], [-122.07812, 37.406588], [-122.07812, 37.40695], [-122.0781, 37.40783], [-122.0781, 37.407991], [-122.0781, 37.40801], [-122.0781, 37.40846], [-122.07811, 37.40879], [-122.0781, 37.40996], [-122.0781, 37.41059], [-122.078108, 37.410723], [-122.07815, 37.411394], [-122.07815, 37.41162], [-122.07816, 37.4117], [-122.07816, 37.41174], [-122.07816, 37.411765], [-122.07816, 37.41188], [-122.07803, 37.41182], [-122.07794, 37.41179], [-122.077842, 37.411744], [-122.077168, 37.411429], [-122.076884, 37.411306], [-122.076562, 37.411166], [-122.07642, 37.411112], [-122.076306, 37.411071], [-122.075995, 37.410948], [-122.075854, 37.410893], [-122.075536, 37.410769], [-122.075475, 37.410739], [-122.074576, 37.410319], [-122.074361, 37.41023], [-122.073984, 37.410074], [-122.073658, 37.409938], [-122.073587, 37.409909], [-122.072674, 37.409543], [-122.072637, 37.409529], [-122.072344, 37.409417], [-122.071468, 37.409081], [-122.070794, 37.408815], [-122.0706, 37.408738], [-122.070529, 37.40871], [-122.070017, 37.408548], [-122.06955, 37.4084], [-122.069111, 37.408255], [-122.068925, 37.408193], [-122.06849, 37.40805], [-122.068368, 37.408019], [-122.068179, 37.407972], [-122.067903, 37.407903], [-122.06725, 37.40774], [-122.067075, 37.4077], [-122.066798, 37.407639], [-122.066718, 37.407621], [-122.066479, 37.407567], [-122.0664, 37.40755], [-122.06627, 37.40752], [-122.0646, 37.40715], [-122.064336, 37.407094], [-122.063546, 37.406927], [-122.063282, 37.406873], [-122.063247, 37.406864], [-122.063141, 37.406838], [-122.063107, 37.406831], [-122.062855, 37.406762], [-122.06281, 37.40675], [-122.06248, 37.4067], [-122.062088, 37.406611], [-122.061834, 37.406554], [-122.061496, 37.406477], [-122.06067, 37.40629], [-122.060482, 37.406248], [-122.060144, 37.406175], [-122.059792, 37.406098], [-122.05948, 37.40603], [-122.058736, 37.405873], [-122.058384, 37.4058], [-122.0581, 37.40574], [-122.058018, 37.405721], [-122.056927, 37.405472], [-122.056563, 37.405389], [-122.056537, 37.405383], [-122.056459, 37.405364], [-122.056433, 37.405359], [-122.056302, 37.405329], [-122.05591, 37.405239], [-122.05578, 37.40521], [-122.05513, 37.40505], [-122.054892, 37.404984], [-122.0535, 37.4046], [-122.052245, 37.404243], [-122.05195, 37.40416], [-122.051689, 37.404094], [-122.05136, 37.40401], [-122.051331, 37.404001], [-122.05131, 37.403995], [-122.05129, 37.40399], [-122.051239, 37.40398], [-122.051214, 37.403975], [-122.05119, 37.40397], [-122.051159, 37.403962], [-122.05111, 37.40395], [-122.050885, 37.4039], [-122.05061, 37.40384], [-122.050213, 37.403749], [-122.049989, 37.403698], [-122.04978, 37.40365], [-122.04932, 37.403553], [-122.04873, 37.40343], [-122.047314, 37.403114], [-122.04725, 37.4031], [-122.047102, 37.403063], [-122.046872, 37.403006], [-122.04665, 37.40295], [-122.046626, 37.402946], [-122.046557, 37.402934], [-122.046534, 37.40293], [-122.04618, 37.40287], [-122.04543, 37.40271], [-122.044695, 37.402544], [-122.04325, 37.40222], [-122.04184, 37.40189], [-122.04002, 37.40149], [-122.039199, 37.40129], [-122.03895, 37.40123], [-122.03742, 37.40092], [-122.037361, 37.400906], [-122.037163, 37.40086], [-122.03694, 37.40081], [-122.036582, 37.400748], [-122.036392, 37.400715], [-122.036301, 37.400699], [-122.036028, 37.400653], [-122.035937, 37.400637], [-122.035811, 37.400688], [-122.03563, 37.400763], [-122.035491, 37.400811], [-122.03567, 37.40086], [-122.035758, 37.400895], [-122.03577, 37.4009], [-122.03589, 37.40097], [-122.03598, 37.40104], [-122.035999, 37.401066], [-122.03603, 37.40111], [-122.03606, 37.40118], [-122.03608, 37.40125], [-122.03608, 37.401296], [-122.03608, 37.40131], [-122.03607, 37.40137], [-122.03604, 37.40143], [-122.03599, 37.4015], [-122.0359, 37.40159], [-122.035857, 37.401887], [-122.035939, 37.402055], [-122.035537, 37.402163], [-122.035324, 37.402194], [-122.035125, 37.402209], [-122.034798, 37.402205], [-122.034759, 37.402363], [-122.034472, 37.40354], [-122.034451, 37.40364], [-122.034391, 37.403939], [-122.034372, 37.40404], [-122.034217, 37.404306], [-122.033754, 37.405103], [-122.0336, 37.40537], [-122.033595, 37.405381], [-122.033583, 37.405418], [-122.03358, 37.40543], [-122.03354, 37.4055], [-122.03344, 37.40584], [-122.033426, 37.405879], [-122.03304, 37.40701], [-122.03295, 37.407228], [-122.03277, 37.40767], [-122.0322, 37.40938], [-122.03212, 37.40965], [-122.032077, 37.409839], [-122.03202, 37.4101], [-122.03195, 37.41045], [-122.03183, 37.41076], [-122.03167, 37.411202], [-122.03151, 37.41165], [-122.031972, 37.411794], [-122.03234, 37.41191], [-122.03289, 37.41201], [-122.033392, 37.412088], [-122.03359, 37.41212], [-122.03387, 37.41217], [-122.03471, 37.41235], [-122.03532, 37.41247], [-122.035848, 37.412574], [-122.036949, 37.412793], [-122.03697, 37.41502], [-122.03698, 37.41613], [-122.03697, 37.41669], [-122.03697, 37.41682], [-122.03697, 37.41751], [-122.03698, 37.4178], [-122.03696, 37.41859], [-122.03693, 37.41883], [-122.03687, 37.41898], [-122.03703, 37.419], [-122.036924, 37.420102], [-122.03674, 37.4206], [-122.03672, 37.42067], [-122.0364, 37.42161], [-122.03588, 37.42308], [-122.0355, 37.42422], [-122.03522, 37.42502], [-122.03508, 37.42549], [-122.03492, 37.4263], [-122.03504, 37.42635], [-122.03531, 37.42645], [-122.03578, 37.42653], [-122.036105, 37.426558], [-122.037118, 37.426649], [-122.03874, 37.42678], [-122.039629, 37.426875], [-122.040418, 37.426947], [-122.041047, 37.427004], [-122.041064, 37.427005], [-122.041089, 37.427007], [-122.041075, 37.427252], [-122.041127, 37.430445], [-122.041335, 37.440952], [-122.041357, 37.442094], [-122.04384, 37.44344], [-122.045591, 37.44438], [-122.046087, 37.444642], [-122.046046, 37.446498], [-122.04598, 37.448696], [-122.045945, 37.448707], [-122.046, 37.448779], [-122.045993, 37.448894], [-122.046047, 37.45194], [-122.045885, 37.454426], [-122.046229, 37.454426], [-122.046936, 37.455295], [-122.047037, 37.457742], [-122.045905, 37.457727], [-122.045857, 37.459938], [-122.046574, 37.459526], [-122.047825, 37.459007], [-122.048185, 37.458973], [-122.04897, 37.4589], [-122.050313, 37.4589], [-122.050763, 37.458951], [-122.051244, 37.459007], [-122.051931, 37.459251], [-122.052648, 37.459656], [-122.057486, 37.462707], [-122.059673, 37.464087], [-122.060202, 37.46442], [-122.06179, 37.465422], [-122.06232, 37.465756], [-122.063508, 37.466506], [-122.067075, 37.468756], [-122.068264, 37.469506], [-122.068384, 37.469582], [-122.068747, 37.46981], [-122.068868, 37.469887], [-122.068965, 37.469948], [-122.069259, 37.470133], [-122.069357, 37.470195], [-122.07178, 37.471723], [-122.079049, 37.476309], [-122.081473, 37.477838], [-122.08453, 37.474651], [-122.093704, 37.465091], [-122.096762, 37.461905], [-122.096751, 37.459958], [-122.09546, 37.459963], [-122.093228, 37.456222], [-122.091548, 37.456253], [-122.091641, 37.455273], [-122.087964, 37.451838], [-122.087585, 37.451291], [-122.087517, 37.451194], [-122.087316, 37.450905], [-122.087249, 37.450809], [-122.087063, 37.450837], [-122.086928, 37.450857], [-122.086841, 37.450745], [-122.08632, 37.450792], [-122.086752, 37.450522], [-122.088296, 37.449563], [-122.088623, 37.449718], [-122.089678, 37.449399], [-122.090146, 37.449306], [-122.090151, 37.449318], [-122.090181, 37.449299], [-122.090643, 37.449168], [-122.091217, 37.449003], [-122.091283, 37.448984], [-122.091287, 37.448915], [-122.091237, 37.44893], [-122.090886, 37.448725], [-122.090737, 37.448577], [-122.090497, 37.448341], [-122.090457, 37.448305], [-122.09047, 37.448157], [-122.090459, 37.448096], [-122.090443, 37.448003], [-122.090374, 37.447865], [-122.090346, 37.447772], [-122.09048, 37.447601], [-122.090699, 37.447324], [-122.090725, 37.447212], [-122.091008, 37.446958], [-122.091063, 37.446933], [-122.091542, 37.446724], [-122.093108, 37.446454], [-122.093325, 37.446417], [-122.093476, 37.44629], [-122.093546, 37.446232], [-122.09413, 37.445748], [-122.094181, 37.445706], [-122.094247, 37.445652], [-122.094046, 37.445623], [-122.094191, 37.44531], [-122.094231, 37.445203], [-122.094294, 37.445035], [-122.094314, 37.444865], [-122.094287, 37.444606], [-122.094232, 37.444354], [-122.094101, 37.444189], [-122.093783, 37.443936], [-122.093391, 37.443673], [-122.092977, 37.443387], [-122.092901, 37.443299], [-122.092736, 37.443107], [-122.092591, 37.442904], [-122.092522, 37.442706], [-122.092508, 37.442409], [-122.092529, 37.442107], [-122.092625, 37.441832], [-122.092776, 37.441535], [-122.092942, 37.441233], [-122.093121, 37.441019], [-122.093376, 37.44087], [-122.093789, 37.440716], [-122.094237, 37.44065], [-122.094657, 37.44065], [-122.095056, 37.440618], [-122.095078, 37.440617], [-122.09536, 37.440579], [-122.095712, 37.440485], [-122.096008, 37.440326], [-122.096187, 37.440221], [-122.096428, 37.440012], [-122.096524, 37.439859], [-122.096607, 37.439688], [-122.096717, 37.439496], [-122.096951, 37.439161], [-122.097199, 37.438924], [-122.097365, 37.438749], [-122.097511, 37.438566], [-122.097695, 37.438336], [-122.097847, 37.438155], [-122.097984, 37.437952], [-122.098225, 37.437644], [-122.098515, 37.437358], [-122.098756, 37.437226], [-122.099017, 37.436973], [-122.099107, 37.436803], [-122.099148, 37.436594], [-122.099163, 37.436537], [-122.099203, 37.436396], [-122.099142, 37.436332], [-122.099332, 37.436177], [-122.09935, 37.43618], [-122.09942, 37.43616], [-122.09946, 37.43612], [-122.099514, 37.435995], [-122.09955, 37.43573], [-122.099681, 37.435729], [-122.099812, 37.435687], [-122.099926, 37.435612], [-122.10008, 37.435527], [-122.100426, 37.435398], [-122.100788, 37.435273], [-122.101361, 37.435076], [-122.101866, 37.434888], [-122.102051, 37.434789], [-122.102157, 37.434731], [-122.102289, 37.434643], [-122.102537, 37.434472], [-122.102799, 37.434288], [-122.1029, 37.434211], [-122.103002, 37.434127], [-122.103245, 37.433918], [-122.103454, 37.43374], [-122.103956, 37.433304], [-122.10509, 37.43226], [-122.105028, 37.432196], [-122.105002, 37.432169], [-122.105153, 37.432033], [-122.105322, 37.43188], [-122.10488, 37.43145], [-122.104, 37.43064], [-122.102985, 37.429667], [-122.10257, 37.42927], [-122.102536, 37.429236], [-122.102434, 37.429137], [-122.102401, 37.429104], [-122.102304, 37.429009], [-122.102014, 37.428724], [-122.101915, 37.428632], [-122.101824, 37.428547], [-122.101551, 37.428294], [-122.10146, 37.42821], [-122.101568, 37.427999], [-122.101671, 37.4278], [-122.101797, 37.427476], [-122.10182, 37.427342], [-122.101825, 37.427318], [-122.101836, 37.427108], [-122.10174, 37.426939], [-122.101716, 37.426893], [-122.101686, 37.426834], [-122.101591, 37.426739], [-122.101506, 37.426676], [-122.101389, 37.426634], [-122.101177, 37.426593], [-122.101087, 37.426601], [-122.101061, 37.426604], [-122.100966, 37.426636], [-122.10086, 37.42669], [-122.10077, 37.42657], [-122.1005, 37.42621], [-122.10041, 37.42609], [-122.100232, 37.425923], [-122.0997, 37.425422], [-122.09955, 37.42528], [-122.09953, 37.42525], [-122.09979, 37.42506], [-122.09985, 37.42497], [-122.09989, 37.42482], [-122.099904, 37.424674], [-122.09997, 37.424], [-122.100158, 37.422495], [-122.10025, 37.42177], [-122.100352, 37.421777], [-122.10051, 37.42179], [-122.10056, 37.42179], [-122.100626, 37.421793], [-122.100785, 37.421209], [-122.100908, 37.420762], [-122.100924, 37.420705], [-122.101017, 37.420362], [-122.101196, 37.419712], [-122.101279, 37.419392], [-122.10138, 37.4194], [-122.101351, 37.41932], [-122.101653, 37.418206], [-122.101523, 37.418206], [-122.101766, 37.417189], [-122.101952, 37.416443], [-122.102118, 37.415745], [-122.102158, 37.415586], [-122.102444, 37.415477], [-122.10265, 37.414817], [-122.102763, 37.41487], [-122.10301, 37.414471], [-122.102858, 37.414386], [-122.103165, 37.414052], [-122.103089, 37.413999], [-122.103401, 37.413673], [-122.103419, 37.413618], [-122.103404, 37.413564], [-122.10337, 37.413478], [-122.103317, 37.413437], [-122.10339, 37.413341], [-122.103672, 37.413027], [-122.104376, 37.412245], [-122.104599, 37.411998], [-122.10488, 37.411667], [-122.105736, 37.410937], [-122.10583, 37.41078], [-122.1058, 37.41074], [-122.1057, 37.41067], [-122.105664, 37.410647], [-122.105573, 37.410589], [-122.105653, 37.410501], [-122.10586, 37.41028], [-122.106165, 37.409954], [-122.106315, 37.409794], [-122.106986, 37.409095], [-122.1073, 37.40877], [-122.107313, 37.408768], [-122.107328, 37.408767], [-122.107767, 37.408291], [-122.107842, 37.408339], [-122.10797, 37.40842], [-122.108033, 37.408356], [-122.1081, 37.40829], [-122.108117, 37.408272], [-122.108171, 37.408218], [-122.108189, 37.408201], [-122.108213, 37.408176], [-122.108285, 37.408104], [-122.10831, 37.40808], [-122.108475, 37.408007], [-122.109446, 37.407307], [-122.109693, 37.407073], [-122.10973, 37.40705], [-122.109781, 37.407004], [-122.10981, 37.40698], [-122.10996, 37.40686], [-122.110041, 37.406782], [-122.11014, 37.40669], [-122.11028, 37.40647], [-122.110567, 37.406038], [-122.11058, 37.40602], [-122.11073, 37.40578], [-122.110834, 37.405609], [-122.1111, 37.40518], [-122.111145, 37.405096], [-122.11124, 37.40492], [-122.11129, 37.40484], [-122.111444, 37.404562], [-122.11153, 37.40441], [-122.111985, 37.403667], [-122.112083, 37.403506], [-122.1121, 37.40348], [-122.11229, 37.40315], [-122.11255, 37.402751], [-122.11261, 37.40266], [-122.11268, 37.40252], [-122.11274, 37.40239], [-122.11288, 37.40212], [-122.113268, 37.40152], [-122.11332, 37.40144], [-122.11344, 37.40127]]]}}, {"type": "Feature", "properties": {"TRUSTEE_AREA": 2}, "geometry": {"type": "Polygon", "coordinates": [[[-122.052311, 37.385744], [-122.052302, 37.385789], [-122.052277, 37.385924], [-122.05227, 37.38597], [-122.052212, 37.386084], [-122.05218, 37.38615], [-122.05213, 37.38625], [-122.052069, 37.386438], [-122.05203, 37.38656], [-122.052, 37.38668], [-122.05192, 37.38694], [-122.05181, 37.38732], [-122.051787, 37.387383], [-122.05172, 37.38758], [-122.05171, 37.38761], [-122.0517, 37.38763], [-122.05166, 37.38777], [-122.05155, 37.38801], [-122.05146, 37.38815], [-122.05135, 37.38828], [-122.05107, 37.38848], [-122.05102, 37.38851], [-122.05028, 37.38897], [-122.050029, 37.389126], [-122.0493, 37.38958], [-122.049224, 37.389628], [-122.048999, 37.389773], [-122.048925, 37.389822], [-122.048754, 37.389931], [-122.04857, 37.39005], [-122.048229, 37.390238], [-122.04819, 37.39026], [-122.04806, 37.39035], [-122.04792, 37.39045], [-122.0479, 37.390463], [-122.04742, 37.390798], [-122.04726, 37.39091], [-122.047127, 37.390829], [-122.046729, 37.390587], [-122.046597, 37.390507], [-122.046351, 37.390266], [-122.046263, 37.39053], [-122.045878, 37.39166], [-122.045589, 37.392475], [-122.045517, 37.392727], [-122.045351, 37.393315], [-122.045254, 37.393656], [-122.045168, 37.393906], [-122.0451, 37.394101], [-122.045001, 37.394388], [-122.044981, 37.394453], [-122.045237, 37.394529], [-122.045513, 37.394613], [-122.045561, 37.394629], [-122.046045, 37.394786], [-122.046259, 37.394854], [-122.046315, 37.394871], [-122.046449, 37.394907], [-122.046496, 37.39492], [-122.046541, 37.394933], [-122.046647, 37.394962], [-122.0466, 37.395092], [-122.046525, 37.3953], [-122.046099, 37.396499], [-122.045643, 37.397783], [-122.044979, 37.399822], [-122.046115, 37.400025], [-122.046413, 37.400089], [-122.046008, 37.401211], [-122.046476, 37.401313], [-122.046984, 37.401425], [-122.047403, 37.401552], [-122.046958, 37.40277], [-122.046872, 37.403006], [-122.047102, 37.403063], [-122.04725, 37.4031], [-122.047314, 37.403114], [-122.04873, 37.40343], [-122.04932, 37.403553], [-122.04978, 37.40365], [-122.049989, 37.403698], [-122.050213, 37.403749], [-122.05061, 37.40384], [-122.050885, 37.4039], [-122.05111, 37.40395], [-122.051159, 37.403962], [-122.05119, 37.40397], [-122.051214, 37.403975], [-122.051239, 37.40398], [-122.05129, 37.40399], [-122.05131, 37.403995], [-122.051331, 37.404001], [-122.05136, 37.40401], [-122.051689, 37.404094], [-122.05195, 37.40416], [-122.052245, 37.404243], [-122.0535, 37.4046], [-122.054892, 37.404984], [-122.05513, 37.40505], [-122.05578, 37.40521], [-122.05591, 37.405239], [-122.056302, 37.405329], [-122.056433, 37.405359], [-122.056459, 37.405364], [-122.056537, 37.405383], [-122.056563, 37.405389], [-122.056927, 37.405472], [-122.058018, 37.405721], [-122.0581, 37.40574], [-122.058384, 37.4058], [-122.058736, 37.405873], [-122.05948, 37.40603], [-122.059792, 37.406098], [-122.060144, 37.406175], [-122.060482, 37.406248], [-122.06067, 37.40629], [-122.061496, 37.406477], [-122.061834, 37.406554], [-122.062088, 37.406611], [-122.06248, 37.4067], [-122.06281, 37.40675], [-122.062855, 37.406762], [-122.063107, 37.406831], [-122.063141, 37.406838], [-122.063247, 37.406864], [-122.063282, 37.406873], [-122.063546, 37.406927], [-122.064336, 37.407094], [-122.0646, 37.40715], [-122.06627, 37.40752], [-122.0664, 37.40755], [-122.066479, 37.407567], [-122.066718, 37.407621], [-122.066798, 37.407639], [-122.067075, 37.4077], [-122.06725, 37.40774], [-122.067903, 37.407903], [-122.068179, 37.407972], [-122.068368, 37.408019], [-122.06849, 37.40805], [-122.068925, 37.408193], [-122.069111, 37.408255], [-122.06955, 37.4084], [-122.070017, 37.408548], [-122.070529, 37.40871], [-122.0706, 37.408738], [-122.070794, 37.408815], [-122.071468, 37.409081], [-122.072344, 37.409417], [-122.072637, 37.409529], [-122.072674, 37.409543], [-122.073587, 37.409909], [-122.073658, 37.409938], [-122.073984, 37.410074], [-122.074361, 37.41023], [-122.074576, 37.410319], [-122.075475, 37.410739], [-122.075536, 37.410769], [-122.075854, 37.410893], [-122.075995, 37.410948], [-122.076306, 37.411071], [-122.07642, 37.411112], [-122.076562, 37.411166], [-122.076884, 37.411306], [-122.077168, 37.411429], [-122.077842, 37.411744], [-122.07794, 37.41179], [-122.07803, 37.41182], [-122.07816, 37.41188], [-122.07816, 37.411765], [-122.07816, 37.41174], [-122.07816, 37.4117], [-122.07815, 37.41162], [-122.07815, 37.411394], [-122.078108, 37.410723], [-122.0781, 37.41059], [-122.0781, 37.40996], [-122.07811, 37.40879], [-122.0781, 37.40846], [-122.0781, 37.40801], [-122.0781, 37.407991], [-122.0781, 37.40783], [-122.07812, 37.40695], [-122.07812, 37.406588], [-122.07812, 37.40636], [-122.07812, 37.40612], [-122.07831, 37.40621], [-122.07858, 37.40635], [-122.07874, 37.40642], [-122.07877, 37.40644], [-122.0798, 37.40694], [-122.08034, 37.40722], [-122.080569, 37.407325], [-122.08119, 37.40761], [-122.08141, 37.4077], [-122.0816, 37.4078], [-122.081671, 37.407835], [-122.08236, 37.40818], [-122.083095, 37.408558], [-122.08335, 37.40869], [-122.08357, 37.4088], [-122.083849, 37.408922], [-122.08398, 37.40898], [-122.08423, 37.40908], [-122.08457, 37.4092], [-122.084706, 37.409238], [-122.085, 37.40932], [-122.08508, 37.40934], [-122.085376, 37.409428], [-122.08545, 37.40945], [-122.08613, 37.40954], [-122.086539, 37.409572], [-122.08663, 37.40958], [-122.08693, 37.4096], [-122.087051, 37.409609], [-122.08723, 37.40965], [-122.087409, 37.409684], [-122.08749, 37.4097], [-122.087529, 37.409711], [-122.087589, 37.409557], [-122.087599, 37.409532], [-122.08766, 37.409438], [-122.087719, 37.409306], [-122.087729, 37.409285], [-122.087799, 37.409111], [-122.087861, 37.408959], [-122.088034, 37.408529], [-122.088103, 37.408357], [-122.088195, 37.408131], [-122.088307, 37.407856], [-122.088328, 37.407802], [-122.088552, 37.40724], [-122.088724, 37.40681], [-122.088782, 37.406664], [-122.088814, 37.406586], [-122.088942, 37.40628], [-122.088996, 37.406152], [-122.089083, 37.405916], [-122.089167, 37.405691], [-122.089236, 37.405504], [-122.089243, 37.405486], [-122.089346, 37.405262], [-122.089381, 37.405108], [-122.089463, 37.40496], [-122.089494, 37.404884], [-122.089579, 37.404683], [-122.08967, 37.404466], [-122.08972, 37.404355], [-122.089815, 37.404147], [-122.08987, 37.40401], [-122.089945, 37.403845], [-122.09, 37.403773], [-122.090124, 37.403476], [-122.09016, 37.403383], [-122.090193, 37.403301], [-122.090301, 37.403056], [-122.090324, 37.403004], [-122.090499, 37.402636], [-122.090695, 37.402224], [-122.090929, 37.401663], [-122.091005, 37.401432], [-122.091043, 37.401355], [-122.091251, 37.40094], [-122.09126, 37.400921], [-122.091261, 37.400908], [-122.091272, 37.400806], [-122.091276, 37.400773], [-122.09116, 37.400728], [-122.090815, 37.400594], [-122.0907, 37.40055], [-122.087315, 37.399206], [-122.085642, 37.398569], [-122.082902, 37.397572], [-122.082806, 37.397537], [-122.081999, 37.397202], [-122.0819, 37.39716], [-122.081849, 37.397134], [-122.081661, 37.397059], [-122.081368, 37.396937], [-122.081217, 37.396875], [-122.081193, 37.396865], [-122.08112, 37.396835], [-122.081096, 37.396825], [-122.080954, 37.396766], [-122.080914, 37.396749], [-122.080364, 37.396531], [-122.080181, 37.39646], [-122.079885, 37.396342], [-122.07962, 37.396237], [-122.078993, 37.396], [-122.078695, 37.395889], [-122.078526, 37.395825], [-122.078457, 37.395799], [-122.078026, 37.395619], [-122.07786, 37.39555], [-122.0778, 37.39553], [-122.07773, 37.3955], [-122.07737, 37.39535], [-122.077033, 37.395213], [-122.07589, 37.39475], [-122.07483, 37.39435], [-122.074543, 37.394225], [-122.073725, 37.393868], [-122.07357, 37.3938], [-122.072923, 37.393538], [-122.07273, 37.39346], [-122.07193, 37.39315], [-122.07095, 37.39273], [-122.070524, 37.392541], [-122.06991, 37.39227], [-122.069732, 37.392192], [-122.069597, 37.392133], [-122.069194, 37.391958], [-122.06906, 37.3919], [-122.069036, 37.391889], [-122.06899, 37.39187], [-122.068964, 37.39186], [-122.06894, 37.391851], [-122.06886, 37.39182], [-122.06862, 37.39173], [-122.06854, 37.3917], [-122.068546, 37.391656], [-122.068564, 37.391524], [-122.06857, 37.39148], [-122.06848, 37.39145], [-122.06839, 37.39141], [-122.0684, 37.39122], [-122.06841, 37.39117], [-122.06841, 37.3911], [-122.0686, 37.38909], [-122.06859, 37.388359], [-122.06859, 37.38834], [-122.06857, 37.38798], [-122.06849, 37.387], [-122.06843, 37.38657], [-122.068274, 37.384663], [-122.06824, 37.384456], [-122.068235, 37.384325], [-122.068223, 37.384248], [-122.068216, 37.384206], [-122.068199, 37.384099], [-122.068183, 37.383978], [-122.068174, 37.383914], [-122.068081, 37.383231], [-122.068049, 37.382914], [-122.068041, 37.382829], [-122.068034, 37.38275], [-122.067998, 37.382346], [-122.067879, 37.381195], [-122.06786, 37.380974], [-122.067844, 37.380823], [-122.067665, 37.379306], [-122.067656, 37.379271], [-122.067594, 37.378676], [-122.06759, 37.37864], [-122.067571, 37.37831], [-122.067564, 37.378217], [-122.067498, 37.378192], [-122.065521, 37.377467], [-122.065464, 37.377449], [-122.065366, 37.37742], [-122.065239, 37.377383], [-122.06484, 37.37724], [-122.0642, 37.377], [-122.064166, 37.376987], [-122.06362, 37.37679], [-122.06348, 37.37673], [-122.0634, 37.3767], [-122.06331, 37.37666], [-122.06289, 37.3765], [-122.06243, 37.37632], [-122.06201, 37.37618], [-122.06193, 37.37616], [-122.06122, 37.3759], [-122.06078, 37.37572], [-122.060276, 37.375516], [-122.060124, 37.375986], [-122.059525, 37.377782], [-122.059083, 37.379113], [-122.058865, 37.379766], [-122.058328, 37.381414], [-122.058191, 37.381806], [-122.057985, 37.382395], [-122.057825, 37.382851], [-122.057292, 37.384386], [-122.057086, 37.384994], [-122.056966, 37.38535], [-122.056931, 37.385452], [-122.055911, 37.385235], [-122.055701, 37.38519], [-122.053832, 37.384792], [-122.052728, 37.384557], [-122.05271, 37.38461], [-122.0524, 37.38556], [-122.052311, 37.385744]]]}}, {"type": "Feature", "properties": {"TRUSTEE_AREA": 3}, "geometry": {"type": "Polygon", "coordinates": [[[-122.077855, 37.366812], [-122.077855, 37.366796], [-122.077854, 37.366688], [-122.077851, 37.366523], [-122.07785, 37.36643], [-122.077853, 37.366168], [-122.077856, 37.366031], [-122.077859, 37.365867], [-122.077859, 37.365857], [-122.077859, 37.365833], [-122.07786, 37.36582], [-122.07775, 37.36582], [-122.077726, 37.365819], [-122.077327, 37.365811], [-122.07725, 37.36581], [-122.077194, 37.365811], [-122.077001, 37.365814], [-122.076422, 37.365825], [-122.076266, 37.365829], [-122.07623, 37.36583], [-122.075878, 37.365826], [-122.075714, 37.365825], [-122.075654, 37.365824], [-122.075105, 37.365818], [-122.074822, 37.365816], [-122.074471, 37.365813], [-122.074184, 37.36581], [-122.073326, 37.36581], [-122.07304, 37.36581], [-122.072794, 37.365814], [-122.07245, 37.36582], [-122.072056, 37.365813], [-122.07181, 37.36581], [-122.071627, 37.36581], [-122.07152, 37.36581], [-122.071081, 37.365802], [-122.0709, 37.3658], [-122.07072, 37.365802], [-122.07018, 37.365808], [-122.07, 37.36581], [-122.069818, 37.36581], [-122.069272, 37.36581], [-122.06909, 37.36581], [-122.068904, 37.36581], [-122.068346, 37.36581], [-122.06816, 37.36581], [-122.067976, 37.36581], [-122.067807, 37.36581], [-122.067424, 37.36581], [-122.06724, 37.36581], [-122.067053, 37.36581], [-122.06652, 37.36581], [-122.066495, 37.365808], [-122.06631, 37.3658], [-122.066044, 37.3658], [-122.065246, 37.3658], [-122.06498, 37.3658], [-122.064967, 37.365628], [-122.06495, 37.3654], [-122.06495, 37.365112], [-122.06495, 37.36494], [-122.064947, 37.364914], [-122.064941, 37.364836], [-122.06494, 37.36481], [-122.06494, 37.364667], [-122.06494, 37.36459], [-122.064961, 37.364241], [-122.06497, 37.3641], [-122.064974, 37.364001], [-122.06498, 37.36386], [-122.064982, 37.363704], [-122.064984, 37.363605], [-122.064736, 37.363604], [-122.063994, 37.363602], [-122.063747, 37.363602], [-122.063585, 37.363601], [-122.063503, 37.363601], [-122.063099, 37.363603], [-122.062938, 37.363604], [-122.062952, 37.36313], [-122.062994, 37.36171], [-122.063006, 37.361318], [-122.06282, 37.36132], [-122.061892, 37.36131], [-122.061837, 37.361211], [-122.061761, 37.360986], [-122.061727, 37.360849], [-122.061722, 37.36082], [-122.061706, 37.360728], [-122.061708, 37.360665], [-122.061627, 37.360775], [-122.061485, 37.361136], [-122.061834, 37.361909], [-122.061602, 37.362519], [-122.062108, 37.362869], [-122.062157, 37.363607], [-122.061983, 37.364277], [-122.061993, 37.364616], [-122.062316, 37.365037], [-122.062619, 37.365799], [-122.062991, 37.366343], [-122.063259, 37.366723], [-122.062311, 37.368248], [-122.0621, 37.368612], [-122.06138, 37.369783], [-122.060348, 37.371457], [-122.059789, 37.372364], [-122.059374, 37.373062], [-122.058463, 37.374599], [-122.05875, 37.37471], [-122.058919, 37.374784], [-122.05907, 37.37485], [-122.059138, 37.374882], [-122.05928, 37.37495], [-122.059344, 37.374974], [-122.059415, 37.375002], [-122.059557, 37.375056], [-122.059985, 37.37522], [-122.060128, 37.375275], [-122.060139, 37.37528], [-122.060329, 37.375354], [-122.060276, 37.375516], [-122.06078, 37.37572], [-122.06122, 37.3759], [-122.06193, 37.37616], [-122.06201, 37.37618], [-122.06243, 37.37632], [-122.06289, 37.3765], [-122.06331, 37.37666], [-122.0634, 37.3767], [-122.06348, 37.37673], [-122.06362, 37.37679], [-122.064166, 37.376987], [-122.0642, 37.377], [-122.06484, 37.37724], [-122.065239, 37.377383], [-122.065366, 37.37742], [-122.065464, 37.377449], [-122.065521, 37.377467], [-122.067498, 37.378192], [-122.067564, 37.378217], [-122.067571, 37.37831], [-122.06759, 37.37864], [-122.067594, 37.378676], [-122.067656, 37.379271], [-122.067665, 37.379306], [-122.067844, 37.380823], [-122.06786, 37.380974], [-122.067879, 37.381195], [-122.067998, 37.382346], [-122.068034, 37.38275], [-122.068041, 37.382829], [-122.068049, 37.382914], [-122.068081, 37.383231], [-122.068174, 37.383914], [-122.068183, 37.383978], [-122.068199, 37.384099], [-122.068216, 37.384206], [-122.068223, 37.384248], [-122.068235, 37.384325], [-122.06824, 37.384456], [-122.068274, 37.384663], [-122.06843, 37.38657], [-122.06849, 37.387], [-122.06857, 37.38798], [-122.06859, 37.38834], [-122.06859, 37.388359], [-122.0686, 37.38909], [-122.06841, 37.3911], [-122.06841, 37.39117], [-122.0684, 37.39122], [-122.06839, 37.39141], [-122.06848, 37.39145], [-122.06857, 37.39148], [-122.068564, 37.391524], [-122.068546, 37.391656], [-122.06854, 37.3917], [-122.06862, 37.39173], [-122.06886, 37.39182], [-122.06894, 37.391851], [-122.068964, 37.39186], [-122.06899, 37.39187], [-122.069036, 37.391889], [-122.06906, 37.3919], [-122.069194, 37.391958], [-122.069597, 37.392133], [-122.069732, 37.392192], [-122.06991, 37.39227], [-122.070524, 37.392541], [-122.07095, 37.39273], [-122.07193, 37.39315], [-122.07273, 37.39346], [-122.072923, 37.393538], [-122.07357, 37.3938], [-122.073725, 37.393868], [-122.074543, 37.394225], [-122.07483, 37.39435], [-122.07589, 37.39475], [-122.077033, 37.395213], [-122.07737, 37.39535], [-122.07773, 37.3955], [-122.0778, 37.39553], [-122.07786, 37.39555], [-122.078026, 37.395619], [-122.078457, 37.395799], [-122.078526, 37.395825], [-122.078695, 37.395889], [-122.078993, 37.396], [-122.07962, 37.396237], [-122.079885, 37.396342], [-122.080181, 37.39646], [-122.080364, 37.396531], [-122.080914, 37.396749], [-122.080954, 37.396766], [-122.081096, 37.396825], [-122.08112, 37.396835], [-122.081193, 37.396865], [-122.081217, 37.396875], [-122.081368, 37.396937], [-122.081661, 37.397059], [-122.081849, 37.397134], [-122.0819, 37.39716], [-122.081999, 37.397202], [-122.082806, 37.397537], [-122.082902, 37.397572], [-122.085642, 37.398569], [-122.087315, 37.399206], [-122.0907, 37.40055], [-122.090815, 37.400594], [-122.09116, 37.400728], [-122.091276, 37.400773], [-122.091281, 37.400724], [-122.091287, 37.400674], [-122.091303, 37.400581], [-122.091312, 37.400534], [-122.091392, 37.400566], [-122.091635, 37.400662], [-122.091716, 37.400694], [-122.09174, 37.400653], [-122.091815, 37.40053], [-122.09184, 37.40049], [-122.09183, 37.40043], [-122.09184, 37.40038], [-122.09186, 37.40033], [-122.091935, 37.400216], [-122.0922, 37.39982], [-122.092411, 37.399443], [-122.09256, 37.39918], [-122.092566, 37.399169], [-122.092584, 37.399137], [-122.092591, 37.399127], [-122.092616, 37.399084], [-122.09265, 37.39903], [-122.092694, 37.398959], [-122.092721, 37.398918], [-122.092727, 37.398908], [-122.092744, 37.39888], [-122.092751, 37.398871], [-122.092951, 37.398558], [-122.0932, 37.39817], [-122.093542, 37.397614], [-122.093738, 37.397298], [-122.09375, 37.39728], [-122.093814, 37.397176], [-122.094043, 37.396811], [-122.09412, 37.39669], [-122.09424, 37.396491], [-122.09457, 37.39595], [-122.094604, 37.395895], [-122.09473, 37.3957], [-122.094797, 37.395591], [-122.09498, 37.3953], [-122.095, 37.395267], [-122.09507, 37.39516], [-122.09511, 37.39509], [-122.095178, 37.394983], [-122.0954, 37.39464], [-122.095511, 37.394457], [-122.09562, 37.39428], [-122.09573, 37.394094], [-122.09593, 37.39376], [-122.096065, 37.393542], [-122.09618, 37.39336], [-122.096249, 37.393243], [-122.096323, 37.393119], [-122.09623, 37.39304], [-122.09614, 37.39297], [-122.09584, 37.39266], [-122.09567, 37.3925], [-122.095199, 37.391964], [-122.095109, 37.391863], [-122.094993, 37.391752], [-122.094509, 37.391281], [-122.09416, 37.39103], [-122.09398, 37.3909], [-122.09326, 37.39048], [-122.092729, 37.390232], [-122.09249, 37.39012], [-122.09246, 37.3901], [-122.091867, 37.389804], [-122.09128, 37.38951], [-122.09023, 37.38897], [-122.08966, 37.38869], [-122.08935, 37.38853], [-122.0892, 37.38846], [-122.08878, 37.38825], [-122.08865, 37.38819], [-122.08825, 37.38799], [-122.08828, 37.38793], [-122.08831, 37.38784], [-122.08834, 37.38771], [-122.088348, 37.387576], [-122.08836, 37.38738], [-122.08835, 37.38719], [-122.08833, 37.38709], [-122.08829, 37.38698], [-122.088191, 37.386812], [-122.0881, 37.38668], [-122.08803, 37.3866], [-122.08801, 37.38658], [-122.08797, 37.386548], [-122.087784, 37.386403], [-122.087722, 37.386355], [-122.08746, 37.38615], [-122.087445, 37.386137], [-122.08734, 37.38605], [-122.08727, 37.38596], [-122.0872, 37.38585], [-122.08715, 37.38575], [-122.08712, 37.38564], [-122.08709, 37.38525], [-122.087089, 37.385193], [-122.087086, 37.384906], [-122.087085, 37.384842], [-122.087083, 37.384715], [-122.08708, 37.38436], [-122.08708, 37.384336], [-122.08708, 37.38421], [-122.087082, 37.384064], [-122.087085, 37.383948], [-122.08709, 37.38371], [-122.08709, 37.383567], [-122.08709, 37.383517], [-122.08709, 37.383162], [-122.08709, 37.3829], [-122.087085, 37.382657], [-122.08707, 37.381931], [-122.08707, 37.38191], [-122.08706, 37.38169], [-122.08705, 37.3814], [-122.08701, 37.38107], [-122.08698, 37.38093], [-122.08701, 37.38062], [-122.08701, 37.38026], [-122.08695, 37.37989], [-122.08695, 37.379744], [-122.08695, 37.379306], [-122.08695, 37.37916], [-122.086947, 37.379003], [-122.086941, 37.378536], [-122.08694, 37.37838], [-122.08694, 37.378143], [-122.08694, 37.37783], [-122.086946, 37.377435], [-122.08695, 37.3772], [-122.086945, 37.377093], [-122.086933, 37.376772], [-122.086932, 37.376747], [-122.08693, 37.376665], [-122.08693, 37.376207], [-122.08693, 37.375], [-122.08693, 37.37494], [-122.086939, 37.374833], [-122.08695, 37.37472], [-122.087008, 37.374381], [-122.08701, 37.37437], [-122.08701, 37.374314], [-122.08701, 37.374116], [-122.08701, 37.37405], [-122.087012, 37.37395], [-122.08702, 37.37368], [-122.08702, 37.37365], [-122.08702, 37.37355], [-122.08702, 37.37324], [-122.08702, 37.373097], [-122.08702, 37.37251], [-122.087026, 37.371741], [-122.08703, 37.37129], [-122.087036, 37.371048], [-122.08705, 37.37053], [-122.087045, 37.370322], [-122.08704, 37.37008], [-122.08703, 37.369724], [-122.08703, 37.3697], [-122.087007, 37.368656], [-122.087, 37.3683], [-122.087, 37.368196], [-122.087, 37.36808], [-122.086995, 37.367884], [-122.086993, 37.367781], [-122.086989, 37.367634], [-122.08698, 37.36722], [-122.08698, 37.367193], [-122.08698, 37.367046], [-122.08698, 37.367006], [-122.08698, 37.366888], [-122.08698, 37.366849], [-122.08698, 37.366817], [-122.086242, 37.366822], [-122.086148, 37.366827], [-122.086008, 37.366827], [-122.085717, 37.366899], [-122.085479, 37.366896], [-122.085359, 37.36683], [-122.085299, 37.366831], [-122.085262, 37.366832], [-122.083752, 37.366832], [-122.083217, 37.36683], [-122.083107, 37.366831], [-122.082476, 37.366826], [-122.082393, 37.366826], [-122.080993, 37.366827], [-122.080798, 37.366826], [-122.080776, 37.366826], [-122.080596, 37.366826], [-122.080016, 37.366822], [-122.079711, 37.36682], [-122.079242, 37.366819], [-122.07876, 37.366818], [-122.078352, 37.366816], [-122.077855, 37.366812]]]}}, {"type": "Feature", "properties": {"TRUSTEE_AREA": 4}, "geometry": {"type": "Polygon", "coordinates": [[[-122.11073, 37.40578], [-122.11058, 37.40602], [-122.110567, 37.406038], [-122.11028, 37.40647], [-122.11014, 37.40669], [-122.110041, 37.406782], [-122.10996, 37.40686], [-122.10981, 37.40698], [-122.109781, 37.407004], [-122.10973, 37.40705], [-122.109693, 37.407073], [-122.109446, 37.407307], [-122.108475, 37.408007], [-122.10831, 37.40808], [-122.108285, 37.408104], [-122.108213, 37.408176], [-122.108189, 37.408201], [-122.108171, 37.408218], [-122.108117, 37.408272], [-122.1081, 37.40829], [-122.108143, 37.408321], [-122.10821, 37.40837], [-122.108275, 37.408412], [-122.10832, 37.408441], [-122.108349, 37.40846], [-122.108439, 37.408519], [-122.108469, 37.408539], [-122.108481, 37.408547], [-122.10852, 37.408571], [-122.108533, 37.40858], [-122.108582, 37.408521], [-122.109447, 37.409029], [-122.109954, 37.409327], [-122.111305, 37.410122], [-122.114219, 37.41195], [-122.115518, 37.412765], [-122.115637, 37.412699], [-122.115696, 37.412534], [-122.115727, 37.412494], [-122.115848, 37.412341], [-122.115965, 37.412182], [-122.115985, 37.412109], [-122.11602, 37.41199], [-122.116065, 37.411917], [-122.116157, 37.411775], [-122.116191, 37.41173], [-122.116233, 37.411676], [-122.11632, 37.411585], [-122.11635, 37.411555], [-122.116412, 37.411462], [-122.116508, 37.411303], [-122.116584, 37.411209], [-122.116672, 37.411123], [-122.116749, 37.41105], [-122.116824, 37.411002], [-122.116921, 37.41094], [-122.116949, 37.410924], [-122.1171, 37.410841], [-122.117245, 37.41072], [-122.117291, 37.410653], [-122.117376, 37.410533], [-122.117402, 37.410459], [-122.117437, 37.410363], [-122.117492, 37.410242], [-122.117528, 37.410174], [-122.117554, 37.410126], [-122.11763, 37.41], [-122.117663, 37.40996], [-122.117775, 37.40983], [-122.117823, 37.409698], [-122.117905, 37.409599], [-122.117967, 37.409384], [-122.117986, 37.40929], [-122.118015, 37.409154], [-122.117995, 37.409042], [-122.117975, 37.408931], [-122.117939, 37.408731], [-122.117907, 37.408603], [-122.11788, 37.408495], [-122.117849, 37.408373], [-122.117856, 37.408269], [-122.117925, 37.40817], [-122.118042, 37.408077], [-122.118161, 37.40799], [-122.118262, 37.407917], [-122.118675, 37.407642], [-122.118724, 37.407587], [-122.118847, 37.407521], [-122.118978, 37.407417], [-122.119192, 37.40717], [-122.119419, 37.406889], [-122.119616, 37.406728], [-122.119825, 37.406559], [-122.119941, 37.406425], [-122.120004, 37.406351], [-122.120053, 37.406258], [-122.12005, 37.40609], [-122.120047, 37.405942], [-122.120439, 37.405635], [-122.120548, 37.405599], [-122.120589, 37.405586], [-122.120784, 37.40552], [-122.120922, 37.405515], [-122.120967, 37.40548], [-122.12108, 37.405391], [-122.121139, 37.405377], [-122.121338, 37.405414], [-122.121499, 37.405189], [-122.121614, 37.40502], [-122.121662, 37.404961], [-122.121718, 37.404932], [-122.121983, 37.404787], [-122.12199, 37.40449], [-122.122047, 37.404406], [-122.122123, 37.404376], [-122.12241, 37.404261], [-122.122554, 37.404055], [-122.122719, 37.40399], [-122.12273, 37.403981], [-122.122819, 37.40385], [-122.122751, 37.403676], [-122.122711, 37.403573], [-122.122806, 37.403457], [-122.122988, 37.403353], [-122.123058, 37.403314], [-122.123134, 37.40327], [-122.123185, 37.403289], [-122.123311, 37.403334], [-122.123357, 37.403244], [-122.123494, 37.402991], [-122.123574, 37.402844], [-122.123574, 37.402584], [-122.123574, 37.402474], [-122.123654, 37.402423], [-122.123715, 37.402385], [-122.123805, 37.402328], [-122.123963, 37.402228], [-122.124119, 37.401883], [-122.124177, 37.401755], [-122.124192, 37.401745], [-122.124339, 37.401453], [-122.124415, 37.401346], [-122.124471, 37.401268], [-122.124526, 37.401241], [-122.124783, 37.401081], [-122.124856, 37.400986], [-122.1249, 37.400838], [-122.124928, 37.400501], [-122.125012, 37.400319], [-122.125131, 37.400131], [-122.125104, 37.400042], [-122.124964, 37.399922], [-122.12488, 37.399671], [-122.124886, 37.399615], [-122.124895, 37.399528], [-122.124913, 37.399364], [-122.124828, 37.399206], [-122.12505, 37.399041], [-122.125201, 37.399007], [-122.125344, 37.398975], [-122.125504, 37.398843], [-122.125535, 37.398753], [-122.125413, 37.398496], [-122.125519, 37.398403], [-122.125632, 37.398369], [-122.125791, 37.39832], [-122.125931, 37.398277], [-122.126029, 37.398246], [-122.12609, 37.398226], [-122.126209, 37.398187], [-122.126417, 37.397988], [-122.126567, 37.397887], [-122.126703, 37.397794], [-122.126967, 37.39757], [-122.12708, 37.397413], [-122.127089, 37.397361], [-122.127101, 37.397136], [-122.127384, 37.397018], [-122.127437, 37.396927], [-122.127626, 37.39683], [-122.127698, 37.396893], [-122.127682, 37.39712], [-122.127771, 37.397148], [-122.127839, 37.396914], [-122.12793, 37.3968], [-122.127946, 37.396709], [-122.127965, 37.396614], [-122.128074, 37.396611], [-122.12824, 37.39661], [-122.128493, 37.396454], [-122.128276, 37.396362], [-122.128238, 37.396132], [-122.128104, 37.39604], [-122.127986, 37.395953], [-122.128103, 37.395771], [-122.128177, 37.395779], [-122.128335, 37.395797], [-122.128572, 37.395926], [-122.128712, 37.395902], [-122.128748, 37.395897], [-122.128803, 37.395888], [-122.128961, 37.395982], [-122.12903, 37.396024], [-122.129103, 37.396067], [-122.129132, 37.396257], [-122.129237, 37.396258], [-122.129366, 37.396203], [-122.129492, 37.396151], [-122.129417, 37.395996], [-122.129565, 37.395848], [-122.129497, 37.395704], [-122.129479, 37.395559], [-122.129627, 37.395291], [-122.129654, 37.395115], [-122.129441, 37.39516], [-122.129255, 37.395299], [-122.129131, 37.395391], [-122.128911, 37.395367], [-122.128845, 37.395193], [-122.128648, 37.395157], [-122.128502, 37.395138], [-122.12845, 37.394985], [-122.128415, 37.394864], [-122.128662, 37.394614], [-122.128642, 37.394505], [-122.128524, 37.394416], [-122.12841, 37.394519], [-122.128307, 37.394528], [-122.128212, 37.394585], [-122.128151, 37.39462], [-122.128017, 37.39466], [-122.127682, 37.39454], [-122.127643, 37.394526], [-122.127575, 37.394501], [-122.127559, 37.394422], [-122.127527, 37.394358], [-122.127531, 37.394274], [-122.127564, 37.39423], [-122.127622, 37.394155], [-122.127702, 37.394051], [-122.127822, 37.393939], [-122.127895, 37.393842], [-122.127886, 37.393781], [-122.127838, 37.393711], [-122.127713, 37.393656], [-122.127682, 37.393649], [-122.127549, 37.393624], [-122.127433, 37.393544], [-122.127418, 37.393534], [-122.127398, 37.393484], [-122.127471, 37.393279], [-122.127611, 37.392862], [-122.127615, 37.392851], [-122.127885, 37.392716], [-122.127926, 37.392675], [-122.128029, 37.392576], [-122.12816, 37.392409], [-122.128339, 37.392209], [-122.12835, 37.392157], [-122.128373, 37.392084], [-122.128333, 37.391944], [-122.128281, 37.391862], [-122.128202, 37.391811], [-122.12805, 37.391796], [-122.127978, 37.391822], [-122.127902, 37.39179], [-122.127883, 37.391711], [-122.127805, 37.391688], [-122.127681, 37.391677], [-122.127632, 37.391687], [-122.127454, 37.391726], [-122.12733, 37.391638], [-122.12731, 37.391593], [-122.127355, 37.391508], [-122.127394, 37.391435], [-122.127429, 37.39137], [-122.127307, 37.390983], [-122.127286, 37.39083], [-122.127167, 37.390507], [-122.127091, 37.390407], [-122.126801, 37.390159], [-122.126977, 37.389829], [-122.126972, 37.389672], [-122.126808, 37.389605], [-122.126705, 37.389627], [-122.126594, 37.389583], [-122.126458, 37.389528], [-122.126278, 37.389456], [-122.126216, 37.389407], [-122.12621, 37.389377], [-122.126263, 37.389283], [-122.126307, 37.389202], [-122.126436, 37.389103], [-122.126604, 37.388977], [-122.126799, 37.388886], [-122.126929, 37.388826], [-122.126964, 37.388812], [-122.126989, 37.388804], [-122.127072, 37.388773], [-122.127108, 37.38876], [-122.127017, 37.388619], [-122.12692, 37.38847], [-122.126729, 37.38821], [-122.126631, 37.388076], [-122.12659, 37.38802], [-122.126239, 37.387568], [-122.12604, 37.38731], [-122.125047, 37.386059], [-122.125, 37.386], [-122.12497, 37.38597], [-122.124643, 37.385562], [-122.124535, 37.385428], [-122.12436, 37.38521], [-122.124214, 37.385025], [-122.124109, 37.38489], [-122.124043, 37.384806], [-122.12385, 37.38456], [-122.123781, 37.384469], [-122.12356, 37.38418], [-122.12349, 37.38409], [-122.12339, 37.38395], [-122.122845, 37.383265], [-122.122743, 37.383138], [-122.12244, 37.382757], [-122.12234, 37.38263], [-122.122276, 37.382551], [-122.122084, 37.382315], [-122.12202, 37.382237], [-122.121931, 37.382127], [-122.12177, 37.38193], [-122.121672, 37.381794], [-122.12159, 37.38168], [-122.121535, 37.381606], [-122.121373, 37.381384], [-122.12132, 37.38131], [-122.121278, 37.381254], [-122.121152, 37.381085], [-122.12111, 37.38103], [-122.120604, 37.380362], [-122.12033, 37.38], [-122.11949, 37.37892], [-122.11907, 37.378373], [-122.11856, 37.37771], [-122.118522, 37.377663], [-122.118408, 37.377525], [-122.11837, 37.37748], [-122.118344, 37.377448], [-122.118269, 37.377354], [-122.118244, 37.377323], [-122.11793, 37.37693], [-122.117518, 37.376378], [-122.1174, 37.37622], [-122.11675, 37.37546], [-122.11625, 37.37494], [-122.1155, 37.37418], [-122.115049, 37.373805], [-122.11485, 37.37364], [-122.11424, 37.37316], [-122.11412, 37.37306], [-122.11387, 37.37287], [-122.113657, 37.372695], [-122.1132, 37.37232], [-122.11246, 37.37176], [-122.112258, 37.371614], [-122.11178, 37.37127], [-122.111578, 37.371124], [-122.11149, 37.37106], [-122.110986, 37.370671], [-122.11079, 37.37052], [-122.11069, 37.37062], [-122.110579, 37.370738], [-122.11039, 37.37094], [-122.11033, 37.37102], [-122.109979, 37.371421], [-122.10978, 37.37165], [-122.109602, 37.371857], [-122.109068, 37.372482], [-122.10889, 37.37269], [-122.10886, 37.37273], [-122.10822, 37.37344], [-122.10772, 37.37402], [-122.10761, 37.37408], [-122.106943, 37.374802], [-122.10679, 37.374971], [-122.10625, 37.37552], [-122.10606, 37.37572], [-122.10549, 37.37632], [-122.1053, 37.37652], [-122.105171, 37.376647], [-122.104787, 37.377032], [-122.10466, 37.37716], [-122.104315, 37.376962], [-122.10389, 37.37672], [-122.10355, 37.3765], [-122.10345, 37.37644], [-122.10333, 37.3764], [-122.103276, 37.376391], [-122.1032, 37.37638], [-122.10288, 37.37637], [-122.102646, 37.37637], [-122.101944, 37.37637], [-122.10171, 37.37637], [-122.101473, 37.37637], [-122.10126, 37.37637], [-122.100765, 37.376363], [-122.10053, 37.37636], [-122.09962, 37.376346], [-122.09921, 37.37634], [-122.09689, 37.376354], [-122.09598, 37.37636], [-122.09598, 37.376338], [-122.095976, 37.375896], [-122.09597, 37.37501], [-122.09596, 37.374571], [-122.09595, 37.37413], [-122.095776, 37.374128], [-122.095254, 37.374122], [-122.09508, 37.37412], [-122.094909, 37.37412], [-122.09456, 37.37412], [-122.094399, 37.374115], [-122.09423, 37.37411], [-122.094064, 37.374107], [-122.093566, 37.374101], [-122.0934, 37.3741], [-122.093, 37.374094], [-122.09197, 37.37408], [-122.0918, 37.37408], [-122.0914, 37.37408], [-122.091366, 37.37408], [-122.091264, 37.37408], [-122.09123, 37.37408], [-122.090918, 37.374084], [-122.09059, 37.37409], [-122.089982, 37.374083], [-122.08967, 37.37408], [-122.089318, 37.374075], [-122.088262, 37.37406], [-122.08819, 37.37406], [-122.08791, 37.37406], [-122.08773, 37.374058], [-122.08719, 37.374052], [-122.08701, 37.37405], [-122.08701, 37.374116], [-122.08701, 37.374314], [-122.08701, 37.37437], [-122.087008, 37.374381], [-122.08695, 37.37472], [-122.086939, 37.374833], [-122.08693, 37.37494], [-122.08693, 37.375], [-122.08693, 37.376207], [-122.08693, 37.376665], [-122.086932, 37.376747], [-122.086933, 37.376772], [-122.086945, 37.377093], [-122.08695, 37.3772], [-122.086946, 37.377435], [-122.08694, 37.37783], [-122.08694, 37.378143], [-122.08694, 37.37838], [-122.086941, 37.378536], [-122.086947, 37.379003], [-122.08695, 37.37916], [-122.08695, 37.379306], [-122.08695, 37.379744], [-122.08695, 37.37989], [-122.08701, 37.38026], [-122.08701, 37.38062], [-122.08698, 37.38093], [-122.08701, 37.38107], [-122.08705, 37.3814], [-122.08706, 37.38169], [-122.08707, 37.38191], [-122.08707, 37.381931], [-122.087085, 37.382657], [-122.08709, 37.3829], [-122.08709, 37.383162], [-122.08709, 37.383517], [-122.08709, 37.383567], [-122.08709, 37.38371], [-122.087085, 37.383948], [-122.087082, 37.384064], [-122.08708, 37.38421], [-122.08708, 37.384336], [-122.08708, 37.38436], [-122.087083, 37.384715], [-122.087085, 37.384842], [-122.087086, 37.384906], [-122.087089, 37.385193], [-122.08709, 37.38525], [-122.08712, 37.38564], [-122.08715, 37.38575], [-122.0872, 37.38585], [-122.08727, 37.38596], [-122.08734, 37.38605], [-122.087445, 37.386137], [-122.08746, 37.38615], [-122.087722, 37.386355], [-122.087784, 37.386403], [-122.08797, 37.386548], [-122.08801, 37.38658], [-122.08803, 37.3866], [-122.0881, 37.38668], [-122.088191, 37.386812], [-122.08829, 37.38698], [-122.08833, 37.38709], [-122.08835, 37.38719], [-122.08836, 37.38738], [-122.088348, 37.387576], [-122.08834, 37.38771], [-122.08831, 37.38784], [-122.08828, 37.38793], [-122.08825, 37.38799], [-122.08865, 37.38819], [-122.08878, 37.38825], [-122.0892, 37.38846], [-122.08935, 37.38853], [-122.08966, 37.38869], [-122.09023, 37.38897], [-122.09128, 37.38951], [-122.091867, 37.389804], [-122.09246, 37.3901], [-122.09249, 37.39012], [-122.092729, 37.390232], [-122.09326, 37.39048], [-122.09398, 37.3909], [-122.09416, 37.39103], [-122.094509, 37.391281], [-122.094993, 37.391752], [-122.095109, 37.391863], [-122.095199, 37.391964], [-122.09567, 37.3925], [-122.09584, 37.39266], [-122.09614, 37.39297], [-122.09623, 37.39304], [-122.096323, 37.393119], [-122.09643, 37.39321], [-122.09645, 37.39322], [-122.09659, 37.39334], [-122.0968, 37.39349], [-122.0973, 37.3938], [-122.09765, 37.39398], [-122.09789, 37.39409], [-122.09809, 37.39416], [-122.09817, 37.3942], [-122.09904, 37.39457], [-122.09946, 37.39476], [-122.09978, 37.39489], [-122.09987, 37.39494], [-122.101013, 37.395442], [-122.101163, 37.395509], [-122.10155, 37.39568], [-122.10188, 37.39583], [-122.1023, 37.39602], [-122.10249, 37.3961], [-122.10301, 37.39633], [-122.10316, 37.3964], [-122.10405, 37.39678], [-122.10469, 37.39705], [-122.10489, 37.39714], [-122.10515, 37.39726], [-122.10584, 37.39757], [-122.10587, 37.39758], [-122.10628, 37.39777], [-122.10718, 37.39817], [-122.10733, 37.39823], [-122.10818, 37.3986], [-122.10853, 37.39875], [-122.10948, 37.39917], [-122.10991, 37.39938], [-122.11037, 37.39961], [-122.11116, 37.40004], [-122.11139, 37.40016], [-122.11212, 37.40054], [-122.11288, 37.40095], [-122.11344, 37.40127], [-122.11332, 37.40144], [-122.113268, 37.40152], [-122.11288, 37.40212], [-122.11274, 37.40239], [-122.11268, 37.40252], [-122.11261, 37.40266], [-122.11255, 37.402751], [-122.11229, 37.40315], [-122.1121, 37.40348], [-122.112083, 37.403506], [-122.111985, 37.403667], [-122.11153, 37.40441], [-122.111444, 37.404562], [-122.11129, 37.40484], [-122.11124, 37.40492], [-122.111145, 37.405096], [-122.1111, 37.40518], [-122.110834, 37.405609], [-122.11073, 37.40578]]]}}, {"type": "Feature", "properties": {"TRUSTEE_AREA": 5}, "geometry": {"type": "Polygon", "coordinates": [[[-122.08702, 37.37368], [-122.087012, 37.37395], [-122.08701, 37.37405], [-122.08719, 37.374052], [-122.08773, 37.374058], [-122.08791, 37.37406], [-122.08819, 37.37406], [-122.088262, 37.37406], [-122.089318, 37.374075], [-122.08967, 37.37408], [-122.089982, 37.374083], [-122.09059, 37.37409], [-122.090918, 37.374084], [-122.09123, 37.37408], [-122.091264, 37.37408], [-122.091366, 37.37408], [-122.0914, 37.37408], [-122.0918, 37.37408], [-122.09197, 37.37408], [-122.093, 37.374094], [-122.0934, 37.3741], [-122.093566, 37.374101], [-122.094064, 37.374107], [-122.09423, 37.37411], [-122.094399, 37.374115], [-122.09456, 37.37412], [-122.094909, 37.37412], [-122.09508, 37.37412], [-122.095254, 37.374122], [-122.095776, 37.374128], [-122.09595, 37.37413], [-122.09596, 37.374571], [-122.09597, 37.37501], [-122.095976, 37.375896], [-122.09598, 37.376338], [-122.09598, 37.37636], [-122.09689, 37.376354], [-122.09921, 37.37634], [-122.09962, 37.376346], [-122.10053, 37.37636], [-122.100765, 37.376363], [-122.10126, 37.37637], [-122.101473, 37.37637], [-122.10171, 37.37637], [-122.101944, 37.37637], [-122.102646, 37.37637], [-122.10288, 37.37637], [-122.1032, 37.37638], [-122.103276, 37.376391], [-122.10333, 37.3764], [-122.10345, 37.37644], [-122.10355, 37.3765], [-122.10389, 37.37672], [-122.104315, 37.376962], [-122.10466, 37.37716], [-122.104787, 37.377032], [-122.105171, 37.376647], [-122.1053, 37.37652], [-122.10549, 37.37632], [-122.10606, 37.37572], [-122.10625, 37.37552], [-122.10679, 37.374971], [-122.106943, 37.374802], [-122.10761, 37.37408], [-122.10772, 37.37402], [-122.10822, 37.37344], [-122.10886, 37.37273], [-122.10889, 37.37269], [-122.109068, 37.372482], [-122.109602, 37.371857], [-122.10978, 37.37165], [-122.109979, 37.371421], [-122.11033, 37.37102], [-122.11039, 37.37094], [-122.110579, 37.370738], [-122.11069, 37.37062], [-122.11079, 37.37052], [-122.110986, 37.370671], [-122.11149, 37.37106], [-122.111578, 37.371124], [-122.11178, 37.37127], [-122.112258, 37.371614], [-122.11246, 37.37176], [-122.1132, 37.37232], [-122.113657, 37.372695], [-122.11387, 37.37287], [-122.11412, 37.37306], [-122.11424, 37.37316], [-122.11485, 37.37364], [-122.115049, 37.373805], [-122.1155, 37.37418], [-122.11625, 37.37494], [-122.11675, 37.37546], [-122.1174, 37.37622], [-122.117518, 37.376378], [-122.11793, 37.37693], [-122.118244, 37.377323], [-122.118269, 37.377354], [-122.118344, 37.377448], [-122.11837, 37.37748], [-122.118408, 37.377525], [-122.118522, 37.377663], [-122.11856, 37.37771], [-122.11907, 37.378373], [-122.11949, 37.37892], [-122.12033, 37.38], [-122.120604, 37.380362], [-122.12111, 37.38103], [-122.121152, 37.381085], [-122.121278, 37.381254], [-122.12132, 37.38131], [-122.121373, 37.381384], [-122.121535, 37.381606], [-122.12159, 37.38168], [-122.121672, 37.381794], [-122.12177, 37.38193], [-122.121931, 37.382127], [-122.12202, 37.382237], [-122.122084, 37.382315], [-122.122276, 37.382551], [-122.12234, 37.38263], [-122.12244, 37.382757], [-122.122743, 37.383138], [-122.122845, 37.383265], [-122.12339, 37.38395], [-122.12349, 37.38409], [-122.12356, 37.38418], [-122.123781, 37.384469], [-122.12385, 37.38456], [-122.124043, 37.384806], [-122.124109, 37.38489], [-122.124214, 37.385025], [-122.12436, 37.38521], [-122.124535, 37.385428], [-122.124643, 37.385562], [-122.12497, 37.38597], [-122.125, 37.386], [-122.125047, 37.386059], [-122.12604, 37.38731], [-122.126239, 37.387568], [-122.12659, 37.38802], [-122.126631, 37.388076], [-122.126729, 37.38821], [-122.12692, 37.38847], [-122.127017, 37.388619], [-122.127108, 37.38876], [-122.127221, 37.388935], [-122.12727, 37.38901], [-122.127551, 37.389471], [-122.1276, 37.38955], [-122.127667, 37.389646], [-122.128118, 37.390297], [-122.12839, 37.39069], [-122.12874, 37.39126], [-122.12919, 37.39192], [-122.12942, 37.392285], [-122.129581, 37.392539], [-122.129774, 37.392453], [-122.130075, 37.392319], [-122.130565, 37.39234], [-122.1306, 37.392016], [-122.130324, 37.391605], [-122.130608, 37.391611], [-122.130656, 37.390741], [-122.130926, 37.390749], [-122.13068, 37.390113], [-122.13087, 37.39006], [-122.13095, 37.38998], [-122.13104, 37.38986], [-122.131051, 37.389839], [-122.131165, 37.389644], [-122.131176, 37.389625], [-122.131208, 37.389568], [-122.13122, 37.38955], [-122.13134, 37.3896], [-122.131375, 37.389608], [-122.13171, 37.38969], [-122.13186, 37.389737], [-122.1319, 37.38975], [-122.131991, 37.389836], [-122.132143, 37.389791], [-122.132326, 37.389761], [-122.132464, 37.389744], [-122.13259, 37.38973], [-122.132882, 37.389718], [-122.132903, 37.389721], [-122.133043, 37.389744], [-122.13304, 37.389638], [-122.134535, 37.389492], [-122.135078, 37.389532], [-122.136351, 37.389591], [-122.138216, 37.389671], [-122.138252, 37.389176], [-122.138251, 37.388405], [-122.138252, 37.388219], [-122.140915, 37.388337], [-122.141392, 37.388315], [-122.141018, 37.388138], [-122.140936, 37.3881], [-122.14083, 37.38805], [-122.14054, 37.38787], [-122.14036, 37.38772], [-122.14017, 37.3875], [-122.140075, 37.387365], [-122.13991, 37.38713], [-122.13985, 37.38702], [-122.139766, 37.386858], [-122.1397, 37.38673], [-122.139525, 37.386368], [-122.139446, 37.386204], [-122.139412, 37.386135], [-122.139313, 37.385928], [-122.13928, 37.38586], [-122.139267, 37.385839], [-122.13925, 37.38581], [-122.139237, 37.385773], [-122.13923, 37.38575], [-122.138904, 37.385132], [-122.13873, 37.3848], [-122.13838, 37.38409], [-122.13829, 37.38391], [-122.137993, 37.383248], [-122.13794, 37.38313], [-122.13771, 37.38266], [-122.13769, 37.38262], [-122.137684, 37.382557], [-122.13768, 37.3825], [-122.137686, 37.382369], [-122.137689, 37.382307], [-122.13769, 37.382257], [-122.137697, 37.382109], [-122.1377, 37.38206], [-122.137709, 37.381873], [-122.13771, 37.38186], [-122.137735, 37.381721], [-122.137397, 37.381727], [-122.137223, 37.381737], [-122.136268, 37.379785], [-122.134468, 37.37611], [-122.134489, 37.375959], [-122.134584, 37.375375], [-122.134243, 37.375471], [-122.134173, 37.375493], [-122.134034, 37.375205], [-122.133725, 37.374583], [-122.133663, 37.374457], [-122.133689, 37.374373], [-122.133633, 37.374241], [-122.133243, 37.373315], [-122.1328, 37.372262], [-122.13269, 37.37216], [-122.13262, 37.37211], [-122.13254, 37.37208], [-122.132188, 37.37141], [-122.132005, 37.371049], [-122.131689, 37.370419], [-122.131981, 37.370319], [-122.132133, 37.370264], [-122.13248, 37.37013], [-122.13266, 37.37022], [-122.132806, 37.370268], [-122.13284, 37.37028], [-122.13292, 37.37029], [-122.13301, 37.37028], [-122.13321, 37.37028], [-122.1333, 37.37024], [-122.13338, 37.37024], [-122.133391, 37.370228], [-122.13365, 37.36996], [-122.13384, 37.369932], [-122.1341, 37.36993], [-122.133969, 37.369798], [-122.134845, 37.369269], [-122.1352, 37.36902], [-122.135474, 37.36887], [-122.13553, 37.36884], [-122.13609, 37.36851], [-122.136282, 37.368392], [-122.13655, 37.36823], [-122.136422, 37.368102], [-122.13616, 37.36784], [-122.13733, 37.36703], [-122.137596, 37.366878], [-122.138963, 37.365904], [-122.139018, 37.36592], [-122.13905, 37.36593], [-122.13918, 37.36599], [-122.13925, 37.36603], [-122.13936, 37.36608], [-122.13969, 37.36634], [-122.139744, 37.366387], [-122.13977, 37.36641], [-122.13985, 37.36644], [-122.13995, 37.36645], [-122.14002, 37.36644], [-122.1401, 37.36644], [-122.14028, 37.36642], [-122.14041, 37.36643], [-122.14047, 37.36644], [-122.14055, 37.36648], [-122.14067, 37.36655], [-122.14117, 37.36691], [-122.141263, 37.367003], [-122.14158, 37.36732], [-122.14173, 37.3674], [-122.142, 37.36753], [-122.14214, 37.36763], [-122.14233, 37.3678], [-122.14243, 37.36791], [-122.14254, 37.36812], [-122.14257, 37.36823], [-122.14261, 37.36831], [-122.14265, 37.36835], [-122.14274, 37.36843], [-122.1428, 37.36846], [-122.14293, 37.36848], [-122.14309, 37.36848], [-122.14322, 37.36845], [-122.14347, 37.36835], [-122.14359, 37.36828], [-122.14375, 37.36815], [-122.14385, 37.36796], [-122.14388, 37.36784], [-122.14392, 37.36772], [-122.14409, 37.36749], [-122.144233, 37.367331], [-122.144278, 37.367309], [-122.144419, 37.367238], [-122.14456, 37.367167], [-122.14479, 37.367051], [-122.144832, 37.367021], [-122.144856, 37.367004], [-122.14508, 37.36687], [-122.145097, 37.366832], [-122.145286, 37.366698], [-122.145447, 37.366593], [-122.145559, 37.366545], [-122.145725, 37.36647], [-122.145806, 37.366445], [-122.145864, 37.36628], [-122.145906, 37.366318], [-122.146242, 37.366259], [-122.146374, 37.366276], [-122.146529, 37.366295], [-122.146771, 37.366348], [-122.147314, 37.366259], [-122.147594, 37.366294], [-122.147772, 37.366367], [-122.147964, 37.366442], [-122.148395, 37.36664], [-122.148008, 37.365809], [-122.147978, 37.365745], [-122.147876, 37.365533], [-122.147638, 37.365028], [-122.147671, 37.364994], [-122.14791, 37.364773], [-122.148555, 37.364175], [-122.148877, 37.363878], [-122.149429, 37.363572], [-122.1497, 37.363416], [-122.149965, 37.363298], [-122.150068, 37.363246], [-122.150257, 37.363162], [-122.150582, 37.363012], [-122.150698, 37.362961], [-122.150877, 37.362853], [-122.151208, 37.36269], [-122.151347, 37.362593], [-122.151632, 37.362392], [-122.151933, 37.362131], [-122.152708, 37.361465], [-122.15283, 37.36143], [-122.153277, 37.36162], [-122.1533, 37.36163], [-122.15343, 37.36172], [-122.1536, 37.36187], [-122.153636, 37.361911], [-122.15374, 37.36203], [-122.15377, 37.36206], [-122.15389, 37.36227], [-122.15405, 37.36252], [-122.154105, 37.362612], [-122.15414, 37.36267], [-122.15423, 37.3628], [-122.15427, 37.36284], [-122.15434, 37.36291], [-122.1545, 37.36302], [-122.154894, 37.363249], [-122.15524, 37.36345], [-122.15538, 37.36354], [-122.15553, 37.36368], [-122.15626, 37.3645], [-122.15645, 37.36473], [-122.156505, 37.364789], [-122.15658, 37.36487], [-122.15663, 37.36497], [-122.15669, 37.36511], [-122.15672, 37.36525], [-122.15675, 37.36548], [-122.15679, 37.36557], [-122.15686, 37.36566], [-122.156872, 37.365674], [-122.15694, 37.36575], [-122.15701, 37.36584], [-122.15715, 37.36593], [-122.15738, 37.36606], [-122.157424, 37.366083], [-122.15763, 37.36619], [-122.157843, 37.36628], [-122.15789, 37.3663], [-122.15813, 37.36632], [-122.15824, 37.3663], [-122.1584, 37.36626], [-122.158521, 37.366225], [-122.15865, 37.36619], [-122.15874, 37.36615], [-122.158921, 37.366081], [-122.15898, 37.36606], [-122.15935, 37.36591], [-122.159463, 37.365866], [-122.15956, 37.36583], [-122.159648, 37.365809], [-122.159707, 37.365908], [-122.159756, 37.366144], [-122.159827, 37.366472], [-122.159863, 37.36663], [-122.159904, 37.366826], [-122.15997, 37.367134], [-122.160073, 37.367156], [-122.160452, 37.367238], [-122.160495, 37.367235], [-122.163514, 37.36793], [-122.164673, 37.368197], [-122.165654, 37.368414], [-122.168598, 37.369068], [-122.16958, 37.369286], [-122.169848, 37.36935], [-122.170479, 37.369501], [-122.170755, 37.368726], [-122.171097, 37.367714], [-122.171242, 37.367284], [-122.171342, 37.366986], [-122.171816, 37.365597], [-122.172147, 37.364627], [-122.172222, 37.364423], [-122.172572, 37.363359], [-122.17296, 37.362154], [-122.173381, 37.360804], [-122.173587, 37.360144], [-122.17419, 37.35834], [-122.176865, 37.350524], [-122.178445, 37.346001], [-122.178643, 37.345403], [-122.17909, 37.34422], [-122.180047, 37.341206], [-122.182597, 37.333664], [-122.182586, 37.333337], [-122.182723, 37.332857], [-122.182493, 37.33264], [-122.182273, 37.332492], [-122.182163, 37.332439], [-122.181874, 37.332299], [-122.181606, 37.332118], [-122.181338, 37.331761], [-122.181083, 37.331371], [-122.18076, 37.330948], [-122.180643, 37.330832], [-122.18045, 37.330711], [-122.18001, 37.33039], [-122.179728, 37.330184], [-122.179205, 37.329783], [-122.178378, 37.328974], [-122.1759, 37.326549], [-122.175075, 37.325741], [-122.175293, 37.325701], [-122.175654, 37.325635], [-122.175949, 37.325586], [-122.176169, 37.325551], [-122.176846, 37.325438], [-122.178546, 37.325158], [-122.178616, 37.325256], [-122.178742, 37.325434], [-122.179139, 37.325996], [-122.179167, 37.326035], [-122.179251, 37.326155], [-122.17928, 37.326195], [-122.179302, 37.326197], [-122.179368, 37.326204], [-122.179391, 37.326207], [-122.179546, 37.326414], [-122.179631, 37.326528], [-122.180229, 37.326309], [-122.180473, 37.32622], [-122.180564, 37.326193], [-122.180839, 37.326112], [-122.180931, 37.326086], [-122.181115, 37.326031], [-122.181147, 37.326022], [-122.181237, 37.325969], [-122.181482, 37.326129], [-122.181608, 37.3262], [-122.181775, 37.326296], [-122.18187, 37.32635], [-122.181903, 37.326357], [-122.182325, 37.326449], [-122.182466, 37.32648], [-122.1823, 37.326533], [-122.182276, 37.326541], [-122.181784, 37.326472], [-122.181612, 37.326449], [-122.182208, 37.32681], [-122.183038, 37.327314], [-122.183682, 37.326395], [-122.184083, 37.325824], [-122.184187, 37.325674], [-122.184503, 37.325224], [-122.184609, 37.325075], [-122.18478, 37.324808], [-122.185021, 37.324434], [-122.185292, 37.324007], [-122.185433, 37.323786], [-122.185458, 37.323737], [-122.185776, 37.323141], [-122.186119, 37.322489], [-122.186516, 37.322031], [-122.18734, 37.321535], [-122.188736, 37.320922], [-122.18876, 37.320916], [-122.189719, 37.320437], [-122.18986, 37.32035], [-122.190529, 37.319933], [-122.191353, 37.319483], [-122.192162, 37.319094], [-122.192513, 37.318795], [-122.192787, 37.318651], [-122.192988, 37.318376], [-122.193062, 37.318277], [-122.192665, 37.31801], [-122.191643, 37.317911], [-122.191321, 37.317896], [-122.190672, 37.317867], [-122.190561, 37.317861], [-122.190483, 37.317858], [-122.190237, 37.317789], [-122.190131, 37.31776], [-122.190097, 37.317736], [-122.189996, 37.317665], [-122.189963, 37.317642], [-122.189881, 37.317585], [-122.18986, 37.31757], [-122.189655, 37.317394], [-122.18958, 37.31733], [-122.189502, 37.317255], [-122.189403, 37.317162], [-122.189268, 37.317033], [-122.18919, 37.31696], [-122.188572, 37.316544], [-122.187645, 37.31592], [-122.187294, 37.315775], [-122.186913, 37.315683], [-122.186597, 37.315548], [-122.186379, 37.315272], [-122.186333, 37.314966], [-122.186296, 37.314893], [-122.186218, 37.314737], [-122.186165, 37.314631], [-122.186058, 37.314341], [-122.186091, 37.314255], [-122.186155, 37.314094], [-122.186191, 37.314041], [-122.186262, 37.31394], [-122.186306, 37.313886], [-122.186348, 37.313837], [-122.186394, 37.313677], [-122.18634, 37.313558], [-122.186287, 37.31344], [-122.186013, 37.313196], [-122.18589, 37.312998], [-122.185888, 37.312974], [-122.185876, 37.312837], [-122.185875, 37.312822], [-122.185876, 37.312541], [-122.185799, 37.312204], [-122.185737, 37.31206], [-122.18557, 37.31167], [-122.185143, 37.311092], [-122.184563, 37.310527], [-122.183846, 37.310039], [-122.18319, 37.309795], [-122.18232, 37.309528], [-122.181755, 37.309566], [-122.18116, 37.309795], [-122.180733, 37.310138], [-122.180336, 37.310657], [-122.179711, 37.311313], [-122.178963, 37.311755], [-122.178383, 37.312007], [-122.17762, 37.312381], [-122.17703, 37.312501], [-122.176683, 37.312572], [-122.175817, 37.312749], [-122.175702, 37.312764], [-122.175405, 37.312802], [-122.174468, 37.31277], [-122.174352, 37.312752], [-122.174275, 37.312742], [-122.173773, 37.31264], [-122.17301, 37.312435], [-122.172079, 37.312247], [-122.171469, 37.312179], [-122.171178, 37.312118], [-122.170812, 37.311982], [-122.170598, 37.311737], [-122.170597, 37.311493], [-122.170475, 37.311234], [-122.170094, 37.310899], [-122.169559, 37.310525], [-122.169338, 37.315884], [-122.169318, 37.316419], [-122.164842, 37.31657], [-122.150528, 37.317163], [-122.1503, 37.317226], [-122.150293, 37.319688], [-122.150198, 37.324847], [-122.150143, 37.327337], [-122.150135, 37.32779], [-122.150109, 37.330226], [-122.15009, 37.331004], [-122.146221, 37.331049], [-122.145704, 37.331047], [-122.133073, 37.3311], [-122.13222, 37.331102], [-122.132062, 37.339261], [-122.132031, 37.340217], [-122.131679, 37.340123], [-122.131106, 37.340076], [-122.130659, 37.339912], [-122.129954, 37.339833], [-122.129075, 37.339692], [-122.128376, 37.339631], [-122.127641, 37.339504], [-122.127029, 37.339433], [-122.126363, 37.33919], [-122.125237, 37.338716], [-122.124861, 37.338649], [-122.124285, 37.338551], [-122.123477, 37.3385], [-122.12265, 37.338453], [-122.122243, 37.338511], [-122.121862, 37.338426], [-122.120838, 37.338198], [-122.120059, 37.337869], [-122.119322, 37.33721], [-122.118506, 37.336646], [-122.117252, 37.336442], [-122.116264, 37.336395], [-122.11537, 37.336583], [-122.114711, 37.336693], [-122.114084, 37.336709], [-122.113159, 37.336756], [-122.112359, 37.33663], [-122.111606, 37.336599], [-122.110869, 37.336568], [-122.110164, 37.336473], [-122.109693, 37.336505], [-122.108799, 37.33674], [-122.107153, 37.336646], [-122.106118, 37.336207], [-122.10545, 37.335893], [-122.104597, 37.335486], [-122.103844, 37.335219], [-122.103311, 37.334811], [-122.102558, 37.334059], [-122.101829, 37.333149], [-122.101578, 37.332796], [-122.101194, 37.33253], [-122.100716, 37.33242], [-122.100214, 37.332247], [-122.099814, 37.332051], [-122.099218, 37.331824], [-122.098905, 37.33162], [-122.098262, 37.331416], [-122.097823, 37.331424], [-122.097489, 37.331483], [-122.09709, 37.33149], [-122.096959, 37.331559], [-122.09669, 37.3317], [-122.096554, 37.331815], [-122.09638, 37.33198], [-122.09618, 37.33214], [-122.09606, 37.33222], [-122.09603, 37.33226], [-122.09603, 37.33232], [-122.09605, 37.3324], [-122.096109, 37.332498], [-122.096143, 37.332552], [-122.096011, 37.332777], [-122.095957, 37.333082], [-122.09587, 37.333404], [-122.095682, 37.333631], [-122.095486, 37.333788], [-122.09524, 37.334041], [-122.095233, 37.335041], [-122.095269, 37.335046], [-122.095365, 37.337951], [-122.095215, 37.337967], [-122.094292, 37.337987], [-122.09331, 37.338026], [-122.09291, 37.33804], [-122.092827, 37.337789], [-122.092833, 37.337742], [-122.092811, 37.33774], [-122.092611, 37.337829], [-122.092586, 37.338013], [-122.092641, 37.338121], [-122.092525, 37.338372], [-122.092606, 37.33855], [-122.092616, 37.338625], [-122.092624, 37.338768], [-122.092547, 37.338904], [-122.092536, 37.338923], [-122.092426, 37.339], [-122.092364, 37.339052], [-122.092334, 37.339077], [-122.09233, 37.339088], [-122.092317, 37.339138], [-122.092283, 37.339273], [-122.092182, 37.339691], [-122.092151, 37.339818], [-122.092213, 37.339912], [-122.092309, 37.339972], [-122.092337, 37.340099], [-122.09233, 37.340165], [-122.092282, 37.34022], [-122.092239, 37.340264], [-122.092165, 37.34034], [-122.092124, 37.340412], [-122.092076, 37.340472], [-122.09203, 37.340529], [-122.092264, 37.340834], [-122.092087, 37.341151], [-122.09222, 37.341516], [-122.091799, 37.341716], [-122.091622, 37.341595], [-122.091608, 37.34161], [-122.091481, 37.341729], [-122.091414, 37.341794], [-122.091388, 37.341819], [-122.091278, 37.341901], [-122.091083, 37.342052], [-122.090887, 37.342085], [-122.091004, 37.342291], [-122.091007, 37.342367], [-122.091008, 37.34239], [-122.090983, 37.342382], [-122.090921, 37.342536], [-122.090678, 37.342722], [-122.09084, 37.342822], [-122.090676, 37.343099], [-122.090712, 37.343238], [-122.090307, 37.343443], [-122.090383, 37.343563], [-122.090526, 37.343788], [-122.09048, 37.343977], [-122.090527, 37.344091], [-122.090594, 37.344255], [-122.090381, 37.344338], [-122.090232, 37.34448], [-122.090214, 37.344621], [-122.090187, 37.344816], [-122.090072, 37.344853], [-122.089905, 37.344909], [-122.089875, 37.344921], [-122.089719, 37.344969], [-122.089585, 37.345005], [-122.089427, 37.345029], [-122.089412, 37.345156], [-122.088906, 37.345604], [-122.088828, 37.345802], [-122.088512, 37.345871], [-122.088136, 37.345932], [-122.088058, 37.346132], [-122.088014, 37.346253], [-122.087973, 37.346264], [-122.087673, 37.346324], [-122.087613, 37.346389], [-122.087576, 37.34643], [-122.087549, 37.346459], [-122.087504, 37.346509], [-122.087499, 37.346797], [-122.087531, 37.346824], [-122.087503, 37.346933], [-122.087482, 37.347017], [-122.087457, 37.347117], [-122.087429, 37.347226], [-122.087411, 37.347296], [-122.087293, 37.347283], [-122.087212, 37.347274], [-122.086975, 37.347247], [-122.086791, 37.347347], [-122.086696, 37.347635], [-122.086595, 37.347948], [-122.08645, 37.347941], [-122.08619, 37.347928], [-122.086195, 37.348216], [-122.086084, 37.34835], [-122.085642, 37.348544], [-122.085626, 37.348646], [-122.085855, 37.348849], [-122.086013, 37.349175], [-122.08591, 37.349357], [-122.08583, 37.349498], [-122.085786, 37.349582], [-122.085726, 37.349695], [-122.085652, 37.349826], [-122.08599, 37.350195], [-122.085968, 37.350275], [-122.085914, 37.350474], [-122.085739, 37.350787], [-122.085669, 37.350889], [-122.085598, 37.350985], [-122.085538, 37.351068], [-122.08552, 37.351133], [-122.085516, 37.351193], [-122.085513, 37.351248], [-122.085513, 37.351339], [-122.085514, 37.351408], [-122.08522, 37.351876], [-122.085454, 37.351968], [-122.085703, 37.352352], [-122.085607, 37.352351], [-122.08544, 37.35235], [-122.084752, 37.35235], [-122.084467, 37.35235], [-122.084279, 37.35235], [-122.08421, 37.35235], [-122.083717, 37.352342], [-122.08353, 37.35234], [-122.083335, 37.352334], [-122.082753, 37.352316], [-122.08256, 37.35231], [-122.08243, 37.3523], [-122.082065, 37.3523], [-122.08135, 37.3523], [-122.080973, 37.352289], [-122.08061, 37.35228], [-122.08043, 37.352275], [-122.079891, 37.35226], [-122.079712, 37.352255], [-122.07955, 37.35225], [-122.079321, 37.352245], [-122.07863, 37.35223], [-122.078149, 37.352203], [-122.07808, 37.3522], [-122.07781, 37.35217], [-122.07776, 37.35217], [-122.07756, 37.35217], [-122.077387, 37.352174], [-122.07715, 37.35218], [-122.076271, 37.35218], [-122.07616, 37.35218], [-122.0759, 37.35217], [-122.075694, 37.352164], [-122.075076, 37.352146], [-122.07487, 37.35214], [-122.07469, 37.352134], [-122.07424, 37.35212], [-122.07415, 37.35212], [-122.07397, 37.35212], [-122.073891, 37.352118], [-122.073656, 37.352112], [-122.073578, 37.35211], [-122.073442, 37.352106], [-122.07321, 37.3521], [-122.073035, 37.3521], [-122.0729, 37.3521], [-122.072778, 37.352097], [-122.072415, 37.352091], [-122.072294, 37.352089], [-122.072117, 37.352085], [-122.07178, 37.35208], [-122.071586, 37.352074], [-122.07141, 37.35207], [-122.071198, 37.352066], [-122.070562, 37.352054], [-122.07035, 37.35205], [-122.070152, 37.352048], [-122.069558, 37.352042], [-122.06936, 37.35204], [-122.069261, 37.352039], [-122.068967, 37.352036], [-122.068869, 37.352036], [-122.068265, 37.352031], [-122.06806, 37.35203], [-122.066453, 37.35203], [-122.06585, 37.35203], [-122.06539, 37.35203], [-122.065352, 37.35203], [-122.06386, 37.352066], [-122.06372, 37.35207], [-122.063363, 37.352061], [-122.063158, 37.352056], [-122.063079, 37.352054], [-122.062544, 37.352041], [-122.06247, 37.35204], [-122.06234, 37.35204], [-122.062098, 37.35204], [-122.061372, 37.35204], [-122.06113, 37.35204], [-122.061026, 37.35204], [-122.060714, 37.35204], [-122.06061, 37.35204], [-122.060572, 37.35204], [-122.060458, 37.35204], [-122.06042, 37.35204], [-122.06033, 37.35204], [-122.06006, 37.35204], [-122.05997, 37.35204], [-122.059982, 37.35207], [-122.060017, 37.35216], [-122.06003, 37.35219], [-122.06009, 37.35232], [-122.06027, 37.35256], [-122.060291, 37.352597], [-122.06047, 37.35291], [-122.061035, 37.353853], [-122.06131, 37.354255], [-122.060984, 37.354453], [-122.060853, 37.354558], [-122.06077, 37.354645], [-122.060722, 37.354766], [-122.060732, 37.354807], [-122.060952, 37.354992], [-122.061218, 37.355096], [-122.061256, 37.355118], [-122.061404, 37.355206], [-122.061535, 37.355301], [-122.061583, 37.355337], [-122.061639, 37.355405], [-122.06167, 37.35572], [-122.061647, 37.355832], [-122.061548, 37.355951], [-122.061409, 37.35608], [-122.061135, 37.3562], [-122.061011, 37.356354], [-122.060956, 37.356464], [-122.060915, 37.356887], [-122.060915, 37.357085], [-122.060922, 37.357299], [-122.060956, 37.357404], [-122.061039, 37.35753], [-122.061114, 37.357607], [-122.061617, 37.35792], [-122.061816, 37.358063], [-122.062002, 37.358206], [-122.062202, 37.358409], [-122.062352, 37.358555], [-122.062422, 37.358623], [-122.062539, 37.358783], [-122.062574, 37.358915], [-122.062539, 37.359025], [-122.062505, 37.359162], [-122.062457, 37.359305], [-122.062374, 37.35942], [-122.062291, 37.359508], [-122.062161, 37.359634], [-122.062023, 37.359793], [-122.061933, 37.359898], [-122.061896, 37.35997], [-122.061858, 37.360046], [-122.061816, 37.360151], [-122.061754, 37.360415], [-122.061713, 37.360568], [-122.061711, 37.360601], [-122.061708, 37.360665], [-122.061706, 37.360728], [-122.061722, 37.36082], [-122.061727, 37.360849], [-122.061761, 37.360986], [-122.061837, 37.361211], [-122.061892, 37.36131], [-122.06282, 37.36132], [-122.063006, 37.361318], [-122.062994, 37.36171], [-122.062952, 37.36313], [-122.062938, 37.363604], [-122.063099, 37.363603], [-122.063503, 37.363601], [-122.063585, 37.363601], [-122.063747, 37.363602], [-122.063994, 37.363602], [-122.064736, 37.363604], [-122.064984, 37.363605], [-122.064982, 37.363704], [-122.06498, 37.36386], [-122.064974, 37.364001], [-122.06497, 37.3641], [-122.064961, 37.364241], [-122.06494, 37.36459], [-122.06494, 37.364667], [-122.06494, 37.36481], [-122.064941, 37.364836], [-122.064947, 37.364914], [-122.06495, 37.36494], [-122.06495, 37.365112], [-122.06495, 37.3654], [-122.064967, 37.365628], [-122.06498, 37.3658], [-122.065246, 37.3658], [-122.066044, 37.3658], [-122.06631, 37.3658], [-122.066495, 37.365808], [-122.06652, 37.36581], [-122.067053, 37.36581], [-122.06724, 37.36581], [-122.067424, 37.36581], [-122.067807, 37.36581], [-122.067976, 37.36581], [-122.06816, 37.36581], [-122.068346, 37.36581], [-122.068904, 37.36581], [-122.06909, 37.36581], [-122.069272, 37.36581], [-122.069818, 37.36581], [-122.07, 37.36581], [-122.07018, 37.365808], [-122.07072, 37.365802], [-122.0709, 37.3658], [-122.071081, 37.365802], [-122.07152, 37.36581], [-122.071627, 37.36581], [-122.07181, 37.36581], [-122.072056, 37.365813], [-122.07245, 37.36582], [-122.072794, 37.365814], [-122.07304, 37.36581], [-122.073326, 37.36581], [-122.074184, 37.36581], [-122.074471, 37.365813], [-122.074822, 37.365816], [-122.075105, 37.365818], [-122.075654, 37.365824], [-122.075714, 37.365825], [-122.075878, 37.365826], [-122.07623, 37.36583], [-122.076266, 37.365829], [-122.076422, 37.365825], [-122.077001, 37.365814], [-122.077194, 37.365811], [-122.07725, 37.36581], [-122.077327, 37.365811], [-122.077726, 37.365819], [-122.07775, 37.36582], [-122.07786, 37.36582], [-122.077859, 37.365833], [-122.077859, 37.365857], [-122.077859, 37.365867], [-122.077856, 37.366031], [-122.077853, 37.366168], [-122.07785, 37.36643], [-122.077851, 37.366523], [-122.077854, 37.366688], [-122.077855, 37.366796], [-122.077855, 37.366812], [-122.078352, 37.366816], [-122.07876, 37.366818], [-122.079242, 37.366819], [-122.079711, 37.36682], [-122.080016, 37.366822], [-122.080596, 37.366826], [-122.080776, 37.366826], [-122.080798, 37.366826], [-122.080993, 37.366827], [-122.082393, 37.366826], [-122.082476, 37.366826], [-122.083107, 37.366831], [-122.083217, 37.36683], [-122.083752, 37.366832], [-122.085262, 37.366832], [-122.085299, 37.366831], [-122.085359, 37.36683], [-122.085479, 37.366896], [-122.085717, 37.366899], [-122.086008, 37.366827], [-122.086148, 37.366827], [-122.086242, 37.366822], [-122.08698, 37.366817], [-122.08698, 37.366849], [-122.08698, 37.366888], [-122.08698, 37.367006], [-122.08698, 37.367046], [-122.08698, 37.367193], [-122.08698, 37.36722], [-122.086989, 37.367634], [-122.086993, 37.367781], [-122.086995, 37.367884], [-122.087, 37.36808], [-122.087, 37.368196], [-122.087, 37.3683], [-122.087007, 37.368656], [-122.08703, 37.3697], [-122.08703, 37.369724], [-122.08704, 37.37008], [-122.087045, 37.370322], [-122.08705, 37.37053], [-122.087036, 37.371048], [-122.08703, 37.37129], [-122.087026, 37.371741], [-122.08702, 37.37251], [-122.08702, 37.373097], [-122.08702, 37.37324], [-122.08702, 37.37355], [-122.08702, 37.37365], [-122.08702, 37.37368]]]}}]}