{"type": "FeatureCollection", "features": [{"type": "Feature", "properties": {"AREA": "Trustee Area C1"}, "geometry": {"type": "Polygon", "coordinates": [[[-121.803993, 37.249534], [-121.803997, 37.249588], [-121.804001, 37.249922], [-121.804016, 37.251087], [-121.804017, 37.251126], [-121.804022, 37.251173], [-121.804024, 37.251476], [-121.804096, 37.251745], [-121.804096, 37.252128], [-121.804071, 37.25247], [-121.804014, 37.252666], [-121.803908, 37.252935], [-121.803753, 37.253221], [-121.803586, 37.253476], [-121.803387, 37.253695], [-121.80332, 37.253769], [-121.803204, 37.253887], [-121.8022, 37.254908], [-121.802247, 37.254937], [-121.802898, 37.25533], [-121.802968, 37.255372], [-121.803062, 37.255429], [-121.803206, 37.255516], [-121.80342, 37.255645], [-121.803608, 37.255739], [-121.80371, 37.255778], [-121.803796, 37.255802], [-121.803915, 37.255812], [-121.804138, 37.255799], [-121.804171, 37.256036], [-121.804215, 37.256147], [-121.804318, 37.256222], [-121.804556, 37.256361], [-121.804734, 37.256439], [-121.804792, 37.256448], [-121.804914, 37.256461], [-121.805001, 37.256464], [-121.805141, 37.256462], [-121.805231, 37.256461], [-121.805824, 37.256455], [-121.805992, 37.256454], [-121.806052, 37.256455], [-121.806207, 37.256455], [-121.806285, 37.256454], [-121.806986, 37.256449], [-121.80715000000001, 37.256449], [-121.80722, 37.256451], [-121.807272, 37.256453], [-121.807378, 37.256451], [-121.807852, 37.256443], [-121.807942, 37.256442], [-121.808011, 37.256442], [-121.808171, 37.256441], [-121.808651, 37.256438], [-121.808812, 37.256438], [-121.808905, 37.256437], [-121.809184, 37.256436], [-121.809278, 37.256436], [-121.809314, 37.256435], [-121.809421, 37.256434], [-121.809458, 37.256434], [-121.809599, 37.256433], [-121.810022, 37.25643], [-121.810163, 37.256431], [-121.810286, 37.256432], [-121.81035, 37.256428], [-121.81038, 37.256427], [-121.810718, 37.256425], [-121.810912, 37.256425], [-121.8111, 37.256426], [-121.811452, 37.256422], [-121.812095, 37.256415], [-121.812511, 37.256412], [-121.812865, 37.256411], [-121.813044, 37.25641], [-121.813582, 37.256407], [-121.813697, 37.256407], [-121.813762, 37.256408], [-121.813931, 37.256406], [-121.814362, 37.256402], [-121.814438, 37.256401], [-121.814608, 37.256401], [-121.814801, 37.256399], [-121.81538, 37.256394], [-121.815574, 37.256393], [-121.815977, 37.256389], [-121.816281, 37.256387], [-121.816617, 37.256384], [-121.817186, 37.256381], [-121.817394, 37.25638], [-121.817589, 37.256384], [-121.8176, 37.256482], [-121.817604, 37.256503], [-121.817624, 37.256602], [-121.817648, 37.256679], [-121.817692, 37.256791], [-121.817718, 37.256846], [-121.817724, 37.256858], [-121.817777, 37.256953], [-121.817826, 37.257032], [-121.817854, 37.257067], [-121.817885, 37.257106], [-121.818136, 37.257372], [-121.818248, 37.257455], [-121.818294, 37.257488], [-121.818414, 37.257572], [-121.818488, 37.257624], [-121.818675, 37.257759], [-121.818771, 37.25784], [-121.818852, 37.257918], [-121.818889, 37.257958], [-121.818925, 37.257996], [-121.819018, 37.258117], [-121.819067, 37.258183], [-121.819132, 37.258283], [-121.819173, 37.258364], [-121.81918, 37.25838], [-121.819211, 37.258452], [-121.819225, 37.25851], [-121.819234, 37.258539999999996], [-121.819282, 37.258697], [-121.819323, 37.258799], [-121.819358, 37.258884], [-121.819401, 37.258983], [-121.819424, 37.259083], [-121.819433, 37.259305], [-121.819438, 37.259414], [-121.819441, 37.259475], [-121.819438, 37.259576], [-121.819428, 37.260063], [-121.819425, 37.260226], [-121.819421, 37.260426], [-121.819416, 37.260693], [-121.819423, 37.260931], [-121.819421, 37.261029], [-121.819418, 37.26123], [-121.819417, 37.26126], [-121.819415, 37.261352], [-121.819415, 37.261383], [-121.819408, 37.261685], [-121.819404, 37.261874], [-121.81939, 37.262591], [-121.819384, 37.262894], [-121.819375, 37.263199], [-121.819373, 37.263298], [-121.819356, 37.264117], [-121.819351, 37.264424], [-121.819346, 37.264542], [-121.819342, 37.264678], [-121.819329, 37.26489], [-121.819334, 37.265014], [-121.819293, 37.265073], [-121.819172, 37.26525], [-121.819132, 37.26531], [-121.819009, 37.265462], [-121.820191, 37.266161], [-121.821502, 37.26702], [-121.82199, 37.267338], [-121.822106, 37.26743], [-121.822283, 37.267287], [-121.822397, 37.267179], [-121.82266, 37.266928], [-121.823005, 37.266698], [-121.823373, 37.266552], [-121.824162, 37.26633], [-121.824621, 37.266222], [-121.825052, 37.266131], [-121.825481, 37.266069], [-121.826232, 37.266017], [-121.827008, 37.266011], [-121.82717, 37.266009], [-121.827658, 37.266005], [-121.827821, 37.266005], [-121.827976, 37.266007], [-121.82799, 37.266006], [-121.8285, 37.266002], [-121.828671, 37.266002], [-121.829025, 37.265999], [-121.830087, 37.265991], [-121.830231, 37.265991], [-121.830441, 37.265988], [-121.83057, 37.265986], [-121.830957, 37.265981], [-121.831087, 37.26598], [-121.831073, 37.265622], [-121.831072, 37.265588], [-121.83106, 37.265301], [-121.831015, 37.26476], [-121.830998, 37.264552], [-121.830994, 37.264195], [-121.830989, 37.263846], [-121.830981, 37.263113], [-121.830972, 37.262849], [-121.830969, 37.262799], [-121.830951, 37.262451], [-121.830942, 37.262298], [-121.830916, 37.26184], [-121.830908, 37.261688], [-121.830914, 37.261555], [-121.83091, 37.261332], [-121.83091, 37.260782], [-121.830907, 37.259042], [-121.830906, 37.258772], [-121.830902, 37.258072], [-121.830866, 37.257771], [-121.830841, 37.257059], [-121.83084, 37.257019], [-121.830837, 37.256867], [-121.830831, 37.256413], [-121.830829, 37.256262], [-121.830828, 37.256183], [-121.830825, 37.255949], [-121.830824, 37.255871], [-121.830823, 37.255802], [-121.83082, 37.255596], [-121.83082, 37.255528], [-121.830817, 37.255376], [-121.830809, 37.254921], [-121.830809, 37.254898], [-121.830811, 37.25477], [-121.830818, 37.254643], [-121.830818, 37.254565], [-121.830822, 37.254278], [-121.83085, 37.254087], [-121.830863, 37.253953], [-121.830864, 37.253749], [-121.830863, 37.253628], [-121.830863, 37.253433], [-121.83086, 37.253268], [-121.830859, 37.253149], [-121.830854, 37.252776], [-121.83084, 37.251698], [-121.830839, 37.25166], [-121.830838, 37.251288], [-121.83083, 37.25097], [-121.830823, 37.250555], [-121.830808, 37.250466], [-121.8308, 37.250416], [-121.83076, 37.250288], [-121.830698, 37.25015], [-121.830517, 37.249798], [-121.830501, 37.249771], [-121.830495, 37.249636], [-121.830195, 37.249072], [-121.830129, 37.248875], [-121.830072, 37.248668], [-121.830007, 37.248358], [-121.829969, 37.248048], [-121.829969, 37.247747], [-121.829988, 37.247493], [-121.830007, 37.247324], [-121.830032, 37.247161], [-121.830072, 37.246995], [-121.830091, 37.246892], [-121.830392, 37.246093], [-121.830521, 37.24579], [-121.830558, 37.245528], [-121.830622, 37.245359], [-121.830697, 37.245121], [-121.830723, 37.24497], [-121.83073, 37.244816], [-121.830732, 37.244773], [-121.830731, 37.244632], [-121.830728, 37.244549], [-121.830722, 37.244302], [-121.830721, 37.24422], [-121.830718, 37.244079], [-121.830712, 37.243659], [-121.83071, 37.243519], [-121.830708, 37.243375], [-121.830704, 37.242946], [-121.830703, 37.242803], [-121.8307, 37.242657], [-121.830695, 37.242261], [-121.830693, 37.242219], [-121.830688, 37.242074], [-121.830684, 37.241917], [-121.830677, 37.241595], [-121.830676, 37.241449], [-121.830675, 37.241293], [-121.830673, 37.241151], [-121.830667, 37.240726], [-121.830666, 37.240585], [-121.83066, 37.240226], [-121.830642, 37.23915], [-121.830637, 37.238792], [-121.830635, 37.238653], [-121.83063, 37.238236], [-121.83063, 37.238221], [-121.830623, 37.238098], [-121.830618, 37.237945], [-121.830618, 37.237853], [-121.83062, 37.237695], [-121.830611, 37.237199], [-121.83061, 37.237118], [-121.830607, 37.236873], [-121.830235, 37.23689], [-121.829608, 37.236896], [-121.829515, 37.236897], [-121.829173, 37.23691], [-121.828869, 37.236935], [-121.828487, 37.236985], [-121.828188, 37.23704], [-121.826867, 37.237335], [-121.826655, 37.237372], [-121.826559, 37.237389], [-121.826227, 37.237431], [-121.825915, 37.237457], [-121.825662, 37.237469], [-121.825476, 37.237474], [-121.82492, 37.23749], [-121.824735, 37.237496], [-121.824549, 37.237501], [-121.82399, 37.237516], [-121.823805, 37.237522], [-121.823464, 37.237531], [-121.822442, 37.23756], [-121.822102, 37.237571], [-121.82192, 37.237575], [-121.821616, 37.237583], [-121.821414, 37.237588], [-121.821374, 37.237587], [-121.821193, 37.237587], [-121.821025, 37.237587], [-121.820494, 37.237561], [-121.82032, 37.237547], [-121.820175, 37.237536], [-121.820137, 37.237531], [-121.819817, 37.237497], [-121.819592, 37.237463], [-121.819412, 37.237436], [-121.819251, 37.237409], [-121.819092, 37.237383], [-121.818772, 37.237315], [-121.818682, 37.237296], [-121.818614, 37.23728], [-121.818582, 37.237272], [-121.81848600000001, 37.237251], [-121.818455, 37.237244], [-121.818305, 37.237209], [-121.818205, 37.237187], [-121.817865, 37.23712], [-121.817704, 37.237093], [-121.817535, 37.237063], [-121.817462, 37.237051], [-121.817026, 37.236994], [-121.816994, 37.23699], [-121.816856, 37.236976], [-121.816851, 37.237124], [-121.81685, 37.2372], [-121.816847, 37.237773], [-121.816849, 37.237876], [-121.816854, 37.238101], [-121.816854, 37.238228], [-121.816855, 37.238612], [-121.816856, 37.23874], [-121.816854, 37.23882], [-121.816843, 37.238892], [-121.816841, 37.238902], [-121.816806, 37.239102], [-121.816796, 37.239342], [-121.816798, 37.239389], [-121.816803, 37.239484], [-121.816817, 37.239551], [-121.816839, 37.239628], [-121.816856, 37.239678], [-121.816991, 37.240055], [-121.817036, 37.240181], [-121.817096, 37.240356], [-121.817135, 37.240468], [-121.817234, 37.240893], [-121.817248, 37.240951], [-121.81728, 37.241073], [-121.8174, 37.241504], [-121.817403, 37.241513], [-121.817494, 37.241869], [-121.817543, 37.242114], [-121.817566, 37.242229], [-121.817582, 37.242333], [-121.817623, 37.242646], [-121.817638, 37.242826], [-121.817665, 37.243135], [-121.817677, 37.243273], [-121.817689, 37.243414], [-121.817178, 37.243405], [-121.816601, 37.243405], [-121.814926, 37.243388], [-121.814471, 37.243388], [-121.812292, 37.243356], [-121.812138, 37.243356], [-121.809373, 37.243332], [-121.808317, 37.243323], [-121.80754400000001, 37.243307], [-121.806739, 37.243299], [-121.805918, 37.24325], [-121.80544, 37.243206], [-121.8053, 37.243193], [-121.804634, 37.243111999999996], [-121.804056, 37.24302], [-121.804056, 37.243137], [-121.804056, 37.243394], [-121.804056, 37.244441], [-121.804045, 37.245625], [-121.803945, 37.245843], [-121.803944, 37.245867], [-121.803944, 37.245939], [-121.803944, 37.245964], [-121.80395, 37.246375], [-121.803968, 37.247608], [-121.803974, 37.24802], [-121.803978, 37.248322], [-121.803979, 37.248404], [-121.803984, 37.248675], [-121.803989, 37.249231], [-121.803993, 37.249534]]]}}, {"type": "Feature", "properties": {"AREA": "Trustee Area C2"}, "geometry": {"type": "Polygon", "coordinates": [[[-121.810163, 37.256431], [-121.810022, 37.25643], [-121.809599, 37.256433], [-121.809458, 37.256434], [-121.809421, 37.256434], [-121.809314, 37.256435], [-121.809278, 37.256436], [-121.809184, 37.256436], [-121.808905, 37.256437], [-121.808812, 37.256438], [-121.808651, 37.256438], [-121.808171, 37.256441], [-121.808011, 37.256442], [-121.807942, 37.256442], [-121.807852, 37.256443], [-121.807378, 37.256451], [-121.807272, 37.256453], [-121.80722, 37.256451], [-121.80715000000001, 37.256449], [-121.806986, 37.256449], [-121.806285, 37.256454], [-121.806207, 37.256455], [-121.806052, 37.256455], [-121.805992, 37.256454], [-121.805824, 37.256455], [-121.805231, 37.256461], [-121.805141, 37.256462], [-121.805001, 37.256464], [-121.804914, 37.256461], [-121.804792, 37.256448], [-121.804734, 37.256439], [-121.804556, 37.256361], [-121.804318, 37.256222], [-121.804215, 37.256147], [-121.804171, 37.256036], [-121.804138, 37.255799], [-121.803915, 37.255812], [-121.803796, 37.255802], [-121.80371, 37.255778], [-121.803608, 37.255739], [-121.80342, 37.255645], [-121.803206, 37.255516], [-121.803062, 37.255429], [-121.802968, 37.255372], [-121.802898, 37.25533], [-121.802732, 37.255439], [-121.80249, 37.255625], [-121.802356, 37.255759], [-121.802499, 37.255841], [-121.802379, 37.255934], [-121.802093, 37.256149], [-121.801804, 37.256356], [-121.801457, 37.256622], [-121.801213, 37.256774], [-121.800933, 37.256908], [-121.800513, 37.257077], [-121.800198, 37.257165], [-121.799956, 37.257206], [-121.799686, 37.25725], [-121.799178, 37.257321], [-121.79892, 37.257327], [-121.798112, 37.257327], [-121.797578, 37.257327], [-121.796704, 37.257338], [-121.796237, 37.25735], [-121.796305, 37.257397], [-121.796929, 37.257932], [-121.797048, 37.258034], [-121.797786, 37.258792], [-121.798033, 37.259106], [-121.798331, 37.259484], [-121.798879, 37.260152], [-121.799282, 37.260652], [-121.799745, 37.261373], [-121.800055, 37.262032], [-121.800252, 37.262386], [-121.800917, 37.264364], [-121.801158, 37.265096], [-121.801595, 37.26637], [-121.80187, 37.267183], [-121.803078, 37.271045], [-121.804317, 37.274786], [-121.80463, 37.275585], [-121.804979, 37.276449], [-121.805255, 37.276973], [-121.805333, 37.277121], [-121.805522, 37.277457], [-121.805664, 37.277491], [-121.805915, 37.277584], [-121.806101, 37.277655], [-121.806333, 37.277755], [-121.806464, 37.277812], [-121.806855, 37.278007], [-121.807188, 37.278179], [-121.807508, 37.278275], [-121.807829, 37.278316], [-121.808223, 37.27835], [-121.808348, 37.278384], [-121.808514, 37.278431], [-121.809028, 37.278598], [-121.809094, 37.278576], [-121.809548, 37.278488], [-121.810133, 37.278406], [-121.810167, 37.278404], [-121.810483, 37.278389], [-121.810979, 37.278444], [-121.811364, 37.278516], [-121.811755, 37.278571], [-121.812092, 37.278642], [-121.81225, 37.278714], [-121.812422, 37.27884], [-121.812539, 37.278972], [-121.812574, 37.27906], [-121.812642, 37.279213], [-121.812752, 37.279406], [-121.812807, 37.279521], [-121.812995, 37.279818], [-121.813082, 37.279955], [-121.813199, 37.280181], [-121.813254, 37.280323], [-121.813392, 37.280587], [-121.813481, 37.280864], [-121.813559, 37.28115], [-121.813586, 37.28125], [-121.813601, 37.281303], [-121.813642, 37.281453], [-121.813797, 37.281813], [-121.813848, 37.281899], [-121.814034, 37.282125], [-121.814179, 37.282358], [-121.814193, 37.282358], [-121.814411, 37.282375], [-121.814524, 37.282382], [-121.81499, 37.282418], [-121.815065, 37.282394], [-121.815159, 37.28237], [-121.815524, 37.2824], [-121.81644, 37.282439], [-121.817403, 37.282479], [-121.817636, 37.282489], [-121.818714, 37.282534], [-121.81875, 37.282572], [-121.819257, 37.282572], [-121.81925, 37.282498], [-121.819249, 37.282487], [-121.819248, 37.282378], [-121.819248, 37.282276], [-121.819248, 37.282203], [-121.819353, 37.282207], [-121.819629, 37.282219], [-121.819671, 37.282219], [-121.819777, 37.282222], [-121.819883, 37.282232], [-121.819983, 37.282243], [-121.820201, 37.28228], [-121.820303, 37.282315], [-121.820451, 37.282361], [-121.820549, 37.282392], [-121.8207, 37.282426], [-121.820911, 37.282438], [-121.821067, 37.282448], [-121.821245, 37.282455], [-121.821684, 37.282474], [-121.821782, 37.28247], [-121.821825, 37.282469], [-121.82196, 37.282451], [-121.822041, 37.282431], [-121.822105, 37.282417], [-121.822287, 37.282378], [-121.82237, 37.282365], [-121.822449, 37.282361], [-121.822574, 37.282356], [-121.822686, 37.282361], [-121.822765, 37.282365], [-121.822907, 37.282371], [-121.823229, 37.282386], [-121.823333, 37.282386], [-121.823476, 37.282388], [-121.823465, 37.282016], [-121.823459, 37.281768], [-121.823447, 37.281396], [-121.823431, 37.280903], [-121.823419, 37.280533], [-121.823413, 37.280344], [-121.823395, 37.27978], [-121.82339, 37.279592], [-121.823389, 37.279449], [-121.823388, 37.27918], [-121.823377, 37.279023], [-121.823353, 37.278884], [-121.823322, 37.278696], [-121.823316, 37.27861], [-121.823309, 37.278499], [-121.823305, 37.278313], [-121.8233, 37.27808], [-121.823295, 37.278023], [-121.82329, 37.277807], [-121.823274, 37.27765], [-121.823239, 37.277531], [-121.823178, 37.277512], [-121.82277, 37.277378], [-121.822686, 37.277352], [-121.822468, 37.277272], [-121.822399, 37.277227], [-121.822351, 37.277234], [-121.822166, 37.277058], [-121.822159, 37.276598], [-121.822141, 37.275711], [-121.82214, 37.275609], [-121.82213, 37.275247], [-121.822153, 37.273947], [-121.822117, 37.27347], [-121.822104, 37.273315], [-121.822124, 37.272989], [-121.822192, 37.27301], [-121.822298, 37.273043], [-121.822419, 37.27307], [-121.822474, 37.273067], [-121.822609, 37.273142], [-121.822774, 37.273202], [-121.823634, 37.273517], [-121.825192, 37.274082], [-121.826192, 37.274356], [-121.826835, 37.274525], [-121.827212, 37.274617], [-121.828038, 37.274661], [-121.82952, 37.275339], [-121.831002, 37.274034], [-121.831173, 37.273889], [-121.831086, 37.273821], [-121.830584, 37.273432], [-121.829501, 37.272705], [-121.82905, 37.272403], [-121.828611, 37.272078], [-121.827421, 37.271199], [-121.826899, 37.270838], [-121.826225, 37.270363], [-121.826061, 37.270246], [-121.825711, 37.269995], [-121.824342, 37.269095], [-121.822637, 37.267875], [-121.822106, 37.26743], [-121.82199, 37.267338], [-121.821502, 37.26702], [-121.820191, 37.266161], [-121.819009, 37.265462], [-121.819132, 37.26531], [-121.819172, 37.26525], [-121.819293, 37.265073], [-121.819334, 37.265014], [-121.819329, 37.26489], [-121.819342, 37.264678], [-121.819346, 37.264542], [-121.819351, 37.264424], [-121.819356, 37.264117], [-121.819373, 37.263298], [-121.819375, 37.263199], [-121.819384, 37.262894], [-121.81939, 37.262591], [-121.819404, 37.261874], [-121.819408, 37.261685], [-121.819415, 37.261383], [-121.819415, 37.261352], [-121.819417, 37.26126], [-121.819418, 37.26123], [-121.819421, 37.261029], [-121.819423, 37.260931], [-121.819416, 37.260693], [-121.819421, 37.260426], [-121.819425, 37.260226], [-121.819428, 37.260063], [-121.819438, 37.259576], [-121.819441, 37.259475], [-121.819438, 37.259414], [-121.819433, 37.259305], [-121.819424, 37.259083], [-121.819401, 37.258983], [-121.819358, 37.258884], [-121.819323, 37.258799], [-121.819282, 37.258697], [-121.819234, 37.258539999999996], [-121.819225, 37.25851], [-121.819211, 37.258452], [-121.81918, 37.25838], [-121.819173, 37.258364], [-121.819132, 37.258283], [-121.819067, 37.258183], [-121.819018, 37.258117], [-121.818925, 37.257996], [-121.818889, 37.257958], [-121.818852, 37.257918], [-121.818771, 37.25784], [-121.818675, 37.257759], [-121.818488, 37.257624], [-121.818414, 37.257572], [-121.818294, 37.257488], [-121.818248, 37.257455], [-121.818136, 37.257372], [-121.817885, 37.257106], [-121.817854, 37.257067], [-121.817826, 37.257032], [-121.817777, 37.256953], [-121.817724, 37.256858], [-121.817718, 37.256846], [-121.817692, 37.256791], [-121.817648, 37.256679], [-121.817624, 37.256602], [-121.817604, 37.256503], [-121.8176, 37.256482], [-121.817589, 37.256384], [-121.817394, 37.25638], [-121.817186, 37.256381], [-121.816617, 37.256384], [-121.816281, 37.256387], [-121.815977, 37.256389], [-121.815574, 37.256393], [-121.81538, 37.256394], [-121.814801, 37.256399], [-121.814608, 37.256401], [-121.814438, 37.256401], [-121.814362, 37.256402], [-121.813931, 37.256406], [-121.813762, 37.256408], [-121.813697, 37.256407], [-121.813582, 37.256407], [-121.813044, 37.25641], [-121.812865, 37.256411], [-121.812511, 37.256412], [-121.812095, 37.256415], [-121.811452, 37.256422], [-121.8111, 37.256426], [-121.810912, 37.256425], [-121.810718, 37.256425], [-121.81038, 37.256427], [-121.81035, 37.256428], [-121.810286, 37.256432], [-121.810163, 37.256431]]]}}, {"type": "Feature", "properties": {"AREA": "Trustee Area C3"}, "geometry": {"type": "Polygon", "coordinates": [[[-121.830637, 37.238792], [-121.830642, 37.23915], [-121.83066, 37.240226], [-121.830666, 37.240585], [-121.830667, 37.240726], [-121.830673, 37.241151], [-121.830675, 37.241293], [-121.830676, 37.241449], [-121.830677, 37.241595], [-121.830684, 37.241917], [-121.830688, 37.242074], [-121.830693, 37.242219], [-121.830695, 37.242261], [-121.8307, 37.242657], [-121.830703, 37.242803], [-121.830704, 37.242946], [-121.830708, 37.243375], [-121.83071, 37.243519], [-121.830712, 37.243659], [-121.830718, 37.244079], [-121.830721, 37.24422], [-121.830722, 37.244302], [-121.830728, 37.244549], [-121.830731, 37.244632], [-121.830732, 37.244773], [-121.83073, 37.244816], [-121.830723, 37.24497], [-121.830697, 37.245121], [-121.830622, 37.245359], [-121.830558, 37.245528], [-121.830521, 37.24579], [-121.830392, 37.246093], [-121.830091, 37.246892], [-121.830072, 37.246995], [-121.830032, 37.247161], [-121.830007, 37.247324], [-121.829988, 37.247493], [-121.829969, 37.247747], [-121.829969, 37.248048], [-121.830007, 37.248358], [-121.830072, 37.248668], [-121.830129, 37.248875], [-121.830195, 37.249072], [-121.830495, 37.249636], [-121.830501, 37.249771], [-121.830517, 37.249798], [-121.830698, 37.25015], [-121.83076, 37.250288], [-121.8308, 37.250416], [-121.830808, 37.250466], [-121.830823, 37.250555], [-121.83083, 37.25097], [-121.830838, 37.251288], [-121.830839, 37.25166], [-121.83084, 37.251698], [-121.830854, 37.252776], [-121.830859, 37.253149], [-121.83086, 37.253268], [-121.830863, 37.253433], [-121.830863, 37.253628], [-121.830864, 37.253749], [-121.830863, 37.253953], [-121.83085, 37.254087], [-121.830822, 37.254278], [-121.830818, 37.254565], [-121.830818, 37.254643], [-121.830811, 37.25477], [-121.830809, 37.254898], [-121.830809, 37.254921], [-121.830817, 37.255376], [-121.83082, 37.255528], [-121.83082, 37.255596], [-121.830823, 37.255802], [-121.830824, 37.255871], [-121.830825, 37.255949], [-121.830828, 37.256183], [-121.830829, 37.256262], [-121.830831, 37.256413], [-121.830837, 37.256867], [-121.83084, 37.257019], [-121.830841, 37.257059], [-121.830866, 37.257771], [-121.830902, 37.258072], [-121.830906, 37.258772], [-121.830907, 37.259042], [-121.83091, 37.260782], [-121.83091, 37.261332], [-121.830914, 37.261555], [-121.830908, 37.261688], [-121.830916, 37.26184], [-121.830942, 37.262298], [-121.830951, 37.262451], [-121.830969, 37.262799], [-121.830972, 37.262849], [-121.830981, 37.263113], [-121.830989, 37.263846], [-121.830994, 37.264195], [-121.830998, 37.264552], [-121.831015, 37.26476], [-121.83106, 37.265301], [-121.831072, 37.265588], [-121.831073, 37.265622], [-121.831087, 37.26598], [-121.830957, 37.265981], [-121.83057, 37.265986], [-121.830441, 37.265988], [-121.830231, 37.265991], [-121.830087, 37.265991], [-121.829025, 37.265999], [-121.828671, 37.266002], [-121.8285, 37.266002], [-121.82799, 37.266006], [-121.827976, 37.266007], [-121.827821, 37.266005], [-121.827658, 37.266005], [-121.82717, 37.266009], [-121.827008, 37.266011], [-121.826232, 37.266017], [-121.825481, 37.266069], [-121.825052, 37.266131], [-121.824621, 37.266222], [-121.824162, 37.26633], [-121.823373, 37.266552], [-121.823005, 37.266698], [-121.82266, 37.266928], [-121.822397, 37.267179], [-121.822283, 37.267287], [-121.822106, 37.26743], [-121.822637, 37.267875], [-121.824342, 37.269095], [-121.825711, 37.269995], [-121.826061, 37.270246], [-121.826225, 37.270363], [-121.826899, 37.270838], [-121.827421, 37.271199], [-121.828611, 37.272078], [-121.82905, 37.272403], [-121.829501, 37.272705], [-121.830584, 37.273432], [-121.831086, 37.273821], [-121.831173, 37.273889], [-121.831792, 37.274471], [-121.832175, 37.274825], [-121.833612, 37.276269], [-121.833828, 37.276491], [-121.834189, 37.276861], [-121.83524, 37.277823], [-121.835889, 37.278453999999996], [-121.836294, 37.278847], [-121.836584, 37.279132], [-121.836651, 37.279198], [-121.837354, 37.27989], [-121.837508, 37.27979], [-121.837577, 37.279746], [-121.83779, 37.279608], [-121.837842, 37.27958], [-121.837989, 37.279484], [-121.83922, 37.27869], [-121.839631, 37.278426], [-121.839846, 37.278288], [-121.840088, 37.278132], [-121.840241, 37.278034], [-121.840933, 37.277566], [-121.841446, 37.277231], [-121.84175, 37.277033], [-121.841897, 37.276928], [-121.842182, 37.276754], [-121.842556, 37.27651], [-121.84407, 37.275528], [-121.8443, 37.275394], [-121.844499, 37.275288], [-121.844541, 37.275268], [-121.844807, 37.275144], [-121.845142, 37.275005], [-121.845261, 37.274966], [-121.845654, 37.274849], [-121.845891, 37.274789], [-121.846119, 37.274746], [-121.846155, 37.27474], [-121.846456, 37.274698], [-121.846744, 37.274664], [-121.846977, 37.274645], [-121.84737200000001, 37.27463], [-121.847854, 37.27462], [-121.848629, 37.274594], [-121.848917, 37.274588], [-121.849677, 37.274574], [-121.84984, 37.274576], [-121.849828, 37.27428], [-121.849815, 37.273931], [-121.849799, 37.273394], [-121.849791, 37.273099], [-121.849788, 37.272902], [-121.849784, 37.272549], [-121.84978, 37.272409], [-121.849765, 37.272314], [-121.849757, 37.27226], [-121.84972, 37.272123], [-121.849664, 37.271968], [-121.849586, 37.271808], [-121.849443, 37.271529], [-121.849369, 37.271384], [-121.849301, 37.271251], [-121.849099, 37.270854], [-121.849032, 37.270722], [-121.848964, 37.270588], [-121.848762, 37.270189], [-121.848695, 37.270056], [-121.848628, 37.269923], [-121.848427, 37.269524], [-121.84836, 37.269392], [-121.848291, 37.269259], [-121.848087, 37.26886], [-121.848019, 37.268728], [-121.847949, 37.268589], [-121.84774, 37.268173], [-121.847671, 37.268035], [-121.847605, 37.267908], [-121.84741, 37.267529], [-121.847345, 37.267403], [-121.847278, 37.267271], [-121.847187, 37.267091], [-121.847079, 37.266876], [-121.847013, 37.266745], [-121.846923, 37.266569], [-121.846843, 37.266412], [-121.84666, 37.26604], [-121.846574, 37.265864], [-121.846393, 37.265533], [-121.846387, 37.265521], [-121.845978, 37.264715], [-121.845881, 37.264527], [-121.84571, 37.264192], [-121.84562, 37.264016], [-121.845501, 37.263823], [-121.846227, 37.260976], [-121.846416, 37.260412], [-121.847215, 37.258488], [-121.847925, 37.256367], [-121.848189, 37.255679], [-121.848301, 37.25539], [-121.848434, 37.255388], [-121.848461, 37.255262], [-121.848534, 37.255088], [-121.84872, 37.254565], [-121.849055, 37.253744], [-121.849537, 37.252589], [-121.849653, 37.252378], [-121.849651, 37.250502], [-121.849509, 37.250512], [-121.849478, 37.250513], [-121.849388, 37.25052], [-121.849358, 37.250522], [-121.848914, 37.250554], [-121.848837, 37.250555], [-121.848691, 37.250557], [-121.848227, 37.250558], [-121.847273, 37.250567], [-121.846752, 37.250573], [-121.846592, 37.250573], [-121.846183, 37.250576], [-121.846113, 37.250576], [-121.845954, 37.250576], [-121.845811, 37.250576], [-121.845383, 37.250576], [-121.845241, 37.250576], [-121.845066, 37.250579], [-121.844703, 37.250587], [-121.844544, 37.250589], [-121.84437, 37.250592], [-121.844008, 37.250595], [-121.842923, 37.250606], [-121.842562, 37.25061], [-121.84245, 37.250611], [-121.842114, 37.250614], [-121.842002, 37.250615], [-121.841963, 37.250615], [-121.841848, 37.250616], [-121.84181, 37.250617], [-121.841798, 37.250575], [-121.841812, 37.25047], [-121.841812, 37.250217], [-121.841846, 37.249944], [-121.841826, 37.249743], [-121.841798, 37.249655], [-121.841791, 37.24937], [-121.841831, 37.248948], [-121.841839, 37.248864], [-121.841839, 37.248512], [-121.841873, 37.248293], [-121.841921, 37.247419], [-121.841908, 37.247183], [-121.841956, 37.246996], [-121.841956, 37.246804], [-121.842003, 37.245842], [-121.842024, 37.2456], [-121.842093, 37.245447], [-121.842086, 37.245232], [-121.842161, 37.244969], [-121.842353, 37.244633], [-121.842443, 37.244452], [-121.842463, 37.244436], [-121.842491, 37.24437], [-121.842664, 37.244078], [-121.843439, 37.242749], [-121.843512, 37.242627], [-121.843583, 37.242507], [-121.843652, 37.24238], [-121.843755, 37.242243], [-121.844092, 37.241671], [-121.844345, 37.241243], [-121.844435, 37.241045], [-121.844544, 37.240908], [-121.844613, 37.240748], [-121.844819, 37.240424], [-121.844819, 37.239726], [-121.844784, 37.23921], [-121.844812, 37.238979], [-121.844804, 37.238516], [-121.844798, 37.238095], [-121.844763, 37.237935], [-121.844763, 37.237765], [-121.844743, 37.237578], [-121.844772, 37.237405], [-121.844667, 37.237385], [-121.8446, 37.237373], [-121.844357, 37.237311], [-121.844254, 37.237285], [-121.844075, 37.23724], [-121.843996, 37.237221], [-121.843542, 37.237121], [-121.843354, 37.237085], [-121.842731, 37.236978], [-121.842464, 37.23694], [-121.841943, 37.236886], [-121.84155, 37.236843], [-121.84112, 37.23681], [-121.840676, 37.236791], [-121.84059, 37.236789], [-121.840029, 37.236782], [-121.83962, 37.236789], [-121.839313, 37.236791], [-121.838693, 37.236798], [-121.838355, 37.236801], [-121.837343, 37.236812], [-121.837006, 37.236817], [-121.836882, 37.236818], [-121.836512, 37.236822], [-121.836389, 37.236824], [-121.836193, 37.236826], [-121.835605, 37.236832], [-121.835409, 37.236834], [-121.835271, 37.236835], [-121.83486, 37.23684], [-121.834723, 37.236842], [-121.834677, 37.236842], [-121.834538, 37.236843], [-121.834493, 37.236844], [-121.834361, 37.236845], [-121.833966, 37.23685], [-121.833835, 37.236852], [-121.833574, 37.236854], [-121.832794, 37.236862], [-121.832534, 37.236865], [-121.832148, 37.236868], [-121.830992, 37.23688], [-121.830935, 37.236881], [-121.830607, 37.236873], [-121.83061, 37.237118], [-121.830611, 37.237199], [-121.83062, 37.237695], [-121.830618, 37.237853], [-121.830618, 37.237945], [-121.830623, 37.238098], [-121.83063, 37.238221], [-121.83063, 37.238236], [-121.830635, 37.238653], [-121.830637, 37.238792]]]}}, {"type": "Feature", "properties": {"AREA": "Trustee Area C4"}, "geometry": {"type": "Polygon", "coordinates": [[[-121.779424, 37.208678], [-121.780242, 37.210648], [-121.780659, 37.211712], [-121.781207, 37.212085], [-121.781223, 37.212199], [-121.781254, 37.212433], [-121.780119, 37.214476], [-121.780718, 37.215286], [-121.78088, 37.215291], [-121.780835, 37.216533], [-121.780798, 37.216809], [-121.780769, 37.217332999999996], [-121.780723, 37.218955], [-121.78227, 37.218909], [-121.782295, 37.218995], [-121.782914, 37.220365], [-121.782865, 37.220447], [-121.782832, 37.220482], [-121.782734, 37.220589], [-121.782726, 37.220599], [-121.782703, 37.220627], [-121.782679, 37.220655], [-121.782611, 37.22074], [-121.782588, 37.220769], [-121.782814, 37.220938], [-121.782844, 37.220957], [-121.782896, 37.220991], [-121.783012, 37.221049], [-121.783196, 37.221115], [-121.783424, 37.221186], [-121.783743, 37.221267], [-121.783861, 37.221298], [-121.78405, 37.221352], [-121.784296, 37.221422], [-121.784848, 37.221581], [-121.784975, 37.221626], [-121.785029, 37.221649], [-121.785153, 37.221702], [-121.785262, 37.221755], [-121.785373, 37.221817], [-121.785535, 37.221925], [-121.785685, 37.22204], [-121.785779, 37.222125], [-121.785801, 37.222145], [-121.785906, 37.222222], [-121.786018, 37.222284], [-121.786951, 37.222646], [-121.787073, 37.222703], [-121.787449, 37.222938], [-121.787488, 37.222963], [-121.78754, 37.222998], [-121.787777, 37.22315], [-121.787901, 37.223226], [-121.788036, 37.223288], [-121.788106, 37.223312], [-121.788151, 37.223324], [-121.788237, 37.223348], [-121.78851, 37.223384], [-121.788631, 37.223401], [-121.788718, 37.223413], [-121.788813, 37.223426], [-121.788947, 37.223459], [-121.788976, 37.22347], [-121.789042, 37.223496], [-121.789058, 37.223504], [-121.789145, 37.223547], [-121.789217, 37.223584], [-121.789398, 37.223695], [-121.789482, 37.223746], [-121.789866, 37.223983], [-121.790002, 37.224067], [-121.790244, 37.224232], [-121.790486, 37.22439], [-121.790768, 37.224603], [-121.790855, 37.224685], [-121.790931, 37.22478], [-121.79094, 37.224795], [-121.790988, 37.224877], [-121.791031, 37.224986], [-121.791056, 37.225103], [-121.791062, 37.225168], [-121.791061, 37.225223], [-121.791024, 37.225666], [-121.79099, 37.226087], [-121.790987, 37.226197], [-121.791019, 37.226411], [-121.791024, 37.226535], [-121.790983, 37.226993], [-121.790979, 37.227047], [-121.79095, 37.227437], [-121.790945, 37.227494], [-121.79093, 37.227669], [-121.790926, 37.227727], [-121.790912, 37.227888], [-121.790874, 37.228371], [-121.790861, 37.228533], [-121.790852, 37.228636], [-121.790827, 37.228947], [-121.790819, 37.229051], [-121.790808, 37.229132], [-121.790792, 37.229209], [-121.790746, 37.229442], [-121.790701, 37.229608], [-121.790675, 37.229677], [-121.79067, 37.229693], [-121.790609, 37.229824], [-121.790555, 37.229917], [-121.790401, 37.23012], [-121.790298, 37.23023], [-121.789253, 37.231358], [-121.788905, 37.231735], [-121.788787, 37.23186], [-121.788489, 37.232181], [-121.78844, 37.232225], [-121.788429, 37.232232], [-121.788388, 37.232264], [-121.788286, 37.232328], [-121.788236, 37.232357], [-121.78809, 37.232427], [-121.788038, 37.232445], [-121.787987, 37.232463], [-121.78781, 37.232516], [-121.787652, 37.232575], [-121.787582, 37.232608], [-121.787474, 37.232671], [-121.787374, 37.232747], [-121.787311, 37.232808], [-121.787231, 37.232887], [-121.787122, 37.233007], [-121.787014, 37.233126], [-121.786659, 37.2335], [-121.786623, 37.233531], [-121.786569, 37.233569], [-121.786516, 37.233609], [-121.786394, 37.233675], [-121.786261, 37.233726], [-121.786111, 37.233764], [-121.785978, 37.233809], [-121.785854, 37.233868], [-121.785748, 37.233935], [-121.78565, 37.234015], [-121.785152, 37.234551], [-121.784739, 37.234995], [-121.784202, 37.235574], [-121.784403, 37.235695], [-121.785414, 37.2363], [-121.788145, 37.237934], [-121.789052, 37.238477], [-121.789497, 37.238744], [-121.789531, 37.23877], [-121.789564, 37.238812], [-121.789582, 37.238859], [-121.789584, 37.238871], [-121.78958, 37.238921], [-121.789559, 37.238969], [-121.789436, 37.239103], [-121.789276, 37.239293], [-121.789199, 37.239385], [-121.789152, 37.239455], [-121.789115, 37.23951], [-121.789099, 37.23954], [-121.789965, 37.239636], [-121.791242, 37.239812], [-121.792202, 37.239997], [-121.792757, 37.240139], [-121.79296, 37.240191], [-121.793679, 37.240398], [-121.79437, 37.240579], [-121.794925, 37.240729], [-121.795541, 37.240887], [-121.796105, 37.241037], [-121.796688, 37.241178], [-121.79758, 37.241424], [-121.798344, 37.241628], [-121.79865, 37.241704], [-121.798837, 37.241747], [-121.799997, 37.242185], [-121.800056, 37.242189], [-121.801826, 37.242788], [-121.801894, 37.242793], [-121.802621, 37.242931], [-121.803806, 37.24308], [-121.804056, 37.243137], [-121.804056, 37.24302], [-121.804634, 37.243111999999996], [-121.8053, 37.243193], [-121.80544, 37.243206], [-121.805918, 37.24325], [-121.806739, 37.243299], [-121.80754400000001, 37.243307], [-121.808317, 37.243323], [-121.809373, 37.243332], [-121.812138, 37.243356], [-121.812292, 37.243356], [-121.814471, 37.243388], [-121.814926, 37.243388], [-121.816601, 37.243405], [-121.817178, 37.243405], [-121.817689, 37.243414], [-121.817677, 37.243273], [-121.817665, 37.243135], [-121.817638, 37.242826], [-121.817623, 37.242646], [-121.817582, 37.242333], [-121.817566, 37.242229], [-121.817543, 37.242114], [-121.817494, 37.241869], [-121.817403, 37.241513], [-121.8174, 37.241504], [-121.81728, 37.241073], [-121.817248, 37.240951], [-121.817234, 37.240893], [-121.817135, 37.240468], [-121.817096, 37.240356], [-121.817036, 37.240181], [-121.816991, 37.240055], [-121.816856, 37.239678], [-121.816839, 37.239628], [-121.816817, 37.239551], [-121.816803, 37.239484], [-121.816798, 37.239389], [-121.816796, 37.239342], [-121.816806, 37.239102], [-121.816841, 37.238902], [-121.816843, 37.238892], [-121.816854, 37.23882], [-121.816856, 37.23874], [-121.816855, 37.238612], [-121.816854, 37.238228], [-121.816854, 37.238101], [-121.816849, 37.237876], [-121.816847, 37.237773], [-121.81685, 37.2372], [-121.816851, 37.237124], [-121.816856, 37.236976], [-121.816994, 37.23699], [-121.817026, 37.236994], [-121.817462, 37.237051], [-121.817535, 37.237063], [-121.817704, 37.237093], [-121.817865, 37.23712], [-121.818205, 37.237187], [-121.818305, 37.237209], [-121.818455, 37.237244], [-121.81848600000001, 37.237251], [-121.818582, 37.237272], [-121.818614, 37.23728], [-121.818682, 37.237296], [-121.818772, 37.237315], [-121.819092, 37.237383], [-121.819251, 37.237409], [-121.819412, 37.237436], [-121.819592, 37.237463], [-121.819817, 37.237497], [-121.820137, 37.237531], [-121.820175, 37.237536], [-121.82032, 37.237547], [-121.820494, 37.237561], [-121.821025, 37.237587], [-121.821193, 37.237587], [-121.821374, 37.237587], [-121.821414, 37.237588], [-121.821616, 37.237583], [-121.82192, 37.237575], [-121.822102, 37.237571], [-121.822442, 37.23756], [-121.823464, 37.237531], [-121.823805, 37.237522], [-121.82399, 37.237516], [-121.824549, 37.237501], [-121.824735, 37.237496], [-121.82492, 37.23749], [-121.825476, 37.237474], [-121.825662, 37.237469], [-121.825915, 37.237457], [-121.826227, 37.237431], [-121.826559, 37.237389], [-121.826655, 37.237372], [-121.826867, 37.237335], [-121.828188, 37.23704], [-121.828487, 37.236985], [-121.828869, 37.236935], [-121.829173, 37.23691], [-121.829515, 37.236897], [-121.829608, 37.236896], [-121.830235, 37.23689], [-121.830607, 37.236873], [-121.830935, 37.236881], [-121.830992, 37.23688], [-121.832148, 37.236868], [-121.832534, 37.236865], [-121.832794, 37.236862], [-121.833574, 37.236854], [-121.833835, 37.236852], [-121.833966, 37.23685], [-121.834361, 37.236845], [-121.834493, 37.236844], [-121.834538, 37.236843], [-121.834677, 37.236842], [-121.834723, 37.236842], [-121.83486, 37.23684], [-121.835271, 37.236835], [-121.835409, 37.236834], [-121.835605, 37.236832], [-121.836193, 37.236826], [-121.836389, 37.236824], [-121.836512, 37.236822], [-121.836882, 37.236818], [-121.837006, 37.236817], [-121.837343, 37.236812], [-121.838355, 37.236801], [-121.838693, 37.236798], [-121.839313, 37.236791], [-121.83962, 37.236789], [-121.840029, 37.236782], [-121.84059, 37.236789], [-121.840676, 37.236791], [-121.84112, 37.23681], [-121.84155, 37.236843], [-121.841943, 37.236886], [-121.842464, 37.23694], [-121.842731, 37.236978], [-121.843354, 37.237085], [-121.843542, 37.237121], [-121.843996, 37.237221], [-121.844075, 37.23724], [-121.844254, 37.237285], [-121.844357, 37.237311], [-121.8446, 37.237373], [-121.844667, 37.237385], [-121.844772, 37.237405], [-121.844834, 37.237258], [-121.844855, 37.236714], [-121.844856, 37.236625], [-121.844793, 37.235751], [-121.844785, 37.234422], [-121.844741, 37.232774], [-121.844754, 37.232339], [-121.844856, 37.232381], [-121.845297, 37.231606], [-121.845434, 37.231661], [-121.845812, 37.23165], [-121.845922, 37.231639], [-121.846166, 37.231639], [-121.84641, 37.231639], [-121.847084, 37.230368], [-121.847986, 37.229547], [-121.848109, 37.229471], [-121.849877, 37.228728], [-121.849603, 37.228523], [-121.849193, 37.228446], [-121.848237, 37.228201], [-121.847897, 37.22807], [-121.846988, 37.227714], [-121.846652, 37.227529], [-121.845971, 37.227169], [-121.845956, 37.227109], [-121.845935, 37.227022], [-121.845904, 37.22701], [-121.845727, 37.22693], [-121.845649, 37.226902], [-121.845457, 37.226845], [-121.845348, 37.22682], [-121.845118, 37.226788], [-121.844398, 37.226762], [-121.844329, 37.22676], [-121.844172, 37.22674], [-121.844028, 37.226708], [-121.843896, 37.226666], [-121.843764, 37.226611], [-121.84362899999999, 37.226537], [-121.843569, 37.226497], [-121.842796, 37.225925], [-121.842707, 37.225858], [-121.842419, 37.225643], [-121.842299, 37.225553], [-121.842047, 37.225365], [-121.841993, 37.225321], [-121.841949, 37.225274], [-121.84192, 37.225243], [-121.84186, 37.225155], [-121.841844, 37.225121], [-121.841814, 37.225057], [-121.841804, 37.225018], [-121.841795, 37.224983], [-121.841788, 37.224954], [-121.841781, 37.224859], [-121.841789, 37.224765], [-121.841794, 37.224717], [-121.841814, 37.224569], [-121.841819, 37.224548], [-121.841577, 37.224681], [-121.840778, 37.225121], [-121.840743, 37.225373], [-121.840148, 37.229562], [-121.839428, 37.229558], [-121.838714, 37.229559], [-121.838494, 37.229421], [-121.838351, 37.229245], [-121.838136, 37.228981], [-121.837992, 37.228937], [-121.837518, 37.229075], [-121.83736, 37.229053], [-121.837154, 37.22897], [-121.837084, 37.228909], [-121.836975, 37.228816], [-121.836756, 37.228553], [-121.836583, 37.228344], [-121.836439, 37.228229], [-121.836164, 37.228223], [-121.835834, 37.228311], [-121.835642, 37.228322], [-121.835166, 37.228191], [-121.835003, 37.22807], [-121.834893, 37.227905], [-121.834879, 37.227745], [-121.834968, 37.227515], [-121.835154, 37.227229], [-121.835243, 37.227163], [-121.835415, 37.226993], [-121.835435, 37.226883], [-121.835346, 37.226734], [-121.835078, 37.226641], [-121.834583, 37.226564], [-121.834149, 37.226559], [-121.834109, 37.226559], [-121.834034, 37.22663], [-121.8338, 37.226685], [-121.833766, 37.226718], [-121.833553, 37.226713], [-121.833195, 37.226674], [-121.83312, 37.226652], [-121.832886, 37.226504], [-121.832749, 37.226383], [-121.832474, 37.226317], [-121.832199, 37.226164], [-121.832123, 37.226136], [-121.832077, 37.22613], [-121.831787, 37.226098], [-121.831691, 37.226136], [-121.831643, 37.226196], [-121.831567, 37.226515], [-121.83143, 37.226724], [-121.831169, 37.226856], [-121.83077, 37.226971], [-121.830358, 37.227015], [-121.830145, 37.226933], [-121.82972, 37.226234], [-121.829753, 37.226171], [-121.829627, 37.226221], [-121.82948, 37.226313], [-121.82931, 37.226402], [-121.829111, 37.226435], [-121.828915, 37.226365], [-121.828748, 37.226154], [-121.828663, 37.22601], [-121.828666, 37.225945], [-121.828619, 37.2259], [-121.828489, 37.225873], [-121.828399, 37.225873], [-121.828327, 37.225894], [-121.828193, 37.225933], [-121.828035, 37.225944], [-121.827767, 37.2259], [-121.82752, 37.225834], [-121.827417, 37.225834], [-121.827341, 37.225867], [-121.827295, 37.226006], [-121.827284, 37.22618], [-121.82735, 37.226317], [-121.827528, 37.226491], [-121.82762, 37.226653], [-121.82785, 37.226834], [-121.827994, 37.226968], [-121.828046, 37.227189], [-121.827975, 37.227441], [-121.827938, 37.227733], [-121.827387, 37.227833], [-121.827154, 37.227881], [-121.827036, 37.228007], [-121.826933, 37.228069], [-121.82674, 37.228132], [-121.826489, 37.228332], [-121.826071, 37.228672], [-121.825789, 37.22867], [-121.825617, 37.228653], [-121.825404, 37.228576], [-121.82533, 37.228484], [-121.825273, 37.228411], [-121.825177, 37.228126], [-121.825102, 37.228027], [-121.824978, 37.228005], [-121.824868, 37.228038], [-121.824816, 37.22806], [-121.824703, 37.228109], [-121.824676, 37.228159], [-121.82449, 37.228274], [-121.824236, 37.22834], [-121.824172, 37.228378], [-121.823732, 37.228648], [-121.823714, 37.228659], [-121.823619, 37.228679], [-121.823459, 37.228714], [-121.823269, 37.228704], [-121.823152, 37.228699], [-121.823109, 37.228697], [-121.822903, 37.22862], [-121.82212, 37.228137], [-121.821879, 37.228054], [-121.821714, 37.228093], [-121.821646, 37.22813], [-121.821589, 37.228162], [-121.82138, 37.223308], [-121.820497, 37.223302], [-121.820491, 37.222673], [-121.820793, 37.222673], [-121.820774, 37.222308], [-121.819794, 37.221504], [-121.819556, 37.221495], [-121.819039, 37.221751], [-121.818183, 37.221764], [-121.817406, 37.221507], [-121.815847, 37.221018], [-121.81584, 37.2207], [-121.815836, 37.22046], [-121.815832, 37.220236], [-121.815829, 37.220168], [-121.814774, 37.220046], [-121.813331, 37.219198], [-121.812522, 37.219237], [-121.812542, 37.218915], [-121.811541, 37.217545], [-121.811447, 37.217521], [-121.811248, 37.217471], [-121.807107, 37.216424], [-121.806563, 37.216283], [-121.805357, 37.216149], [-121.805279, 37.215886], [-121.80526, 37.215847], [-121.804647, 37.213936], [-121.803287, 37.212821], [-121.8032, 37.212748], [-121.80164, 37.211469], [-121.8012, 37.211247], [-121.801152, 37.211347], [-121.80064, 37.211736], [-121.798627, 37.213266], [-121.797425, 37.214233], [-121.795555, 37.215738], [-121.793603, 37.215473], [-121.792075, 37.215281], [-121.790843, 37.214709], [-121.790272, 37.211422], [-121.788809, 37.211386], [-121.788144, 37.211313], [-121.786802, 37.21112], [-121.786947, 37.209886], [-121.781953, 37.208387], [-121.779692, 37.207734], [-121.779263, 37.208345], [-121.779424, 37.208678]]]}}, {"type": "Feature", "properties": {"AREA": "Trustee Area C5"}, "geometry": {"type": "Polygon", "coordinates": [[[-121.775338, 37.228546], [-121.775111, 37.228798], [-121.774504, 37.229478], [-121.774432, 37.229555], [-121.774203, 37.229805], [-121.773891, 37.230141], [-121.772956, 37.231149], [-121.772907, 37.231202], [-121.772805, 37.231314], [-121.772677, 37.23147], [-121.772658, 37.231497], [-121.772454, 37.231669], [-121.77205, 37.232013], [-121.772027, 37.23202], [-121.771978, 37.232046], [-121.771848, 37.232183], [-121.771666, 37.232378], [-121.77162, 37.232425], [-121.771504, 37.232556], [-121.771027, 37.2331], [-121.771006, 37.233125], [-121.770866, 37.233279], [-121.770827, 37.233317], [-121.770763, 37.233385], [-121.77046, 37.233709], [-121.77036, 37.233818], [-121.770255, 37.233927], [-121.770074, 37.234119], [-121.769937, 37.23425], [-121.769829, 37.234355], [-121.76962, 37.234557], [-121.769483, 37.234703], [-121.7693, 37.234901], [-121.76926, 37.235043], [-121.768961, 37.235248], [-121.768706, 37.235438], [-121.768882, 37.235536], [-121.768767, 37.235665], [-121.768178, 37.236324], [-121.767463, 37.237101], [-121.767294, 37.237306], [-121.766691, 37.237875], [-121.766245, 37.23839], [-121.766194, 37.23844], [-121.765889, 37.238803], [-121.765647, 37.239009], [-121.765468, 37.239267], [-121.765251, 37.239151], [-121.765168, 37.238957], [-121.764936, 37.239181], [-121.764936, 37.239009], [-121.764937, 37.238493], [-121.764938, 37.238322], [-121.764939, 37.23801], [-121.764974, 37.237872], [-121.764947, 37.237563], [-121.764892, 37.2369], [-121.764873, 37.236758], [-121.764682, 37.236441], [-121.76463, 37.236215], [-121.764602, 37.236169], [-121.76452, 37.236034], [-121.76424, 37.23579], [-121.764123, 37.235707], [-121.763984, 37.235636], [-121.763361, 37.235322], [-121.763296, 37.235309], [-121.762753, 37.235054], [-121.761349, 37.234394], [-121.761218, 37.234332], [-121.760818, 37.234145], [-121.760122, 37.233819], [-121.757944, 37.232768], [-121.756923, 37.232461], [-121.75615, 37.232222], [-121.754808, 37.231802], [-121.754674, 37.231768], [-121.753532, 37.231414], [-121.753207, 37.230726], [-121.752384, 37.228957], [-121.751705, 37.227512], [-121.751699, 37.227389], [-121.751498, 37.227046], [-121.751409, 37.226855], [-121.751015, 37.226663], [-121.750861, 37.226752], [-121.750803, 37.226686], [-121.750693, 37.226751], [-121.750591, 37.226812], [-121.750524, 37.22686], [-121.750473, 37.226898], [-121.750375, 37.226965], [-121.75027, 37.227038], [-121.750234, 37.227062], [-121.750126, 37.227137], [-121.750091, 37.227162], [-121.749486, 37.227576], [-121.749185, 37.227783], [-121.749062, 37.227872], [-121.748502, 37.228151], [-121.74827, 37.228088], [-121.74727, 37.228662], [-121.747507, 37.2287], [-121.74679, 37.229087], [-121.746458, 37.229265], [-121.745991, 37.229577], [-121.742858, 37.231207], [-121.738689, 37.233381], [-121.735238, 37.235178], [-121.734266, 37.235513], [-121.724578, 37.241898], [-121.723719, 37.241225], [-121.720273, 37.238527], [-121.719881, 37.238155], [-121.719478, 37.237801], [-121.718394, 37.236918], [-121.718467, 37.236899], [-121.71929, 37.236537], [-121.718538, 37.235765], [-121.717947, 37.236358], [-121.717687, 37.23657], [-121.717352, 37.236918], [-121.713019, 37.241061], [-121.713261, 37.241044], [-121.714474, 37.242063], [-121.724082, 37.249775], [-121.730847, 37.255124], [-121.733402, 37.257211], [-121.735764, 37.258865], [-121.739639, 37.261576], [-121.74236, 37.262895], [-121.743407, 37.263403], [-121.745021, 37.264195], [-121.745148, 37.264268], [-121.74807, 37.266484], [-121.748352, 37.266698], [-121.74906, 37.267232], [-121.75155, 37.269122], [-121.752494, 37.26911], [-121.756661, 37.269183], [-121.756895, 37.268914], [-121.757526, 37.268582], [-121.761746, 37.268686], [-121.763109, 37.268719], [-121.765656, 37.268791], [-121.782327, 37.269265], [-121.78408, 37.269311], [-121.785894, 37.269356], [-121.786783, 37.269386], [-121.786971, 37.269666], [-121.787008, 37.269787], [-121.787029, 37.269797], [-121.787109, 37.269865], [-121.788041, 37.271223], [-121.788579, 37.271997], [-121.788957, 37.272487], [-121.789323, 37.272998], [-121.789631, 37.273433], [-121.789813, 37.273687], [-121.789931, 37.273868], [-121.790124, 37.274146], [-121.790278, 37.274376], [-121.790384, 37.274512], [-121.790475, 37.274669], [-121.790644, 37.274938], [-121.790747, 37.275114], [-121.790831, 37.275278], [-121.790992, 37.275497], [-121.791079, 37.275591], [-121.791157, 37.275701], [-121.79117, 37.275754], [-121.791209, 37.275776], [-121.791409, 37.276066], [-121.79149, 37.276184], [-121.79153, 37.27628], [-121.791566, 37.276341], [-121.791608, 37.276347], [-121.791657, 37.27641], [-121.79169, 37.276498], [-121.791796, 37.276634], [-121.792219, 37.277257], [-121.792397, 37.277496], [-121.792663, 37.277901], [-121.793289, 37.278946], [-121.793455, 37.279225], [-121.796424, 37.279463], [-121.797052, 37.279512], [-121.797681, 37.279475], [-121.798479, 37.279438999999996], [-121.798839, 37.279426], [-121.801623, 37.279318], [-121.802306, 37.279294], [-121.802552, 37.279283], [-121.802588, 37.27928], [-121.802777, 37.279121], [-121.80289, 37.279039], [-121.802935, 37.27899], [-121.803348, 37.278645], [-121.803668, 37.278377], [-121.803885, 37.278193], [-121.804997, 37.277267], [-121.805522, 37.277457], [-121.805333, 37.277121], [-121.805255, 37.276973], [-121.804979, 37.276449], [-121.80463, 37.275585], [-121.804317, 37.274786], [-121.803078, 37.271045], [-121.80187, 37.267183], [-121.801595, 37.26637], [-121.801158, 37.265096], [-121.800917, 37.264364], [-121.800252, 37.262386], [-121.800055, 37.262032], [-121.799745, 37.261373], [-121.799282, 37.260652], [-121.798879, 37.260152], [-121.798331, 37.259484], [-121.798033, 37.259106], [-121.797786, 37.258792], [-121.797048, 37.258034], [-121.796929, 37.257932], [-121.796305, 37.257397], [-121.796237, 37.25735], [-121.796704, 37.257338], [-121.797578, 37.257327], [-121.798112, 37.257327], [-121.79892, 37.257327], [-121.799178, 37.257321], [-121.799686, 37.25725], [-121.799956, 37.257206], [-121.800198, 37.257165], [-121.800513, 37.257077], [-121.800933, 37.256908], [-121.801213, 37.256774], [-121.801457, 37.256622], [-121.801804, 37.256356], [-121.802093, 37.256149], [-121.802379, 37.255934], [-121.802499, 37.255841], [-121.802356, 37.255759], [-121.80249, 37.255625], [-121.802732, 37.255439], [-121.802898, 37.25533], [-121.802247, 37.254937], [-121.8022, 37.254908], [-121.803204, 37.253887], [-121.80332, 37.253769], [-121.803387, 37.253695], [-121.803586, 37.253476], [-121.803753, 37.253221], [-121.803908, 37.252935], [-121.804014, 37.252666], [-121.804071, 37.25247], [-121.804096, 37.252128], [-121.804096, 37.251745], [-121.804024, 37.251476], [-121.804022, 37.251173], [-121.804017, 37.251126], [-121.804016, 37.251087], [-121.804001, 37.249922], [-121.803997, 37.249588], [-121.803993, 37.249534], [-121.803989, 37.249231], [-121.803984, 37.248675], [-121.803979, 37.248404], [-121.803978, 37.248322], [-121.803974, 37.24802], [-121.803968, 37.247608], [-121.80395, 37.246375], [-121.803944, 37.245964], [-121.803944, 37.245939], [-121.803944, 37.245867], [-121.803945, 37.245843], [-121.804045, 37.245625], [-121.804056, 37.244441], [-121.804056, 37.243394], [-121.804056, 37.243137], [-121.803806, 37.24308], [-121.802621, 37.242931], [-121.801894, 37.242793], [-121.801826, 37.242788], [-121.800056, 37.242189], [-121.799997, 37.242185], [-121.798837, 37.241747], [-121.79865, 37.241704], [-121.798344, 37.241628], [-121.79758, 37.241424], [-121.796688, 37.241178], [-121.796105, 37.241037], [-121.795541, 37.240887], [-121.794925, 37.240729], [-121.79437, 37.240579], [-121.793679, 37.240398], [-121.79296, 37.240191], [-121.792757, 37.240139], [-121.792202, 37.239997], [-121.791242, 37.239812], [-121.789965, 37.239636], [-121.789099, 37.23954], [-121.789115, 37.23951], [-121.789152, 37.239455], [-121.789199, 37.239385], [-121.789276, 37.239293], [-121.789436, 37.239103], [-121.789559, 37.238969], [-121.78958, 37.238921], [-121.789584, 37.238871], [-121.789582, 37.238859], [-121.789564, 37.238812], [-121.789531, 37.23877], [-121.789497, 37.238744], [-121.789052, 37.238477], [-121.788145, 37.237934], [-121.785414, 37.2363], [-121.784403, 37.235695], [-121.784202, 37.235574], [-121.784739, 37.234995], [-121.785152, 37.234551], [-121.78565, 37.234015], [-121.785748, 37.233935], [-121.785854, 37.233868], [-121.785978, 37.233809], [-121.786111, 37.233764], [-121.786261, 37.233726], [-121.786394, 37.233675], [-121.786516, 37.233609], [-121.786569, 37.233569], [-121.786623, 37.233531], [-121.786659, 37.2335], [-121.787014, 37.233126], [-121.787122, 37.233007], [-121.787231, 37.232887], [-121.787311, 37.232808], [-121.787374, 37.232747], [-121.787474, 37.232671], [-121.787582, 37.232608], [-121.787652, 37.232575], [-121.78781, 37.232516], [-121.787987, 37.232463], [-121.788038, 37.232445], [-121.78809, 37.232427], [-121.788236, 37.232357], [-121.788286, 37.232328], [-121.788388, 37.232264], [-121.788429, 37.232232], [-121.78844, 37.232225], [-121.788489, 37.232181], [-121.788787, 37.23186], [-121.788905, 37.231735], [-121.789253, 37.231358], [-121.790298, 37.23023], [-121.790401, 37.23012], [-121.790555, 37.229917], [-121.790609, 37.229824], [-121.79067, 37.229693], [-121.790675, 37.229677], [-121.790701, 37.229608], [-121.790746, 37.229442], [-121.790792, 37.229209], [-121.790808, 37.229132], [-121.790819, 37.229051], [-121.790827, 37.228947], [-121.790852, 37.228636], [-121.790861, 37.228533], [-121.790874, 37.228371], [-121.790912, 37.227888], [-121.790926, 37.227727], [-121.79093, 37.227669], [-121.790945, 37.227494], [-121.79095, 37.227437], [-121.790979, 37.227047], [-121.790983, 37.226993], [-121.791024, 37.226535], [-121.791019, 37.226411], [-121.790987, 37.226197], [-121.79099, 37.226087], [-121.791024, 37.225666], [-121.791061, 37.225223], [-121.791062, 37.225168], [-121.791056, 37.225103], [-121.791031, 37.224986], [-121.790988, 37.224877], [-121.79094, 37.224795], [-121.790931, 37.22478], [-121.790855, 37.224685], [-121.790768, 37.224603], [-121.790486, 37.22439], [-121.790244, 37.224232], [-121.790002, 37.224067], [-121.789866, 37.223983], [-121.789482, 37.223746], [-121.789398, 37.223695], [-121.789217, 37.223584], [-121.789145, 37.223547], [-121.789058, 37.223504], [-121.789042, 37.223496], [-121.788976, 37.22347], [-121.788947, 37.223459], [-121.788813, 37.223426], [-121.788718, 37.223413], [-121.788631, 37.223401], [-121.78851, 37.223384], [-121.788237, 37.223348], [-121.788151, 37.223324], [-121.788106, 37.223312], [-121.788036, 37.223288], [-121.787901, 37.223226], [-121.787777, 37.22315], [-121.78754, 37.222998], [-121.787488, 37.222963], [-121.787449, 37.222938], [-121.787073, 37.222703], [-121.786951, 37.222646], [-121.786018, 37.222284], [-121.785906, 37.222222], [-121.785801, 37.222145], [-121.785779, 37.222125], [-121.785685, 37.22204], [-121.785535, 37.221925], [-121.785373, 37.221817], [-121.785262, 37.221755], [-121.785153, 37.221702], [-121.785029, 37.221649], [-121.784975, 37.221626], [-121.784848, 37.221581], [-121.784296, 37.221422], [-121.78405, 37.221352], [-121.783861, 37.221298], [-121.783743, 37.221267], [-121.783424, 37.221186], [-121.783196, 37.221115], [-121.783012, 37.221049], [-121.782896, 37.220991], [-121.782844, 37.220957], [-121.782814, 37.220938], [-121.782588, 37.220769], [-121.782542, 37.220825], [-121.782381, 37.220984], [-121.782176, 37.221188], [-121.781956, 37.22143], [-121.781925, 37.221465], [-121.781273, 37.222152], [-121.780093, 37.223425], [-121.780081, 37.223437], [-121.779456, 37.224106], [-121.779399, 37.224165], [-121.77923, 37.224346], [-121.779174, 37.224406], [-121.779138, 37.224443], [-121.779076, 37.22451], [-121.779026, 37.224551], [-121.778987, 37.224585], [-121.778891, 37.224667], [-121.778846, 37.224714], [-121.778454, 37.225136], [-121.778324, 37.225277], [-121.778264, 37.225341], [-121.778085, 37.225533], [-121.778026, 37.225598], [-121.777965, 37.225663], [-121.777782, 37.225859], [-121.777722, 37.225925], [-121.777629, 37.226023], [-121.777353, 37.226321], [-121.777262, 37.226421], [-121.777179, 37.22651], [-121.776965, 37.226741], [-121.776929, 37.226777], [-121.776844, 37.226864], [-121.776668, 37.227054], [-121.776539, 37.227197], [-121.775891, 37.227927], [-121.775638, 37.228209], [-121.775338, 37.228546]]]}}]}