{"type": "FeatureCollection", "features": [{"type": "Feature", "properties": {"DISTRICT": "1", "NAME": ""}, "geometry": {"type": "Polygon", "coordinates": [[[-122.06144, 37.33754], [-122.061307, 37.33754], [-122.06091, 37.33754], [-122.060778, 37.33754], [-122.060668, 37.33754], [-122.060339, 37.33754], [-122.06023, 37.33754], [-122.060205, 37.337539], [-122.060133, 37.337538], [-122.060109, 37.337538], [-122.060033, 37.337536], [-122.059805, 37.337531], [-122.05973, 37.33753], [-122.059714, 37.33753], [-122.059666, 37.33753], [-122.059651, 37.33753], [-122.059584, 37.33753], [-122.059586, 37.337929], [-122.059607, 37.338326], [-122.059521, 37.338327], [-122.05925, 37.33833], [-122.05919, 37.33823], [-122.05913, 37.33817], [-122.05896, 37.33808], [-122.05835, 37.3379], [-122.058181, 37.337866], [-122.0581, 37.33785], [-122.05796, 37.33777], [-122.05794, 37.33771], [-122.0579, 37.33762], [-122.05789, 37.33752], [-122.05788, 37.33745], [-122.05789, 37.337084], [-122.057896, 37.336933], [-122.057897, 37.336918], [-122.0579, 37.336897], [-122.057903, 37.336878], [-122.057909, 37.336848], [-122.057926, 37.336802], [-122.057935, 37.336778], [-122.057967, 37.336725], [-122.057997, 37.336685], [-122.058021, 37.33666], [-122.058048, 37.336635], [-122.058067, 37.336619], [-122.058118, 37.336583], [-122.058182, 37.336549], [-122.058334, 37.336466], [-122.058498, 37.336376], [-122.058567, 37.336344], [-122.05855, 37.336089], [-122.058408, 37.335855], [-122.058347, 37.335506], [-122.0583, 37.33523], [-122.05798, 37.334987], [-122.05793, 37.33495], [-122.05753, 37.33461], [-122.057283, 37.33441], [-122.057323, 37.334397], [-122.057331, 37.334131], [-122.057338, 37.333867], [-122.057347, 37.333462], [-122.057346, 37.333426], [-122.057347, 37.333266], [-122.057354, 37.332538], [-122.057357, 37.332321], [-122.057356, 37.332299], [-122.057355, 37.332147], [-122.05739, 37.33213], [-122.057358, 37.332106], [-122.057363, 37.331608], [-122.057329, 37.331601], [-122.05691, 37.33151], [-122.056738, 37.331464], [-122.05631, 37.33135], [-122.056053, 37.331258], [-122.05578, 37.33116], [-122.05536, 37.33098], [-122.05492, 37.33078], [-122.05461, 37.33062], [-122.054129, 37.330319], [-122.05405, 37.33027], [-122.05399, 37.330226], [-122.053691, 37.330228], [-122.053599, 37.330229], [-122.053363, 37.33023], [-122.052754, 37.330231], [-122.052758, 37.33044], [-122.052759, 37.330517], [-122.052761, 37.330717], [-122.05268, 37.330723], [-122.052586, 37.330731], [-122.052478, 37.330737], [-122.052488, 37.330814], [-122.052495, 37.330919], [-122.052492, 37.331008], [-122.052485, 37.331097], [-122.052468, 37.331191], [-122.052653, 37.331198], [-122.052708, 37.3312], [-122.052747, 37.331201], [-122.052752, 37.331855], [-122.052452, 37.331864], [-122.052398, 37.331866], [-122.052116, 37.331877], [-122.051867, 37.332104], [-122.051014, 37.332772], [-122.051017, 37.332925], [-122.051024, 37.333285], [-122.051028, 37.333498], [-122.051031, 37.333653], [-122.051034, 37.33384], [-122.051, 37.334113], [-122.050872, 37.335485], [-122.050829, 37.335491], [-122.050825, 37.335905], [-122.050826, 37.336105], [-122.050818, 37.336182], [-122.050806, 37.336296], [-122.050775, 37.336441], [-122.050725, 37.336595], [-122.05067, 37.336718], [-122.050627, 37.33681], [-122.050538, 37.336962], [-122.050534, 37.337454], [-122.050534, 37.33754], [-122.050247, 37.33754], [-122.05006, 37.33754], [-122.04993, 37.33754], [-122.04927, 37.33754], [-122.0469, 37.33754], [-122.04611, 37.33754], [-122.045826, 37.33754], [-122.04526, 37.33754], [-122.044975, 37.337543], [-122.044867, 37.337544], [-122.044865, 37.33747], [-122.044862, 37.33733], [-122.044856, 37.337083], [-122.044856, 37.337006], [-122.044856, 37.33674], [-122.04484, 37.33548], [-122.04485, 37.33496], [-122.044842, 37.334808], [-122.044828, 37.33438], [-122.044827, 37.334306], [-122.044826, 37.3342], [-122.044825, 37.333942], [-122.044642, 37.333943], [-122.044397, 37.333944], [-122.044274, 37.333941], [-122.044086, 37.333936], [-122.043941, 37.333932], [-122.043694, 37.333926], [-122.043694, 37.334007], [-122.043695, 37.334204], [-122.043697, 37.33438], [-122.043699, 37.334612], [-122.043699, 37.334849], [-122.043699, 37.335082], [-122.0437, 37.335408], [-122.0437, 37.335857], [-122.0437, 37.336131], [-122.043707, 37.33747], [-122.043708, 37.337554], [-122.04329, 37.337558], [-122.04312, 37.33756], [-122.04287, 37.33756], [-122.042797, 37.33756], [-122.04213, 37.33757], [-122.041832, 37.33757], [-122.04151, 37.33757], [-122.04152, 37.33794], [-122.041508, 37.338501], [-122.0415, 37.33888], [-122.0415, 37.33948], [-122.04149, 37.34056], [-122.041498, 37.34118], [-122.0415, 37.34126], [-122.0415, 37.341298], [-122.0415, 37.34184], [-122.04152, 37.34223], [-122.041527, 37.342381], [-122.04153, 37.34243], [-122.041522, 37.342837], [-122.04152, 37.34299], [-122.04152, 37.34335], [-122.04152, 37.34443], [-122.04152, 37.34479], [-122.041515, 37.345163], [-122.04151, 37.3456], [-122.04151, 37.346285], [-122.04151, 37.34666], [-122.041507, 37.346964], [-122.0415, 37.34778], [-122.041502, 37.347876], [-122.04151, 37.34818], [-122.04151, 37.34866], [-122.04151, 37.348675], [-122.04153, 37.34949], [-122.041522, 37.350162], [-122.04152, 37.35043], [-122.041522, 37.350658], [-122.041524, 37.35094], [-122.04153, 37.35155], [-122.041534, 37.351787], [-122.04154, 37.35207], [-122.04141, 37.35207], [-122.04129, 37.352067], [-122.04089, 37.35206], [-122.04054, 37.35206], [-122.04029, 37.35206], [-122.039975, 37.35206], [-122.03989, 37.35206], [-122.039497, 37.352066], [-122.039033, 37.352074], [-122.03872, 37.35208], [-122.038607, 37.352081], [-122.038271, 37.352087], [-122.03816, 37.352089], [-122.03807, 37.35209], [-122.038054, 37.35209], [-122.038022, 37.35209], [-122.037736, 37.35209], [-122.03763, 37.35209], [-122.037411, 37.352088], [-122.036757, 37.352082], [-122.03654, 37.35208], [-122.036339, 37.35208], [-122.03574, 37.35208], [-122.03554, 37.35207], [-122.035329, 37.352064], [-122.0347, 37.352046], [-122.03449, 37.35204], [-122.034292, 37.352031], [-122.03405, 37.35202], [-122.033699, 37.35202], [-122.033502, 37.35202], [-122.033344, 37.35202], [-122.03315, 37.35202], [-122.032871, 37.352027], [-122.032714, 37.352032], [-122.032655, 37.352033], [-122.032478, 37.352038], [-122.03242, 37.35204], [-122.03241, 37.35212], [-122.03241, 37.35219], [-122.032403, 37.352537], [-122.032373, 37.35403], [-122.03237, 37.3542], [-122.032386, 37.354528], [-122.032392, 37.354672], [-122.032413, 37.355105], [-122.03242, 37.35525], [-122.032425, 37.355428], [-122.032427, 37.355489], [-122.03244, 37.35585], [-122.032436, 37.356067], [-122.032434, 37.356206], [-122.032432, 37.356378], [-122.032431, 37.356422], [-122.03243, 37.356512], [-122.032427, 37.356635], [-122.032419, 37.357155], [-122.032419, 37.357202], [-122.032416, 37.357392], [-122.03241, 37.357703], [-122.03241, 37.35776], [-122.032373, 37.358638], [-122.03236, 37.35895], [-122.03236, 37.35903], [-122.032351, 37.359197], [-122.03235, 37.35923], [-122.03235, 37.359941], [-122.03235, 37.36019], [-122.032348, 37.360475], [-122.032346, 37.361331], [-122.032345, 37.361617], [-122.032343, 37.361901], [-122.032341, 37.362755], [-122.03234, 37.36304], [-122.03234, 37.3631], [-122.032362, 37.363278], [-122.03237, 37.36334], [-122.0324, 37.3635], [-122.0325, 37.36373], [-122.032611, 37.363945], [-122.03267, 37.36406], [-122.03274, 37.364146], [-122.03284, 37.36427], [-122.03299, 37.36419], [-122.03328, 37.36408], [-122.03333, 37.36412], [-122.033166, 37.364204], [-122.032994, 37.364328], [-122.03299, 37.36442], [-122.03315, 37.36455], [-122.03336, 37.36469], [-122.03356, 37.36481], [-122.03364, 37.36485], [-122.033952, 37.365021], [-122.03404, 37.36507], [-122.034212, 37.36516], [-122.034516, 37.36532], [-122.03463, 37.36538], [-122.03488, 37.36552], [-122.03583, 37.36602], [-122.03631, 37.3663], [-122.03644, 37.36641], [-122.036474, 37.366441], [-122.036551, 37.366512], [-122.03671, 37.36666], [-122.03688, 37.3669], [-122.03704, 37.36726], [-122.03711, 37.36764], [-122.037112, 37.367784], [-122.03713, 37.36865], [-122.03711, 37.36891], [-122.03709, 37.36903], [-122.03728, 37.36907], [-122.037862, 37.369209], [-122.03828, 37.36931], [-122.038943, 37.36948], [-122.039032, 37.369502], [-122.0391, 37.36952], [-122.03928, 37.36956], [-122.03966, 37.36967], [-122.040164, 37.369804], [-122.04082, 37.36998], [-122.04087, 37.37], [-122.04093, 37.37001], [-122.04088, 37.37016], [-122.04148, 37.37032], [-122.04375, 37.37089], [-122.04532, 37.37126], [-122.04676, 37.37155], [-122.04834, 37.37189], [-122.04841, 37.37191], [-122.04846, 37.37192], [-122.04924, 37.37208], [-122.05007, 37.37226], [-122.05074, 37.37239], [-122.05167, 37.37263], [-122.05222, 37.37279], [-122.05278, 37.37295], [-122.05324, 37.37308], [-122.05441, 37.3734], [-122.05478, 37.37351], [-122.05566, 37.37376], [-122.05624, 37.37393], [-122.05645, 37.37399], [-122.057129, 37.374249], [-122.05729, 37.37431], [-122.057434, 37.374367], [-122.0583, 37.37471], [-122.059, 37.375], [-122.05935, 37.37514], [-122.05948, 37.3752], [-122.060076, 37.375435], [-122.06014, 37.37546], [-122.060276, 37.375516], [-122.060329, 37.375354], [-122.060139, 37.37528], [-122.060128, 37.375275], [-122.059985, 37.37522], [-122.059557, 37.375056], [-122.059415, 37.375002], [-122.059344, 37.374974], [-122.05928, 37.37495], [-122.059138, 37.374882], [-122.05907, 37.37485], [-122.058919, 37.374784], [-122.05875, 37.37471], [-122.058463, 37.374599], [-122.059374, 37.373062], [-122.059789, 37.372364], [-122.060348, 37.371457], [-122.06138, 37.369783], [-122.0621, 37.368612], [-122.062311, 37.368248], [-122.063259, 37.366723], [-122.062991, 37.366343], [-122.062619, 37.365799], [-122.062316, 37.365037], [-122.061993, 37.364616], [-122.061983, 37.364277], [-122.062157, 37.363607], [-122.062108, 37.362869], [-122.061602, 37.362519], [-122.061834, 37.361909], [-122.061485, 37.361136], [-122.061627, 37.360775], [-122.061708, 37.360665], [-122.061711, 37.360601], [-122.061713, 37.360568], [-122.061754, 37.360415], [-122.061816, 37.360151], [-122.061858, 37.360046], [-122.061896, 37.35997], [-122.061933, 37.359898], [-122.062023, 37.359793], [-122.062161, 37.359634], [-122.062291, 37.359508], [-122.062374, 37.35942], [-122.062457, 37.359305], [-122.062505, 37.359162], [-122.062539, 37.359025], [-122.062574, 37.358915], [-122.062539, 37.358783], [-122.062422, 37.358623], [-122.062352, 37.358555], [-122.062202, 37.358409], [-122.062002, 37.358206], [-122.061816, 37.358063], [-122.061617, 37.35792], [-122.061114, 37.357607], [-122.061039, 37.35753], [-122.060956, 37.357404], [-122.060922, 37.357299], [-122.060915, 37.357085], [-122.060915, 37.356887], [-122.060956, 37.356464], [-122.061011, 37.356354], [-122.061135, 37.3562], [-122.061409, 37.35608], [-122.061548, 37.355951], [-122.061647, 37.355832], [-122.06167, 37.35572], [-122.061639, 37.355405], [-122.061583, 37.355337], [-122.061535, 37.355301], [-122.061404, 37.355206], [-122.061256, 37.355118], [-122.061218, 37.355096], [-122.060952, 37.354992], [-122.060732, 37.354807], [-122.060722, 37.354766], [-122.06077, 37.354645], [-122.060853, 37.354558], [-122.060984, 37.354453], [-122.06131, 37.354255], [-122.061362, 37.354222], [-122.06139, 37.354206], [-122.061415, 37.354185], [-122.061509, 37.354107], [-122.061557, 37.354068], [-122.061604, 37.354162], [-122.061746, 37.354444], [-122.061785, 37.354404], [-122.061967, 37.354212], [-122.062366, 37.353636], [-122.062416, 37.353542], [-122.06248, 37.353545], [-122.062673, 37.353527], [-122.062784, 37.353491], [-122.063047, 37.353308], [-122.063244, 37.353159], [-122.06346, 37.35292], [-122.063482, 37.352871], [-122.063478, 37.352585], [-122.063479, 37.352506], [-122.063403, 37.352346], [-122.063339, 37.352212], [-122.063314, 37.352163], [-122.063246, 37.35216], [-122.063079, 37.352054], [-122.062972, 37.351988], [-122.062887, 37.351935], [-122.063186, 37.351519], [-122.063201, 37.351498], [-122.063475, 37.35114], [-122.063582, 37.350867], [-122.063648, 37.350689], [-122.06373, 37.350465], [-122.064065, 37.35016], [-122.064281, 37.349975], [-122.064257, 37.349787], [-122.064224, 37.349537], [-122.064189, 37.349275], [-122.064179, 37.349198], [-122.064442, 37.349071], [-122.064548, 37.349021], [-122.064696, 37.348951], [-122.064705, 37.348902], [-122.064712, 37.34886], [-122.064744, 37.34868], [-122.064765, 37.348563], [-122.06479, 37.34845], [-122.064795, 37.348394], [-122.064747, 37.348034], [-122.064902, 37.347861], [-122.064967, 37.347778], [-122.064754, 37.347624], [-122.064576, 37.347496], [-122.064465, 37.347417], [-122.064262, 37.347326], [-122.064131, 37.347268], [-122.063877, 37.347157], [-122.063638, 37.346968], [-122.063611, 37.346875], [-122.063637, 37.346787], [-122.063645, 37.346674], [-122.063684, 37.346607], [-122.06387, 37.346524], [-122.064134, 37.346406], [-122.064315, 37.346205], [-122.064161, 37.345593], [-122.064227, 37.345271], [-122.064161, 37.345093], [-122.064122, 37.344987], [-122.064132, 37.344819], [-122.064214, 37.344752], [-122.064415, 37.344632], [-122.064701, 37.344512], [-122.064725, 37.344497], [-122.064891, 37.344431], [-122.064897, 37.344391], [-122.064907, 37.344341], [-122.064923, 37.344244], [-122.064948, 37.344101], [-122.064985, 37.343883], [-122.065039, 37.343697], [-122.065192, 37.34315], [-122.064964, 37.342657], [-122.064839, 37.342387], [-122.064819, 37.34205], [-122.064795, 37.341577], [-122.064602, 37.341503], [-122.06432, 37.34139], [-122.064211, 37.341347], [-122.063876, 37.341213], [-122.063696, 37.340362], [-122.063474, 37.340027], [-122.063448, 37.339992], [-122.063318, 37.3399], [-122.063072, 37.339837], [-122.062891, 37.339784], [-122.062576, 37.339693], [-122.062456, 37.33954], [-122.062735, 37.339203], [-122.062793, 37.339132], [-122.062808, 37.338972], [-122.062721, 37.338844], [-122.062602, 37.338668], [-122.062477, 37.33858], [-122.062382, 37.338513], [-122.062196, 37.338387], [-122.06214, 37.338261], [-122.062094, 37.338158], [-122.062057, 37.338075], [-122.062131, 37.337965], [-122.062187, 37.337883], [-122.062236, 37.337812], [-122.062274, 37.337754], [-122.062318, 37.33769], [-122.062353, 37.337639], [-122.062382, 37.337596], [-122.0624, 37.33754], [-122.062208, 37.33754], [-122.061632, 37.33754], [-122.06144, 37.33754]]]}}, {"type": "Feature", "properties": {"DISTRICT": "2", "NAME": ""}, "geometry": {"type": "Polygon", "coordinates": [[[-122.03709, 37.36903], [-122.03711, 37.36891], [-122.03713, 37.36865], [-122.037112, 37.367784], [-122.03711, 37.36764], [-122.03704, 37.36726], [-122.03688, 37.3669], [-122.03671, 37.36666], [-122.036551, 37.366512], [-122.036474, 37.366441], [-122.03644, 37.36641], [-122.03631, 37.3663], [-122.03583, 37.36602], [-122.03488, 37.36552], [-122.03463, 37.36538], [-122.034516, 37.36532], [-122.034212, 37.36516], [-122.03404, 37.36507], [-122.033952, 37.365021], [-122.03364, 37.36485], [-122.03356, 37.36481], [-122.03336, 37.36469], [-122.03315, 37.36455], [-122.03299, 37.36442], [-122.032994, 37.364328], [-122.033166, 37.364204], [-122.03333, 37.36412], [-122.03328, 37.36408], [-122.03299, 37.36419], [-122.03284, 37.36427], [-122.03269, 37.36435], [-122.03248, 37.36449], [-122.03243, 37.36454], [-122.03239, 37.3646], [-122.03236, 37.36466], [-122.03235, 37.36479], [-122.03235, 37.36506], [-122.03235, 37.365268], [-122.03235, 37.36576], [-122.032341, 37.366525], [-122.03234, 37.36664], [-122.032334, 37.366821], [-122.03233, 37.36695], [-122.03228, 37.36716], [-122.032208, 37.367349], [-122.03219, 37.3674], [-122.03211, 37.3675], [-122.03222, 37.36758], [-122.032116, 37.367699], [-122.03209, 37.36773], [-122.031891, 37.368102], [-122.031813, 37.368247], [-122.03167, 37.3682], [-122.031482, 37.368172], [-122.03126, 37.36814], [-122.030918, 37.368094], [-122.03073, 37.36807], [-122.03053, 37.36804], [-122.030343, 37.368025], [-122.03015, 37.36801], [-122.02959, 37.36798], [-122.029178, 37.367962], [-122.02889, 37.36795], [-122.02879, 37.36794], [-122.02859, 37.367916], [-122.02799, 37.367844], [-122.02779, 37.36782], [-122.027548, 37.367794], [-122.02695, 37.36773], [-122.026824, 37.367721], [-122.026582, 37.367704], [-122.026457, 37.367695], [-122.026084, 37.367668], [-122.02596, 37.36766], [-122.025506, 37.367624], [-122.02532, 37.36761], [-122.02469, 37.36755], [-122.02415, 37.36748], [-122.0237, 37.367422], [-122.02361, 37.36741], [-122.023569, 37.367403], [-122.02318, 37.367344], [-122.02315, 37.36734], [-122.02309, 37.36733], [-122.02305, 37.36733], [-122.022656, 37.367268], [-122.02254, 37.36725], [-122.02212, 37.36719], [-122.021474, 37.367103], [-122.02108, 37.36705], [-122.02105, 37.36705], [-122.02078, 37.367011], [-122.019881, 37.366882], [-122.01972, 37.36686], [-122.019581, 37.366845], [-122.01954, 37.36684], [-122.019312, 37.366816], [-122.01897, 37.36678], [-122.01863, 37.366753], [-122.01846, 37.36674], [-122.018403, 37.366737], [-122.018174, 37.366722], [-122.017488, 37.36668], [-122.01726, 37.36667], [-122.016868, 37.366648], [-122.01615, 37.36661], [-122.015692, 37.366604], [-122.0153, 37.3666], [-122.015137, 37.3666], [-122.015, 37.3666], [-122.01465, 37.366613], [-122.014488, 37.36662], [-122.014424, 37.366622], [-122.014235, 37.366629], [-122.014173, 37.366632], [-122.01396, 37.36664], [-122.01374, 37.36666], [-122.01374, 37.36704], [-122.01371, 37.36761], [-122.01365, 37.36811], [-122.01359, 37.3687], [-122.01359, 37.36878], [-122.01359, 37.369128], [-122.01359, 37.36988], [-122.013599, 37.370172], [-122.01361, 37.37052], [-122.01361, 37.37064], [-122.013613, 37.370788], [-122.01363, 37.3714], [-122.013658, 37.371592], [-122.013697, 37.371859], [-122.01373, 37.37209], [-122.013735, 37.372173], [-122.01376, 37.37253], [-122.01376, 37.373123], [-122.01376, 37.37344], [-122.01394, 37.37348], [-122.014476, 37.373588], [-122.01586, 37.37387], [-122.016618, 37.374068], [-122.017326, 37.374254], [-122.01758, 37.37432], [-122.017958, 37.374445], [-122.01966, 37.37501], [-122.01984, 37.375068], [-122.02047, 37.37527], [-122.02052, 37.37528], [-122.02056, 37.3753], [-122.021406, 37.375565], [-122.02212, 37.37579], [-122.02381, 37.37634], [-122.02417, 37.37647], [-122.024207, 37.376481], [-122.025146, 37.376772], [-122.0253, 37.37682], [-122.025693, 37.376952], [-122.027332, 37.377504], [-122.027879, 37.377688], [-122.027986, 37.377724], [-122.028309, 37.377833], [-122.02833, 37.37784], [-122.02842, 37.37786], [-122.02925, 37.37814], [-122.029453, 37.37821], [-122.03014, 37.37845], [-122.03209, 37.37907], [-122.032568, 37.379215], [-122.03298, 37.37934], [-122.03334, 37.37947], [-122.03347, 37.37952], [-122.03353, 37.37954], [-122.0336, 37.37957], [-122.03366, 37.37959], [-122.033709, 37.379607], [-122.034037, 37.379725], [-122.03405, 37.37973], [-122.034148, 37.379761], [-122.035469, 37.380177], [-122.03624, 37.38042], [-122.03672, 37.38058], [-122.036909, 37.380646], [-122.03729, 37.38078], [-122.03773, 37.38092], [-122.03888, 37.38132], [-122.0394, 37.38146], [-122.039419, 37.381466], [-122.04033, 37.38179], [-122.040726, 37.381926], [-122.041, 37.38202], [-122.041519, 37.382187], [-122.04193, 37.38232], [-122.04293, 37.38267], [-122.04384, 37.38295], [-122.043902, 37.38297], [-122.04449, 37.38316], [-122.04461, 37.38319], [-122.0447, 37.38322], [-122.044857, 37.383271], [-122.045329, 37.383425], [-122.045487, 37.383477], [-122.04562, 37.38352], [-122.04681, 37.38392], [-122.04685, 37.383933], [-122.050196, 37.385036], [-122.05039, 37.3851], [-122.050945, 37.385291], [-122.05158, 37.38551], [-122.052311, 37.385744], [-122.0524, 37.38556], [-122.05271, 37.38461], [-122.052728, 37.384557], [-122.053832, 37.384792], [-122.055701, 37.38519], [-122.055911, 37.385235], [-122.056931, 37.385452], [-122.056966, 37.38535], [-122.057086, 37.384994], [-122.057292, 37.384386], [-122.057825, 37.382851], [-122.057985, 37.382395], [-122.058191, 37.381806], [-122.058328, 37.381414], [-122.058865, 37.379766], [-122.059083, 37.379113], [-122.059525, 37.377782], [-122.060124, 37.375986], [-122.060276, 37.375516], [-122.06014, 37.37546], [-122.060076, 37.375435], [-122.05948, 37.3752], [-122.05935, 37.37514], [-122.059, 37.375], [-122.0583, 37.37471], [-122.057434, 37.374367], [-122.05729, 37.37431], [-122.057129, 37.374249], [-122.05645, 37.37399], [-122.05624, 37.37393], [-122.05566, 37.37376], [-122.05478, 37.37351], [-122.05441, 37.3734], [-122.05324, 37.37308], [-122.05278, 37.37295], [-122.05222, 37.37279], [-122.05167, 37.37263], [-122.05074, 37.37239], [-122.05007, 37.37226], [-122.04924, 37.37208], [-122.04846, 37.37192], [-122.04841, 37.37191], [-122.04834, 37.37189], [-122.04676, 37.37155], [-122.04532, 37.37126], [-122.04375, 37.37089], [-122.04148, 37.37032], [-122.04088, 37.37016], [-122.04093, 37.37001], [-122.04087, 37.37], [-122.04082, 37.36998], [-122.040164, 37.369804], [-122.03966, 37.36967], [-122.03928, 37.36956], [-122.0391, 37.36952], [-122.039032, 37.369502], [-122.038943, 37.36948], [-122.03828, 37.36931], [-122.037862, 37.369209], [-122.03728, 37.36907], [-122.03709, 37.36903]]]}}, {"type": "Feature", "properties": {"DISTRICT": "3", "NAME": ""}, "geometry": {"type": "Polygon", "coordinates": [[[-122.04151, 37.33757], [-122.04135, 37.33757], [-122.04116, 37.337572], [-122.04049, 37.33758], [-122.040302, 37.33758], [-122.04011, 37.33758], [-122.03976, 37.33758], [-122.039572, 37.337579], [-122.039008, 37.337576], [-122.03882, 37.337575], [-122.038402, 37.337573], [-122.03775, 37.33757], [-122.037148, 37.33757], [-122.03673, 37.33757], [-122.036742, 37.337917], [-122.03677, 37.33871], [-122.03677, 37.338961], [-122.03677, 37.33931], [-122.036755, 37.339426], [-122.03501, 37.339429], [-122.033315, 37.339439], [-122.032752, 37.339441], [-122.032393, 37.339446], [-122.032391, 37.33921], [-122.03239, 37.33911], [-122.03239, 37.338917], [-122.03239, 37.338311], [-122.03239, 37.33822], [-122.032178, 37.338224], [-122.031873, 37.338229], [-122.030433, 37.33825], [-122.030436, 37.338218], [-122.030437, 37.338129], [-122.030439, 37.337744], [-122.030437, 37.337631], [-122.030391, 37.337631], [-122.030123, 37.337636], [-122.029167, 37.337653], [-122.02885, 37.33766], [-122.028622, 37.337665], [-122.02842, 37.33767], [-122.027938, 37.33767], [-122.02771, 37.33767], [-122.027334, 37.33767], [-122.026791, 37.33767], [-122.026208, 37.33767], [-122.02587, 37.33767], [-122.025833, 37.33767], [-122.025817, 37.33767], [-122.025769, 37.33767], [-122.025754, 37.337671], [-122.025637, 37.337672], [-122.02529, 37.337676], [-122.025174, 37.337678], [-122.025145, 37.337678], [-122.025058, 37.337679], [-122.02503, 37.33768], [-122.024678, 37.337684], [-122.0243, 37.33769], [-122.023622, 37.33769], [-122.02327, 37.33769], [-122.023089, 37.33769], [-122.022548, 37.337693], [-122.022471, 37.337693], [-122.022368, 37.337694], [-122.022228, 37.337694], [-122.022146, 37.337694], [-122.022145, 37.337613], [-122.022142, 37.337549], [-122.022139, 37.3372], [-122.022137, 37.337083], [-122.021891, 37.337085], [-122.021621, 37.337087], [-122.021624, 37.337354], [-122.021627, 37.337616], [-122.021634, 37.337696], [-122.021288, 37.337697], [-122.02076, 37.3377], [-122.020145, 37.337702], [-122.019764, 37.337704], [-122.019621, 37.337704], [-122.019619, 37.33764], [-122.019618, 37.337567], [-122.019616, 37.337264], [-122.019615, 37.337115], [-122.019768, 37.337115], [-122.020011, 37.337112], [-122.020012, 37.336941], [-122.019992, 37.333527], [-122.019991, 37.333354], [-122.019991, 37.333305], [-122.019992, 37.332916], [-122.019487, 37.332921], [-122.019104, 37.332924], [-122.018638, 37.332929], [-122.017729, 37.332938], [-122.017201, 37.332942], [-122.016685, 37.332945], [-122.016448, 37.332947], [-122.016452, 37.333052], [-122.016455, 37.333143], [-122.016456, 37.33317], [-122.016459, 37.333252], [-122.01646, 37.33328], [-122.016457, 37.333633], [-122.01645, 37.33448], [-122.01645, 37.334695], [-122.01645, 37.33505], [-122.016447, 37.335239], [-122.016441, 37.335809], [-122.01644, 37.336], [-122.01644, 37.33614], [-122.01644, 37.33656], [-122.01644, 37.3367], [-122.01644, 37.336905], [-122.01644, 37.33731], [-122.016433, 37.33752], [-122.01643, 37.33765], [-122.016433, 37.337726], [-122.015978, 37.337728], [-122.01556, 37.33773], [-122.014614, 37.337737], [-122.01431, 37.33774], [-122.01416, 37.33774], [-122.014163, 37.338471], [-122.01417, 37.33995], [-122.01417, 37.340667], [-122.01417, 37.3414], [-122.01417, 37.342006], [-122.01417, 37.34346], [-122.014162, 37.343824], [-122.014151, 37.34443], [-122.014149, 37.344492], [-122.014149, 37.344537], [-122.014146, 37.344678], [-122.014145, 37.344741], [-122.014142, 37.34488], [-122.01414, 37.34501], [-122.014146, 37.3453], [-122.01415, 37.34544], [-122.014154, 37.345704], [-122.014166, 37.346496], [-122.01417, 37.34676], [-122.014171, 37.34706], [-122.014177, 37.34796], [-122.01418, 37.34826], [-122.01418, 37.348668], [-122.01418, 37.349892], [-122.01418, 37.3503], [-122.01418, 37.35035], [-122.01416, 37.350658], [-122.01415, 37.35082], [-122.014092, 37.351732], [-122.01407, 37.35209], [-122.01407, 37.35217], [-122.014066, 37.352201], [-122.01406, 37.35226], [-122.014058, 37.352295], [-122.014057, 37.352327], [-122.01404, 37.35295], [-122.01403, 37.35317], [-122.01419, 37.35325], [-122.01443, 37.35338], [-122.01468, 37.35354], [-122.01502, 37.35374], [-122.0154, 37.354], [-122.01774, 37.35591], [-122.01892, 37.35689], [-122.02053, 37.3582], [-122.02171, 37.35919], [-122.02208, 37.3595], [-122.02216, 37.359566], [-122.022363, 37.359734], [-122.022682, 37.359997], [-122.02357, 37.36073], [-122.02381, 37.36092], [-122.02442, 37.36142], [-122.02487, 37.3618], [-122.02479, 37.362016], [-122.024748, 37.362129], [-122.024687, 37.362299], [-122.02444, 37.36298], [-122.02439, 37.363153], [-122.02428, 37.36354], [-122.02424, 37.363671], [-122.024123, 37.364064], [-122.024084, 37.364196], [-122.024029, 37.364382], [-122.02395, 37.36465], [-122.023852, 37.364936], [-122.02379, 37.36512], [-122.023732, 37.365285], [-122.023562, 37.365781], [-122.023505, 37.365947], [-122.02345, 37.36611], [-122.023412, 37.366223], [-122.023141, 37.367053], [-122.02308, 37.36724], [-122.02306, 37.36729], [-122.02305, 37.36733], [-122.02309, 37.36733], [-122.02315, 37.36734], [-122.02318, 37.367344], [-122.023569, 37.367403], [-122.02361, 37.36741], [-122.0237, 37.367422], [-122.02415, 37.36748], [-122.02469, 37.36755], [-122.02532, 37.36761], [-122.025506, 37.367624], [-122.02596, 37.36766], [-122.026084, 37.367668], [-122.026457, 37.367695], [-122.026582, 37.367704], [-122.026824, 37.367721], [-122.02695, 37.36773], [-122.027548, 37.367794], [-122.02779, 37.36782], [-122.02799, 37.367844], [-122.02859, 37.367916], [-122.02879, 37.36794], [-122.02889, 37.36795], [-122.029178, 37.367962], [-122.02959, 37.36798], [-122.03015, 37.36801], [-122.030343, 37.368025], [-122.03053, 37.36804], [-122.03073, 37.36807], [-122.030918, 37.368094], [-122.03126, 37.36814], [-122.031482, 37.368172], [-122.03167, 37.3682], [-122.031813, 37.368247], [-122.031891, 37.368102], [-122.03209, 37.36773], [-122.032116, 37.367699], [-122.03222, 37.36758], [-122.03211, 37.3675], [-122.03219, 37.3674], [-122.032208, 37.367349], [-122.03228, 37.36716], [-122.03233, 37.36695], [-122.032334, 37.366821], [-122.03234, 37.36664], [-122.032341, 37.366525], [-122.03235, 37.36576], [-122.03235, 37.365268], [-122.03235, 37.36506], [-122.03235, 37.36479], [-122.03236, 37.36466], [-122.03239, 37.3646], [-122.03243, 37.36454], [-122.03248, 37.36449], [-122.03269, 37.36435], [-122.03284, 37.36427], [-122.03274, 37.364146], [-122.03267, 37.36406], [-122.032611, 37.363945], [-122.0325, 37.36373], [-122.0324, 37.3635], [-122.03237, 37.36334], [-122.032362, 37.363278], [-122.03234, 37.3631], [-122.03234, 37.36304], [-122.032341, 37.362755], [-122.032343, 37.361901], [-122.032345, 37.361617], [-122.032346, 37.361331], [-122.032348, 37.360475], [-122.03235, 37.36019], [-122.03235, 37.359941], [-122.03235, 37.35923], [-122.032351, 37.359197], [-122.03236, 37.35903], [-122.03236, 37.35895], [-122.032373, 37.358638], [-122.03241, 37.35776], [-122.03241, 37.357703], [-122.032416, 37.357392], [-122.032419, 37.357202], [-122.032419, 37.357155], [-122.032427, 37.356635], [-122.03243, 37.356512], [-122.032431, 37.356422], [-122.032432, 37.356378], [-122.032434, 37.356206], [-122.032436, 37.356067], [-122.03244, 37.35585], [-122.032427, 37.355489], [-122.032425, 37.355428], [-122.03242, 37.35525], [-122.032413, 37.355105], [-122.032392, 37.354672], [-122.032386, 37.354528], [-122.03237, 37.3542], [-122.032373, 37.35403], [-122.032403, 37.352537], [-122.03241, 37.35219], [-122.03241, 37.35212], [-122.03242, 37.35204], [-122.032478, 37.352038], [-122.032655, 37.352033], [-122.032714, 37.352032], [-122.032871, 37.352027], [-122.03315, 37.35202], [-122.033344, 37.35202], [-122.033502, 37.35202], [-122.033699, 37.35202], [-122.03405, 37.35202], [-122.034292, 37.352031], [-122.03449, 37.35204], [-122.0347, 37.352046], [-122.035329, 37.352064], [-122.03554, 37.35207], [-122.03574, 37.35208], [-122.036339, 37.35208], [-122.03654, 37.35208], [-122.036757, 37.352082], [-122.037411, 37.352088], [-122.03763, 37.35209], [-122.037736, 37.35209], [-122.038022, 37.35209], [-122.038054, 37.35209], [-122.03807, 37.35209], [-122.03816, 37.352089], [-122.038271, 37.352087], [-122.038607, 37.352081], [-122.03872, 37.35208], [-122.039033, 37.352074], [-122.039497, 37.352066], [-122.03989, 37.35206], [-122.039975, 37.35206], [-122.04029, 37.35206], [-122.04054, 37.35206], [-122.04089, 37.35206], [-122.04129, 37.352067], [-122.04141, 37.35207], [-122.04154, 37.35207], [-122.041534, 37.351787], [-122.04153, 37.35155], [-122.041524, 37.35094], [-122.041522, 37.350658], [-122.04152, 37.35043], [-122.041522, 37.350162], [-122.04153, 37.34949], [-122.04151, 37.348675], [-122.04151, 37.34866], [-122.04151, 37.34818], [-122.041502, 37.347876], [-122.0415, 37.34778], [-122.041507, 37.346964], [-122.04151, 37.34666], [-122.04151, 37.346285], [-122.04151, 37.3456], [-122.041515, 37.345163], [-122.04152, 37.34479], [-122.04152, 37.34443], [-122.04152, 37.34335], [-122.04152, 37.34299], [-122.041522, 37.342837], [-122.04153, 37.34243], [-122.041527, 37.342381], [-122.04152, 37.34223], [-122.0415, 37.34184], [-122.0415, 37.341298], [-122.0415, 37.34126], [-122.041498, 37.34118], [-122.04149, 37.34056], [-122.0415, 37.33948], [-122.0415, 37.33888], [-122.041508, 37.338501], [-122.04152, 37.33794], [-122.04151, 37.33757]]]}}, {"type": "Feature", "properties": {"DISTRICT": "4", "NAME": ""}, "geometry": {"type": "Polygon", "coordinates": [[[-122.01416, 37.33774], [-122.014007, 37.337741], [-122.013548, 37.337746], [-122.013348, 37.337749], [-122.01323, 37.33775], [-122.013188, 37.33775], [-122.012567, 37.33775], [-122.01236, 37.33775], [-122.011198, 37.337668], [-122.010808, 37.337708], [-122.00909, 37.33769], [-122.008334, 37.33769], [-122.00747, 37.337746], [-122.0071, 37.33777], [-122.006754, 37.33777], [-122.005715, 37.33777], [-122.00537, 37.33777], [-122.004804, 37.337777], [-122.00312, 37.3378], [-122.003106, 37.3378], [-122.00254, 37.3378], [-122.002386, 37.337801], [-122.00205, 37.337802], [-122.00077, 37.33781], [-122.000583, 37.337811], [-122.000095, 37.337817], [-121.9998, 37.33782], [-121.999183, 37.337822], [-121.99768, 37.33783], [-121.99647, 37.33786], [-121.99645, 37.33786], [-121.99624, 37.33787], [-121.99578, 37.33787], [-121.99554, 37.33787], [-121.995543, 37.337973], [-121.995552, 37.338282], [-121.995555, 37.338386], [-121.99556, 37.33854], [-121.99556, 37.338628], [-121.99556, 37.33915], [-121.995564, 37.339357], [-121.99557, 37.3396], [-121.99557, 37.33968], [-121.99557, 37.339959], [-121.99557, 37.34018], [-121.995588, 37.340799], [-121.995597, 37.341079], [-121.995605, 37.341368], [-121.995608, 37.341463], [-121.99581, 37.341461], [-121.995996, 37.341459], [-121.997821, 37.341442], [-121.998761, 37.341434], [-121.999452, 37.341428], [-121.999623, 37.34143], [-122.000138, 37.341437], [-122.00031, 37.34144], [-122.000797, 37.34143], [-122.00081, 37.34143], [-122.00124, 37.34143], [-122.002262, 37.341439], [-122.0023, 37.34144], [-122.00275, 37.34143], [-122.00285, 37.34141], [-122.002888, 37.341392], [-122.002911, 37.342175], [-122.003001, 37.345311], [-122.00294, 37.34531], [-122.002899, 37.345307], [-122.002688, 37.345296], [-122.002643, 37.345294], [-122.00231, 37.345276], [-122.0022, 37.34527], [-122.002174, 37.345268], [-122.002099, 37.345263], [-122.002074, 37.345262], [-122.001791, 37.345263], [-122.000943, 37.34527], [-122.000661, 37.345273], [-122.000579, 37.345249], [-122.000217, 37.345244], [-122.000202, 37.34715], [-121.999949, 37.347153], [-121.999904, 37.348497], [-121.999905, 37.34866], [-121.99997, 37.34866], [-122.0, 37.34865], [-122.000055, 37.348645], [-122.00023, 37.34863], [-122.000286, 37.348622], [-122.000284, 37.348655], [-122.000285, 37.348709], [-122.000286, 37.348772], [-122.000294, 37.349576], [-122.000296, 37.349758], [-122.000302, 37.350333], [-122.000319, 37.352173], [-122.000322, 37.35234], [-122.000405, 37.352338], [-122.000408, 37.35242], [-122.000418, 37.353042], [-122.000424, 37.353373], [-122.00098, 37.35336], [-122.000978, 37.353296], [-122.000977, 37.353148], [-122.000977, 37.353041], [-122.000971, 37.352434], [-122.001192, 37.352429], [-122.001567, 37.352421], [-122.001593, 37.353842], [-122.001593, 37.354052], [-122.001008, 37.354066], [-122.000569, 37.354072], [-122.000445, 37.354075], [-122.000467, 37.354772], [-122.000486, 37.356551], [-122.000499, 37.357653], [-122.00051, 37.3586], [-122.000521, 37.359503], [-122.000379, 37.359505], [-122.000255, 37.359507], [-122.000178, 37.359507], [-121.99995, 37.359509], [-121.999874, 37.359511], [-121.999608, 37.359514], [-121.999608, 37.360287], [-121.999616, 37.360653], [-121.997576, 37.360665], [-121.99659, 37.360668], [-121.996036, 37.36067], [-121.995839, 37.360666], [-121.995838, 37.360695], [-121.995832, 37.360922], [-121.995815, 37.361602], [-121.99581, 37.36183], [-121.99581, 37.36199], [-121.99584, 37.36336], [-121.99584, 37.36341], [-121.995851, 37.363479], [-121.995834, 37.36442], [-121.995737, 37.366911], [-121.995792, 37.367165], [-121.995811, 37.368845], [-121.99582, 37.36953], [-121.995823, 37.369702], [-121.99583, 37.36999], [-121.99585, 37.37009], [-121.995917, 37.370148], [-121.995915, 37.370238], [-121.995917, 37.370305], [-121.987317, 37.370381], [-121.987296, 37.370442], [-121.987903, 37.370435], [-121.989728, 37.370415], [-121.990336, 37.370409], [-121.99112, 37.3704], [-121.991343, 37.370401], [-121.99297, 37.37041], [-121.994366, 37.370457], [-121.99474, 37.37047], [-121.995373, 37.370498], [-121.995906, 37.370522], [-121.995954, 37.370524], [-121.9961, 37.370531], [-121.99614, 37.370532], [-121.99626, 37.370538], [-121.9963, 37.37054], [-121.99637, 37.37054], [-121.99648, 37.37055], [-121.99669, 37.37056], [-121.99811, 37.37061], [-121.998328, 37.370625], [-122.0, 37.37074], [-122.00095, 37.37086], [-122.00135, 37.37093], [-122.004342, 37.371532], [-122.005861, 37.371838], [-122.006333, 37.371934], [-122.007032, 37.372074], [-122.009129, 37.372497], [-122.009829, 37.372638], [-122.010115, 37.372695], [-122.010975, 37.372869], [-122.011262, 37.372927], [-122.011762, 37.373027], [-122.01237, 37.37315], [-122.01326, 37.373335], [-122.01376, 37.37344], [-122.01376, 37.373123], [-122.01376, 37.37253], [-122.013735, 37.372173], [-122.01373, 37.37209], [-122.013697, 37.371859], [-122.013658, 37.371592], [-122.01363, 37.3714], [-122.013613, 37.370788], [-122.01361, 37.37064], [-122.01361, 37.37052], [-122.013599, 37.370172], [-122.01359, 37.36988], [-122.01359, 37.369128], [-122.01359, 37.36878], [-122.01359, 37.3687], [-122.01365, 37.36811], [-122.01371, 37.36761], [-122.01374, 37.36704], [-122.01374, 37.36666], [-122.01396, 37.36664], [-122.014173, 37.366632], [-122.014235, 37.366629], [-122.014424, 37.366622], [-122.014488, 37.36662], [-122.01465, 37.366613], [-122.015, 37.3666], [-122.015137, 37.3666], [-122.0153, 37.3666], [-122.015692, 37.366604], [-122.01615, 37.36661], [-122.016868, 37.366648], [-122.01726, 37.36667], [-122.017488, 37.36668], [-122.018174, 37.366722], [-122.018403, 37.366737], [-122.01846, 37.36674], [-122.01863, 37.366753], [-122.01897, 37.36678], [-122.019312, 37.366816], [-122.01954, 37.36684], [-122.019581, 37.366845], [-122.01972, 37.36686], [-122.019881, 37.366882], [-122.02078, 37.367011], [-122.02105, 37.36705], [-122.02108, 37.36705], [-122.021474, 37.367103], [-122.02212, 37.36719], [-122.02254, 37.36725], [-122.022656, 37.367268], [-122.02305, 37.36733], [-122.02306, 37.36729], [-122.02308, 37.36724], [-122.023141, 37.367053], [-122.023412, 37.366223], [-122.02345, 37.36611], [-122.023505, 37.365947], [-122.023562, 37.365781], [-122.023732, 37.365285], [-122.02379, 37.36512], [-122.023852, 37.364936], [-122.02395, 37.36465], [-122.024029, 37.364382], [-122.024084, 37.364196], [-122.024123, 37.364064], [-122.02424, 37.363671], [-122.02428, 37.36354], [-122.02439, 37.363153], [-122.02444, 37.36298], [-122.024687, 37.362299], [-122.024748, 37.362129], [-122.02479, 37.362016], [-122.02487, 37.3618], [-122.02442, 37.36142], [-122.02381, 37.36092], [-122.02357, 37.36073], [-122.022682, 37.359997], [-122.022363, 37.359734], [-122.02216, 37.359566], [-122.02208, 37.3595], [-122.02171, 37.35919], [-122.02053, 37.3582], [-122.01892, 37.35689], [-122.01774, 37.35591], [-122.0154, 37.354], [-122.01502, 37.35374], [-122.01468, 37.35354], [-122.01443, 37.35338], [-122.01419, 37.35325], [-122.01403, 37.35317], [-122.01404, 37.35295], [-122.014057, 37.352327], [-122.014058, 37.352295], [-122.01406, 37.35226], [-122.014066, 37.352201], [-122.01407, 37.35217], [-122.01407, 37.35209], [-122.014092, 37.351732], [-122.01415, 37.35082], [-122.01416, 37.350658], [-122.01418, 37.35035], [-122.01418, 37.3503], [-122.01418, 37.349892], [-122.01418, 37.348668], [-122.01418, 37.34826], [-122.014177, 37.34796], [-122.014171, 37.34706], [-122.01417, 37.34676], [-122.014166, 37.346496], [-122.014154, 37.345704], [-122.01415, 37.34544], [-122.014146, 37.3453], [-122.01414, 37.34501], [-122.014142, 37.34488], [-122.014145, 37.344741], [-122.014146, 37.344678], [-122.014149, 37.344537], [-122.014149, 37.344492], [-122.014151, 37.34443], [-122.014162, 37.343824], [-122.01417, 37.34346], [-122.01417, 37.342006], [-122.01417, 37.3414], [-122.01417, 37.340667], [-122.01417, 37.33995], [-122.014163, 37.338471], [-122.01416, 37.33774]]]}}, {"type": "Feature", "properties": {"DISTRICT": "5", "NAME": ""}, "geometry": {"type": "Polygon", "coordinates": [[[-122.02771, 37.39882], [-122.02774, 37.398828], [-122.02783, 37.398852], [-122.02786, 37.39886], [-122.027877, 37.398779], [-122.02788, 37.39877], [-122.027939, 37.398539], [-122.02796, 37.39846], [-122.02803, 37.39815], [-122.02825, 37.39735], [-122.028284, 37.39724], [-122.02838, 37.39694], [-122.02841, 37.39682], [-122.02863, 37.39616], [-122.02873, 37.39578], [-122.02881, 37.3955], [-122.028845, 37.395387], [-122.02906, 37.3947], [-122.029224, 37.394219], [-122.02931, 37.39397], [-122.02935, 37.39383], [-122.029466, 37.393458], [-122.02955, 37.39319], [-122.029825, 37.392348], [-122.02993, 37.39203], [-122.02995, 37.39198], [-122.03007, 37.39163], [-122.030099, 37.391538], [-122.03021, 37.39119], [-122.03028, 37.39095], [-122.03049, 37.39033], [-122.030504, 37.390203], [-122.03052, 37.39007], [-122.03055, 37.38974], [-122.03056, 37.38969], [-122.03056, 37.38965], [-122.0306, 37.38924], [-122.030637, 37.38901], [-122.0307, 37.38863], [-122.03073, 37.38845], [-122.03078, 37.38828], [-122.03097, 37.38774], [-122.03112, 37.38729], [-122.031232, 37.386889], [-122.03126, 37.38679], [-122.03146, 37.38619], [-122.031562, 37.385875], [-122.03159, 37.38579], [-122.0317, 37.38548], [-122.03179, 37.38526], [-122.031895, 37.384943], [-122.032, 37.38463], [-122.032028, 37.384542], [-122.03208, 37.38438], [-122.03211, 37.3843], [-122.032115, 37.384279], [-122.03214, 37.38419], [-122.03228, 37.38422], [-122.032617, 37.384302], [-122.03281, 37.38435], [-122.03322, 37.38446], [-122.034044, 37.384669], [-122.03452, 37.38479], [-122.03541, 37.385], [-122.03588, 37.3851], [-122.038966, 37.385756], [-122.03936, 37.38583], [-122.04006, 37.38598], [-122.040166, 37.386002], [-122.040483, 37.386068], [-122.04059, 37.38609], [-122.041189, 37.386216], [-122.042988, 37.386595], [-122.04315, 37.38663], [-122.0434, 37.38668], [-122.04349, 37.38669], [-122.04359, 37.38671], [-122.0436, 37.38667], [-122.043626, 37.386599], [-122.04367, 37.38648], [-122.043692, 37.386383], [-122.04371, 37.38631], [-122.043787, 37.386082], [-122.04392, 37.38569], [-122.044015, 37.385398], [-122.04409, 37.38517], [-122.04413, 37.38504], [-122.04425, 37.38465], [-122.04429, 37.38452], [-122.044369, 37.384259], [-122.04449, 37.38386], [-122.044614, 37.383479], [-122.0447, 37.38322], [-122.04461, 37.38319], [-122.04449, 37.38316], [-122.043902, 37.38297], [-122.04384, 37.38295], [-122.04293, 37.38267], [-122.04193, 37.38232], [-122.041519, 37.382187], [-122.041, 37.38202], [-122.040726, 37.381926], [-122.04033, 37.38179], [-122.039419, 37.381466], [-122.0394, 37.38146], [-122.03888, 37.38132], [-122.03773, 37.38092], [-122.03729, 37.38078], [-122.036909, 37.380646], [-122.03672, 37.38058], [-122.03624, 37.38042], [-122.035469, 37.380177], [-122.034148, 37.379761], [-122.03405, 37.37973], [-122.034037, 37.379725], [-122.033709, 37.379607], [-122.03366, 37.37959], [-122.0336, 37.37957], [-122.03353, 37.37954], [-122.03347, 37.37952], [-122.03334, 37.37947], [-122.03298, 37.37934], [-122.032568, 37.379215], [-122.03209, 37.37907], [-122.03014, 37.37845], [-122.029453, 37.37821], [-122.02925, 37.37814], [-122.02842, 37.37786], [-122.02833, 37.37784], [-122.028309, 37.377833], [-122.027986, 37.377724], [-122.027879, 37.377688], [-122.027332, 37.377504], [-122.025693, 37.376952], [-122.0253, 37.37682], [-122.025146, 37.376772], [-122.024207, 37.376481], [-122.02417, 37.37647], [-122.02381, 37.37634], [-122.02212, 37.37579], [-122.021406, 37.375565], [-122.02056, 37.3753], [-122.02052, 37.37528], [-122.02047, 37.37527], [-122.01984, 37.375068], [-122.01966, 37.37501], [-122.017958, 37.374445], [-122.01758, 37.37432], [-122.017326, 37.374254], [-122.016618, 37.374068], [-122.01586, 37.37387], [-122.014476, 37.373588], [-122.01394, 37.37348], [-122.01376, 37.37344], [-122.01326, 37.373335], [-122.01237, 37.37315], [-122.011762, 37.373027], [-122.011262, 37.372927], [-122.010975, 37.372869], [-122.010115, 37.372695], [-122.009829, 37.372638], [-122.009129, 37.372497], [-122.007032, 37.372074], [-122.006333, 37.371934], [-122.005861, 37.371838], [-122.004342, 37.371532], [-122.00135, 37.37093], [-122.00095, 37.37086], [-122.0, 37.37074], [-121.998328, 37.370625], [-121.99811, 37.37061], [-121.99669, 37.37056], [-121.99648, 37.37055], [-121.99637, 37.37054], [-121.9963, 37.37054], [-121.99626, 37.370538], [-121.99614, 37.370532], [-121.9961, 37.370531], [-121.995954, 37.370524], [-121.995906, 37.370522], [-121.995373, 37.370498], [-121.99474, 37.37047], [-121.994366, 37.370457], [-121.99297, 37.37041], [-121.991343, 37.370401], [-121.99112, 37.3704], [-121.990336, 37.370409], [-121.989728, 37.370415], [-121.987903, 37.370435], [-121.987296, 37.370442], [-121.987317, 37.370381], [-121.983432, 37.370415], [-121.982867, 37.370285], [-121.982581, 37.370283], [-121.982571, 37.370478], [-121.982569, 37.370583], [-121.982402, 37.370583], [-121.982402, 37.370676], [-121.982405, 37.371365], [-121.98256, 37.37137], [-121.982527, 37.371434], [-121.98244, 37.37161], [-121.982435, 37.371629], [-121.98242, 37.3717], [-121.98244, 37.37174], [-121.982437, 37.37184], [-121.98243, 37.3721], [-121.98243, 37.37226], [-121.98243, 37.372275], [-121.98243, 37.37234], [-121.98243, 37.37242], [-121.982424, 37.372737], [-121.98242, 37.37295], [-121.982433, 37.373691], [-121.98244, 37.37401], [-121.98244, 37.37406], [-121.98245, 37.37411], [-121.98397, 37.37409], [-121.98467, 37.37409], [-121.985113, 37.374082], [-121.98522, 37.37408], [-121.98623, 37.37408], [-121.98652, 37.37407], [-121.986896, 37.37407], [-121.98694, 37.37407], [-121.987023, 37.374068], [-121.98784, 37.37405], [-121.98912, 37.37403], [-121.989895, 37.374026], [-121.99106, 37.37402], [-121.99115, 37.37401], [-121.99166, 37.37402], [-121.99257, 37.37401], [-121.99297, 37.37401], [-121.993926, 37.373993], [-121.994165, 37.37399], [-121.99473, 37.37398], [-121.99558, 37.37398], [-121.99597, 37.37398], [-121.9962, 37.37398], [-121.99631, 37.37399], [-121.99658, 37.37398], [-121.996885, 37.373969], [-121.99746, 37.37395], [-121.99768, 37.37395], [-121.99913, 37.37395], [-121.99996, 37.37395], [-122.0, 37.37394], [-122.00072, 37.37393], [-122.002283, 37.37393], [-122.00275, 37.37393], [-122.002967, 37.373928], [-122.004706, 37.373912], [-122.004679, 37.373993], [-122.004105, 37.376554], [-122.004037, 37.376821], [-122.003979, 37.37705], [-122.00365, 37.37714], [-122.003449, 37.3772], [-122.00283, 37.377384], [-122.002321, 37.377486], [-122.001593, 37.377602], [-122.000415, 37.377631], [-121.99747, 37.3777], [-121.99687, 37.3777], [-121.996211, 37.3777], [-121.99599, 37.3777], [-121.9959, 37.3777], [-121.99581, 37.37771], [-121.995482, 37.37771], [-121.99528, 37.37771], [-121.994, 37.37772], [-121.993114, 37.377728], [-121.99103, 37.37775], [-121.98958, 37.37777], [-121.98854, 37.37777], [-121.98791, 37.37778], [-121.98779, 37.37778], [-121.98697, 37.37778], [-121.98697, 37.377922], [-121.986969, 37.378179], [-121.986966, 37.379977], [-121.986966, 37.38045], [-121.986966, 37.380577], [-121.986965, 37.380917], [-121.98697, 37.382099], [-121.986974, 37.382878], [-121.986947, 37.38473], [-121.986962, 37.386252], [-121.986964, 37.386665], [-121.986974, 37.388188], [-121.986974, 37.388239], [-121.986975, 37.388396], [-121.986976, 37.388448], [-121.9871, 37.38848], [-121.98873, 37.38893], [-121.99128, 37.38968], [-121.99277, 37.39013], [-121.99358, 37.39035], [-121.993799, 37.390412], [-121.995033, 37.390759], [-121.995529, 37.390921], [-121.99593, 37.391065], [-121.996138, 37.391141], [-121.996478, 37.391228], [-121.99721, 37.391447], [-121.997703, 37.39159], [-121.998224, 37.39174], [-121.998863, 37.391938], [-121.999061, 37.391997], [-121.999603, 37.392159], [-121.999994, 37.392276], [-122.002573, 37.392967], [-122.003761, 37.393309], [-122.005088, 37.393658], [-122.007153, 37.394251], [-122.00864, 37.39465], [-122.008674, 37.394657], [-122.008795, 37.394681], [-122.00889, 37.3947], [-122.009464, 37.394821], [-122.00965, 37.39486], [-122.010286, 37.395], [-122.0126, 37.39551], [-122.012805, 37.395558], [-122.01283, 37.39549], [-122.012903, 37.395288], [-122.012928, 37.395219], [-122.013016, 37.394962], [-122.013048, 37.394869], [-122.01325, 37.394181], [-122.013308, 37.393984], [-122.013323, 37.393919], [-122.013362, 37.393806], [-122.01352, 37.39335], [-122.013542, 37.393247], [-122.01432, 37.39343], [-122.01453, 37.39349], [-122.01533, 37.39366], [-122.01567, 37.39372], [-122.016033, 37.393775], [-122.01563, 37.394892], [-122.016073, 37.394977], [-122.016004, 37.395134], [-122.015971, 37.395222], [-122.016377, 37.395301], [-122.016132, 37.396059], [-122.01672, 37.39622], [-122.01741, 37.3964], [-122.0177, 37.39646], [-122.01765, 37.3966], [-122.01848, 37.39679], [-122.020816, 37.397308], [-122.0226, 37.397703], [-122.022667, 37.397718], [-122.022976, 37.397786], [-122.024107, 37.398036], [-122.024484, 37.39812], [-122.02471, 37.39817], [-122.0253, 37.39828], [-122.027229, 37.398712], [-122.02771, 37.39882]]]}}, {"type": "Feature", "properties": {"DISTRICT": "6", "NAME": ""}, "geometry": {"type": "Polygon", "coordinates": [[[-122.022667, 37.397718], [-122.0226, 37.397703], [-122.020816, 37.397308], [-122.01848, 37.39679], [-122.01765, 37.3966], [-122.0177, 37.39646], [-122.01741, 37.3964], [-122.01672, 37.39622], [-122.016132, 37.396059], [-122.016377, 37.395301], [-122.015971, 37.395222], [-122.016004, 37.395134], [-122.016073, 37.394977], [-122.01563, 37.394892], [-122.016033, 37.393775], [-122.01567, 37.39372], [-122.01533, 37.39366], [-122.01453, 37.39349], [-122.01432, 37.39343], [-122.013542, 37.393247], [-122.01352, 37.39335], [-122.013362, 37.393806], [-122.013323, 37.393919], [-122.013308, 37.393984], [-122.01325, 37.394181], [-122.013048, 37.394869], [-122.013016, 37.394962], [-122.012928, 37.395219], [-122.012903, 37.395288], [-122.01283, 37.39549], [-122.012805, 37.395558], [-122.0126, 37.39551], [-122.010286, 37.395], [-122.00965, 37.39486], [-122.009464, 37.394821], [-122.00889, 37.3947], [-122.008795, 37.394681], [-122.008674, 37.394657], [-122.00864, 37.39465], [-122.007153, 37.394251], [-122.005088, 37.393658], [-122.003761, 37.393309], [-122.002573, 37.392967], [-121.999994, 37.392276], [-121.999603, 37.392159], [-121.999061, 37.391997], [-121.998863, 37.391938], [-121.998224, 37.39174], [-121.997703, 37.39159], [-121.99721, 37.391447], [-121.996478, 37.391228], [-121.996138, 37.391141], [-121.99593, 37.391065], [-121.995529, 37.390921], [-121.995033, 37.390759], [-121.993799, 37.390412], [-121.99358, 37.39035], [-121.99277, 37.39013], [-121.99128, 37.38968], [-121.98873, 37.38893], [-121.9871, 37.38848], [-121.986976, 37.388448], [-121.986976, 37.388537], [-121.986977, 37.388678], [-121.986978, 37.388805], [-121.986979, 37.388895], [-121.986984, 37.389786], [-121.987001, 37.392459], [-121.987007, 37.39335], [-121.98701, 37.393837], [-121.987019, 37.395299], [-121.987022, 37.395787], [-121.987023, 37.39593], [-121.987023, 37.395973], [-121.986861, 37.395971], [-121.986651, 37.395972], [-121.986655, 37.396212], [-121.986667, 37.396945], [-121.986661, 37.398116], [-121.986659, 37.399673], [-121.986658, 37.399888], [-121.986658, 37.400097], [-121.986658, 37.40075], [-121.986662, 37.403323], [-121.986647, 37.403454], [-121.986624, 37.40364], [-121.98659, 37.40386], [-121.986549, 37.404065], [-121.986516, 37.404208], [-121.986514, 37.404309], [-121.986513, 37.404765], [-121.986503, 37.41068], [-121.986419, 37.41068], [-121.98632, 37.41068], [-121.986322, 37.41202], [-121.98632, 37.412231], [-121.986358, 37.412635], [-121.98636, 37.412732], [-121.986374, 37.413258], [-121.98637, 37.417289], [-121.98637, 37.417529], [-121.987189, 37.41754], [-121.988241, 37.417554], [-121.988232, 37.417674], [-121.990248, 37.417682], [-121.994427, 37.417674], [-121.995309, 37.417672], [-121.995991, 37.417671], [-121.996151, 37.41767], [-121.996211, 37.417713], [-121.996578, 37.417976], [-121.996596, 37.417988], [-121.996657, 37.418018], [-121.996671, 37.41804], [-121.996846, 37.41813], [-121.99704, 37.41823], [-121.997234, 37.418331], [-121.997571, 37.418505], [-121.999205, 37.419348], [-122.000274, 37.4199], [-122.001176, 37.420365], [-122.001283, 37.42042], [-122.001606, 37.420586], [-122.001714, 37.420642], [-122.006706, 37.423217], [-122.011697, 37.425792], [-122.012209, 37.426056], [-122.012282, 37.426094], [-122.012356, 37.426132], [-122.012428, 37.426169], [-122.012501, 37.426206], [-122.012726, 37.426322], [-122.012993, 37.426458], [-122.013051, 37.426488], [-122.013109, 37.426518], [-122.01342, 37.426677], [-122.01511, 37.427543], [-122.016801, 37.428409], [-122.017289, 37.428658], [-122.017356, 37.428693], [-122.017424, 37.428728], [-122.017747, 37.428893], [-122.02036, 37.430231], [-122.022972, 37.431569], [-122.024096, 37.432144], [-122.026116, 37.433179], [-122.028137, 37.434214], [-122.0284, 37.434348], [-122.02852, 37.43441], [-122.02864, 37.434471], [-122.028838, 37.434573], [-122.029032, 37.434672], [-122.030683, 37.435514], [-122.033548, 37.436977], [-122.036218, 37.43834], [-122.038064, 37.439282], [-122.039217, 37.43987], [-122.041335, 37.440952], [-122.042677, 37.441637], [-122.043831, 37.442226], [-122.044757, 37.442765], [-122.045572, 37.443239], [-122.045589, 37.44424], [-122.045591, 37.44438], [-122.045595, 37.444579], [-122.04561, 37.445512], [-122.045612, 37.445582], [-122.04563, 37.446584], [-122.045638, 37.447072], [-122.045643, 37.447338], [-122.045656, 37.448093], [-122.045663, 37.448536], [-122.045672, 37.449025], [-122.045384, 37.455673], [-122.045271, 37.460276], [-122.045857, 37.459938], [-122.046574, 37.459526], [-122.047825, 37.459007], [-122.048185, 37.458973], [-122.04897, 37.4589], [-122.050313, 37.4589], [-122.050763, 37.458951], [-122.051244, 37.459007], [-122.051931, 37.459251], [-122.052648, 37.459656], [-122.057486, 37.462707], [-122.059673, 37.464087], [-122.059725, 37.460394], [-122.059883, 37.449316], [-122.059936, 37.445624], [-122.05995, 37.445224], [-122.059978, 37.444423], [-122.059992, 37.444022], [-122.060006, 37.443622], [-122.059939, 37.441705], [-122.059933, 37.441519], [-122.05986, 37.439416], [-122.059848, 37.439063], [-122.059767, 37.436747], [-122.059739, 37.435955], [-122.059687, 37.434431], [-122.059674, 37.434058], [-122.059673, 37.434039], [-122.059679, 37.433593], [-122.059685, 37.433147], [-122.059689, 37.432874], [-122.059697, 37.432242], [-122.059727, 37.430162], [-122.059764, 37.427449], [-122.059771, 37.426854], [-122.059772, 37.426839], [-122.058005, 37.426614], [-122.057368, 37.426549], [-122.057272, 37.426539], [-122.05624, 37.426488], [-122.053278, 37.426342], [-122.050939, 37.426226], [-122.049826, 37.426171], [-122.049172, 37.426139], [-122.047571, 37.426453], [-122.046709, 37.426623], [-122.043572, 37.427239], [-122.042758, 37.427163], [-122.041135, 37.427012], [-122.041117, 37.42701], [-122.041089, 37.427007], [-122.041064, 37.427005], [-122.041047, 37.427004], [-122.040418, 37.426947], [-122.040231, 37.426988], [-122.037305, 37.426717], [-122.037118, 37.426649], [-122.036105, 37.426558], [-122.03578, 37.42653], [-122.03487, 37.426446], [-122.034672, 37.426438], [-122.03508, 37.42549], [-122.035231, 37.425134], [-122.036789, 37.421494], [-122.036874, 37.420608], [-122.036924, 37.420102], [-122.03703, 37.419], [-122.03709, 37.41874], [-122.037096, 37.418547], [-122.03711, 37.41818], [-122.03711, 37.41781], [-122.03711, 37.417169], [-122.03711, 37.41685], [-122.03711, 37.41671], [-122.037105, 37.415935], [-122.0371, 37.41502], [-122.037108, 37.413613], [-122.03711, 37.41336], [-122.03709, 37.41284], [-122.037092, 37.411901], [-122.037104, 37.411049], [-122.037142, 37.408496], [-122.037156, 37.407645], [-122.037136, 37.40731], [-122.037079, 37.406305], [-122.03706, 37.40597], [-122.037101, 37.405919], [-122.037133, 37.405073], [-122.037237, 37.402342], [-122.037255, 37.40189], [-122.037266, 37.401628], [-122.03727, 37.40152], [-122.037271, 37.401488], [-122.037273, 37.401432], [-122.037277, 37.401406], [-122.03729, 37.40133], [-122.037295, 37.401305], [-122.037308, 37.401225], [-122.037323, 37.401136], [-122.037347, 37.400985], [-122.037361, 37.400906], [-122.03742, 37.40092], [-122.03895, 37.40123], [-122.039199, 37.40129], [-122.04002, 37.40149], [-122.04184, 37.40189], [-122.04325, 37.40222], [-122.044695, 37.402544], [-122.04543, 37.40271], [-122.04618, 37.40287], [-122.046534, 37.40293], [-122.046557, 37.402934], [-122.046626, 37.402946], [-122.04665, 37.40295], [-122.046872, 37.403006], [-122.046958, 37.40277], [-122.047403, 37.401552], [-122.046984, 37.401425], [-122.046476, 37.401313], [-122.046008, 37.401211], [-122.046413, 37.400089], [-122.046115, 37.400025], [-122.044979, 37.399822], [-122.045643, 37.397783], [-122.046099, 37.396499], [-122.046525, 37.3953], [-122.0466, 37.395092], [-122.046647, 37.394962], [-122.046541, 37.394933], [-122.046496, 37.39492], [-122.046449, 37.394907], [-122.046315, 37.394871], [-122.046259, 37.394854], [-122.046045, 37.394786], [-122.045561, 37.394629], [-122.045513, 37.394613], [-122.045237, 37.394529], [-122.044981, 37.394453], [-122.045001, 37.394388], [-122.0451, 37.394101], [-122.045168, 37.393906], [-122.045254, 37.393656], [-122.045351, 37.393315], [-122.045517, 37.392727], [-122.045589, 37.392475], [-122.045878, 37.39166], [-122.046263, 37.39053], [-122.046351, 37.390266], [-122.046762, 37.389049], [-122.047306, 37.389084], [-122.047461, 37.389095], [-122.04742, 37.38887], [-122.047393, 37.388736], [-122.04738, 37.38867], [-122.047295, 37.388339], [-122.047262, 37.388208], [-122.047295, 37.388172], [-122.047396, 37.388065], [-122.04743, 37.38803], [-122.04746, 37.38788], [-122.047445, 37.387751], [-122.047351, 37.38691], [-122.04732, 37.38663], [-122.04735, 37.38657], [-122.047385, 37.386534], [-122.04744, 37.38648], [-122.04764, 37.38639], [-122.04769, 37.386371], [-122.0478, 37.38633], [-122.04798, 37.38627], [-122.04864, 37.38607], [-122.04916, 37.38595], [-122.04968, 37.38587], [-122.05017, 37.38585], [-122.05059, 37.38585], [-122.05123, 37.38591], [-122.05136, 37.38593], [-122.05183, 37.38605], [-122.05218, 37.38615], [-122.052212, 37.386084], [-122.05227, 37.38597], [-122.052277, 37.385924], [-122.052302, 37.385789], [-122.052311, 37.385744], [-122.05158, 37.38551], [-122.050945, 37.385291], [-122.05039, 37.3851], [-122.050196, 37.385036], [-122.04685, 37.383933], [-122.04681, 37.38392], [-122.04562, 37.38352], [-122.045487, 37.383477], [-122.045329, 37.383425], [-122.044857, 37.383271], [-122.0447, 37.38322], [-122.044614, 37.383479], [-122.04449, 37.38386], [-122.044369, 37.384259], [-122.04429, 37.38452], [-122.04425, 37.38465], [-122.04413, 37.38504], [-122.04409, 37.38517], [-122.044015, 37.385398], [-122.04392, 37.38569], [-122.043787, 37.386082], [-122.04371, 37.38631], [-122.043692, 37.386383], [-122.04367, 37.38648], [-122.043626, 37.386599], [-122.0436, 37.38667], [-122.04359, 37.38671], [-122.04349, 37.38669], [-122.0434, 37.38668], [-122.04315, 37.38663], [-122.042988, 37.386595], [-122.041189, 37.386216], [-122.04059, 37.38609], [-122.040483, 37.386068], [-122.040166, 37.386002], [-122.04006, 37.38598], [-122.03936, 37.38583], [-122.038966, 37.385756], [-122.03588, 37.3851], [-122.03541, 37.385], [-122.03452, 37.38479], [-122.034044, 37.384669], [-122.03322, 37.38446], [-122.03281, 37.38435], [-122.032617, 37.384302], [-122.03228, 37.38422], [-122.03214, 37.38419], [-122.032115, 37.384279], [-122.03211, 37.3843], [-122.03208, 37.38438], [-122.032028, 37.384542], [-122.032, 37.38463], [-122.031895, 37.384943], [-122.03179, 37.38526], [-122.0317, 37.38548], [-122.03159, 37.38579], [-122.031562, 37.385875], [-122.03146, 37.38619], [-122.03126, 37.38679], [-122.031232, 37.386889], [-122.03112, 37.38729], [-122.03097, 37.38774], [-122.03078, 37.38828], [-122.03073, 37.38845], [-122.0307, 37.38863], [-122.030637, 37.38901], [-122.0306, 37.38924], [-122.03056, 37.38965], [-122.03056, 37.38969], [-122.03055, 37.38974], [-122.03052, 37.39007], [-122.030504, 37.390203], [-122.03049, 37.39033], [-122.03028, 37.39095], [-122.03021, 37.39119], [-122.030099, 37.391538], [-122.03007, 37.39163], [-122.02995, 37.39198], [-122.02993, 37.39203], [-122.029825, 37.392348], [-122.02955, 37.39319], [-122.029466, 37.393458], [-122.02935, 37.39383], [-122.02931, 37.39397], [-122.029224, 37.394219], [-122.02906, 37.3947], [-122.028845, 37.395387], [-122.02881, 37.3955], [-122.02873, 37.39578], [-122.02863, 37.39616], [-122.02841, 37.39682], [-122.02838, 37.39694], [-122.028284, 37.39724], [-122.02825, 37.39735], [-122.02803, 37.39815], [-122.02796, 37.39846], [-122.027939, 37.398539], [-122.02788, 37.39877], [-122.027877, 37.398779], [-122.02786, 37.39886], [-122.02783, 37.398852], [-122.02774, 37.398828], [-122.02771, 37.39882], [-122.027229, 37.398712], [-122.0253, 37.39828], [-122.02471, 37.39817], [-122.024484, 37.39812], [-122.024107, 37.398036], [-122.022976, 37.397786], [-122.022667, 37.397718]]]}}]}